name_unique,dataset_name,name,part,target_clock_period,version_vitis_hls,version_vivado,clock_period,latency_best_cycles,latency_best_seconds,latency_average_cycles,latency_average_seconds,latency_worst_cycles,latency_worst_seconds,resources_lut_used,resources_ff_used,resources_dsp_used,resources_bram_used,resources_uram_used
atax_opt_0be919c04b989f7b73228901ad21d07d,polybench_xilinx_post_frontend,atax,xczu9eg-ffvb1156-2-i,10.0,2023.1.1,,7.016000000000001e-09,8895.0,6.240732000000001e-05,8895.0,6.240732000000001e-05,8895.0,6.240732000000001e-05,29082,33104,320,70,0
atax_opt_0e0ff6d326fbe666c4ef0da00595eb88,polybench_xilinx_post_frontend,atax,xczu9eg-ffvb1156-2-i,10.0,2023.1.1,,7.2720000000000005e-09,3046.0,2.2150512e-05,3046.0,2.2150512e-05,3046.0,2.2150512e-05,87489,143200,640,252,0
atax_opt_0e66b56c6b01a368b452665c22ca8bcb,polybench_xilinx_post_frontend,atax,xczu9eg-ffvb1156-2-i,10.0,2023.1.1,,7.016000000000001e-09,25560.0,0.00017932896000000001,25560.0,0.00017932896000000001,25560.0,0.00017932896000000001,1814,1768,5,13,0
atax_opt_115bb59f31c2cbb10eb131a5be433154,polybench_xilinx_post_frontend,atax,xczu9eg-ffvb1156-2-i,10.0,2023.1.1,,7.016000000000001e-09,21521.0,0.00015099133600000002,21521.0,0.00015099133600000002,21521.0,0.00015099133600000002,2134,1899,10,20,0
atax_opt_16e8f88f590fe5d45c730afd973de098,polybench_xilinx_post_frontend,atax,xczu9eg-ffvb1156-2-i,10.0,2023.1.1,,7.114e-09,26700.0,0.0001899438,26700.0,0.0001899438,26700.0,0.0001899438,2291,1552,5,8,0
atax_opt_24593534ba274fa438da9dcd317da89a,polybench_xilinx_post_frontend,atax,xczu9eg-ffvb1156-2-i,10.0,2023.1.1,,7.114e-09,21007.0,0.000149443798,21007.0,0.000149443798,21007.0,0.000149443798,3612,3644,14,8,0
atax_opt_25b1f1b198ec3bad7649d71be61792f7,polybench_xilinx_post_frontend,atax,xczu9eg-ffvb1156-2-i,10.0,2023.1.1,,7.114e-09,38987.0,0.000277353518,38987.0,0.000277353518,38987.0,0.000277353518,2269,1457,5,8,0
atax_opt_2fabd2ab7c82ae536f56d18732998a21,polybench_xilinx_post_frontend,atax,xczu9eg-ffvb1156-2-i,10.0,2023.1.1,,7.114e-09,42571.0,0.000302850094,42571.0,0.000302850094,42571.0,0.000302850094,3550,2837,5,8,0
atax_opt_3ad9fdbea18a5a233f5b328adb94a22f,polybench_xilinx_post_frontend,atax,xczu9eg-ffvb1156-2-i,10.0,2023.1.1,,7.2720000000000005e-09,21840.0,0.00015882048,21840.0,0.00015882048,21840.0,0.00015882048,34303,40929,80,6,0
atax_opt_3e575d5a1904331bcb191220d155dcff,polybench_xilinx_post_frontend,atax,xczu9eg-ffvb1156-2-i,10.0,2023.1.1,,7.2720000000000005e-09,1518.0,1.1038896000000001e-05,1518.0,1.1038896000000001e-05,1518.0,1.1038896000000001e-05,110854,151240,1280,480,0
atax_opt_410cdd8209865d12ed09830ca4642605,polybench_xilinx_post_frontend,atax,xczu9eg-ffvb1156-2-i,10.0,2023.1.1,,7.016000000000001e-09,9080.0,6.370528000000001e-05,9080.0,6.370528000000001e-05,9080.0,6.370528000000001e-05,12510,18561,80,126,0
atax_opt_4fad2325864ddbe70516b9256f49103d,polybench_xilinx_post_frontend,atax,xczu9eg-ffvb1156-2-i,10.0,2023.1.1,,7.331000000000001e-09,5142.0,3.7696002000000005e-05,5142.0,3.7696002000000005e-05,5142.0,3.7696002000000005e-05,61332,75120,320,4,0
atax_opt_5136c0bcc922ebcef59e41fd4214b679,polybench_xilinx_post_frontend,atax,xczu9eg-ffvb1156-2-i,10.0,2023.1.1,,7.114e-09,22544.0,0.000160378016,22544.0,0.000160378016,22544.0,0.000160378016,3020,2956,20,11,0
atax_opt_61c4c1d4aa9c2251bdc85a41855a46f1,polybench_xilinx_post_frontend,atax,xczu9eg-ffvb1156-2-i,10.0,2023.1.1,,7.114e-09,22544.0,0.000160378016,22544.0,0.000160378016,22544.0,0.000160378016,2869,2750,20,11,0
atax_opt_62600ffc0f24c6bdc213aae536a9adac,polybench_xilinx_post_frontend,atax,xczu9eg-ffvb1156-2-i,10.0,2023.1.1,,7.114e-09,42571.0,0.000302850094,42571.0,0.000302850094,42571.0,0.000302850094,3682,2470,5,8,0
atax_opt_652b8d2085461a5b55c7ab5e944cafe3,polybench_xilinx_post_frontend,atax,xczu9eg-ffvb1156-2-i,10.0,2023.1.1,,7.114e-09,30732.0,0.000218627448,30732.0,0.000218627448,30732.0,0.000218627448,2389,1880,5,8,0
atax_opt_75c18ef7d389fc7c4ef30235ce3ee378,polybench_xilinx_post_frontend,atax,xczu9eg-ffvb1156-2-i,10.0,2023.1.1,,7.016000000000001e-09,4904.0,3.4406464000000005e-05,4904.0,3.4406464000000005e-05,4904.0,3.4406464000000005e-05,22626,34783,160,132,0
atax_opt_7934ba5a8db2609e7855e601a7e28d9d,polybench_xilinx_post_frontend,atax,xczu9eg-ffvb1156-2-i,10.0,2023.1.1,,7.114e-09,30732.0,0.000218627448,30732.0,0.000218627448,30732.0,0.000218627448,2377,1682,5,8,0
atax_opt_8121b6d23ca3425f1fd0115a04fc62dc,polybench_xilinx_post_frontend,atax,xczu9eg-ffvb1156-2-i,10.0,2023.1.1,,7.2720000000000005e-09,4833.0,3.5145576000000006e-05,4833.0,3.5145576000000006e-05,4833.0,3.5145576000000006e-05,44740,69385,320,132,0
atax_opt_81d0e75bb4f451acf22841b56771146e,polybench_xilinx_post_frontend,atax,xczu9eg-ffvb1156-2-i,10.0,2023.1.1,,7.016000000000001e-09,6952.0,4.8775232e-05,6952.0,4.8775232e-05,6952.0,4.8775232e-05,23008,35262,160,132,0
atax_opt_88e6e4bd889f40519ff19bfa14e9b8c5,polybench_xilinx_post_frontend,atax,xczu9eg-ffvb1156-2-i,10.0,2023.1.1,,7.114e-09,30284.0,0.000215440376,30284.0,0.000215440376,30284.0,0.000215440376,3527,2347,5,8,0
atax_opt_a4c5d45e2b8ef9a2b3253f6111c77c9f,polybench_xilinx_post_frontend,atax,xczu9eg-ffvb1156-2-i,10.0,2023.1.1,,7.016000000000001e-09,47901.0,0.000336073416,47901.0,0.000336073416,47901.0,0.000336073416,9952,11432,104,138,0
atax_opt_b4730f48de62633d36a60f3356ca3e62,polybench_xilinx_post_frontend,atax,xczu9eg-ffvb1156-2-i,10.0,2023.1.1,,7.2720000000000005e-09,21840.0,0.00015882048,21840.0,0.00015882048,21840.0,0.00015882048,28024,40105,80,8,0
atax_opt_c9090b42473610713bfd42e18fa9198b,polybench_xilinx_post_frontend,atax,xczu9eg-ffvb1156-2-i,10.0,2023.1.1,,7.016000000000001e-09,18328.0,0.000128589248,18328.0,0.000128589248,18328.0,0.000128589248,12904,18427,80,16,0
atax_opt_cd53ec28cbe21869cb5bd96ea640ad55,polybench_xilinx_post_frontend,atax,xczu9eg-ffvb1156-2-i,10.0,2023.1.1,,7.2720000000000005e-09,14296.0,0.000103960512,14296.0,0.000103960512,14296.0,0.000103960512,14732,21749,80,32,0
atax_opt_d05a00db8adda49bfea1c05de45c49fc,polybench_xilinx_post_frontend,atax,xczu9eg-ffvb1156-2-i,10.0,2023.1.1,,7.016000000000001e-09,21586.0,0.00015144737600000002,21586.0,0.00015144737600000002,21586.0,0.00015144737600000002,1563,1263,5,12,0
atax_opt_d28dd4caa1d027e981543a8edb201f2a,polybench_xilinx_post_frontend,atax,xczu9eg-ffvb1156-2-i,10.0,2023.1.1,,7.114e-09,5830.0,4.147462e-05,5830.0,4.147462e-05,5830.0,4.147462e-05,110630,128766,1280,2,0
atax_opt_d299b7c5c424df8171ac254574193505,polybench_xilinx_post_frontend,atax,xczu9eg-ffvb1156-2-i,10.0,2023.1.1,,7.114e-09,13542.0,9.6337788e-05,13542.0,9.6337788e-05,13542.0,9.6337788e-05,103967,136782,1280,480,0
atax_opt_d4bc95179cc225fcb6064586a131ff45,polybench_xilinx_post_frontend,atax,xczu9eg-ffvb1156-2-i,10.0,2023.1.1,,7.114e-09,18512.0,0.000131694368,18512.0,0.000131694368,18512.0,0.000131694368,6025,5977,40,8,0
atax_opt_e0ed5fc4962f393b201e18aa99941c8b,polybench_xilinx_post_frontend,atax,xczu9eg-ffvb1156-2-i,10.0,2023.1.1,,7.016000000000001e-09,19760.0,0.00013863616000000002,19760.0,0.00013863616000000002,19760.0,0.00013863616000000002,12154,17582,80,66,0
atax_opt_e672ea940b31562daa942581a6f1b066,polybench_xilinx_post_frontend,atax,xczu9eg-ffvb1156-2-i,10.0,2023.1.1,,7.331000000000001e-09,21577.0,0.00015818098700000002,21577.0,0.00015818098700000002,21577.0,0.00015818098700000002,3713,3683,10,12,0
atax_opt_f825c93d50cc23cccea05f71d8c3e1d1,polybench_xilinx_post_frontend,atax,xczu9eg-ffvb1156-2-i,10.0,2023.1.1,,7.016000000000001e-09,10021.0,7.0307336e-05,10021.0,7.0307336e-05,10021.0,7.0307336e-05,22718,34785,160,132,0
bicg_opt_0527b5814db4dda9489d32c143315bf8,polybench_xilinx_post_frontend,bicg,xczu9eg-ffvb1156-2-i,10.0,2023.1.1,,7.114e-09,30731.0,0.000218620334,30731.0,0.000218620334,30731.0,0.000218620334,2561,1905,5,8,0
bicg_opt_079abba313e9b190381d396e87f45dc4,polybench_xilinx_post_frontend,bicg,xczu9eg-ffvb1156-2-i,10.0,2023.1.1,,7.016000000000001e-09,19759.0,0.00013862914400000002,19759.0,0.00013862914400000002,19759.0,0.00013862914400000002,11853,17040,80,66,0
bicg_opt_1530ad63fffeef99779d7424ba5c26e3,polybench_xilinx_post_frontend,bicg,xczu9eg-ffvb1156-2-i,10.0,2023.1.1,,7.2720000000000005e-09,18263.0,0.00013280853600000002,18263.0,0.00013280853600000002,18263.0,0.00013280853600000002,15179,22357,80,32,0
bicg_opt_19c3258dc81c02daf562a8b5fb75b7f4,polybench_xilinx_post_frontend,bicg,xczu9eg-ffvb1156-2-i,10.0,2023.1.1,,7.016000000000001e-09,19759.0,0.00013862914400000002,19759.0,0.00013862914400000002,19759.0,0.00013862914400000002,12238,17613,80,68,0
bicg_opt_21333135faed33cc52aaa6ff0477b90f,polybench_xilinx_post_frontend,bicg,xczu9eg-ffvb1156-2-i,10.0,2023.1.1,,7.2720000000000005e-09,17480.0,0.00012711456000000002,17480.0,0.00012711456000000002,17480.0,0.00012711456000000002,4423,4851,18,18,0
bicg_opt_257a48fd90b305c8bcb038c037bb25a1,polybench_xilinx_post_frontend,bicg,xczu9eg-ffvb1156-2-i,10.0,2023.1.1,,7.114e-09,6853.0,4.8752242e-05,6853.0,4.8752242e-05,6853.0,4.8752242e-05,108029,128375,1280,7,0
bicg_opt_26157cc3189f4b9c7a51e9058546dc27,polybench_xilinx_post_frontend,bicg,xczu9eg-ffvb1156-2-i,10.0,2023.1.1,,7.114e-09,7414.0,5.2743196e-05,7414.0,5.2743196e-05,7414.0,5.2743196e-05,54049,71859,640,240,0
bicg_opt_29212e51635cff587464a0ac288df03d,polybench_xilinx_post_frontend,bicg,xczu9eg-ffvb1156-2-i,10.0,2023.1.1,,7.016000000000001e-09,23568.0,0.000165353088,23568.0,0.000165353088,23568.0,0.000165353088,2053,1857,10,18,0
bicg_opt_40095e42d87d8883d0cf5083251b9caf,polybench_xilinx_post_frontend,bicg,xczu9eg-ffvb1156-2-i,10.0,2023.1.1,,7.114e-09,19471.0,0.000138516694,19471.0,0.000138516694,19471.0,0.000138516694,3612,3478,20,8,0
bicg_opt_462f84009d945fb2df0dda20da32894e,polybench_xilinx_post_frontend,bicg,xczu9eg-ffvb1156-2-i,10.0,2023.1.1,,7.016000000000001e-09,25619.0,0.000179742904,25619.0,0.000179742904,25619.0,0.000179742904,1833,1680,5,16,0
bicg_opt_4b385579f12d8be55016a2b31299277e,polybench_xilinx_post_frontend,bicg,xczu9eg-ffvb1156-2-i,10.0,2023.1.1,,7.016000000000001e-09,9078.0,6.369124800000001e-05,9078.0,6.369124800000001e-05,9078.0,6.369124800000001e-05,12548,18559,80,127,0
bicg_opt_5334546da9e231f1c47cd6e7e43c5ab5,polybench_xilinx_post_frontend,bicg,xczu9eg-ffvb1156-2-i,10.0,2023.1.1,,7.114e-09,43018.0,0.000306030052,43018.0,0.000306030052,43018.0,0.000306030052,2539,1810,5,8,0
bicg_opt_53e94272afde646eacc3a057d651d062,polybench_xilinx_post_frontend,bicg,xczu9eg-ffvb1156-2-i,10.0,2023.1.1,,7.016000000000001e-09,19759.0,0.00013862914400000002,19759.0,0.00013862914400000002,19759.0,0.00013862914400000002,11982,17240,80,68,0
bicg_opt_545a3e9fcfb12dea3e859e933cbaf863,polybench_xilinx_post_frontend,bicg,xczu9eg-ffvb1156-2-i,10.0,2023.1.1,,7.2720000000000005e-09,19508.0,0.000141862176,19508.0,0.000141862176,19508.0,0.000141862176,20875,26079,134,142,0
bicg_opt_55f1fc008f5189a375b50b075abad086,polybench_xilinx_post_frontend,bicg,xczu9eg-ffvb1156-2-i,10.0,2023.1.1,,7.114e-09,30283.0,0.000215433262,30283.0,0.000215433262,30283.0,0.000215433262,3906,3391,5,8,0
bicg_opt_63e30c5acbc0bcd07eba24beaff34784,polybench_xilinx_post_frontend,bicg,xczu9eg-ffvb1156-2-i,10.0,2023.1.1,,7.114e-09,21006.0,0.000149436684,21006.0,0.000149436684,21006.0,0.000149436684,3796,3867,14,8,0
bicg_opt_69b86c6bd9f84865768fdd9f6b1ebf15,polybench_xilinx_post_frontend,bicg,xczu9eg-ffvb1156-2-i,10.0,2023.1.1,,7.331000000000001e-09,3042.0,2.2300902000000004e-05,3042.0,2.2300902000000004e-05,3042.0,2.2300902000000004e-05,74737,104198,640,256,0
bicg_opt_6ac8f84e6ec9bf8a2b98186bc4a96197,polybench_xilinx_post_frontend,bicg,xczu9eg-ffvb1156-2-i,10.0,2023.1.1,,7.016000000000001e-09,21711.0,0.000152324376,21711.0,0.000152324376,21711.0,0.000152324376,17644,19539,110,70,0
bicg_opt_87c03916d4fcdc31144ab11e4222912f,polybench_xilinx_post_frontend,bicg,xczu9eg-ffvb1156-2-i,10.0,2023.1.1,,7.114e-09,38986.0,0.000277346404,38986.0,0.000277346404,38986.0,0.000277346404,2453,1680,5,8,0
bicg_opt_88fc7f0d4beede47b7f9ed258def3e1a,polybench_xilinx_post_frontend,bicg,xczu9eg-ffvb1156-2-i,10.0,2023.1.1,,7.114e-09,5084.0,3.6167576000000004e-05,5084.0,3.6167576000000004e-05,5084.0,3.6167576000000004e-05,232253,293677,2560,5,0
bicg_opt_8a549ba5df3e4c4a36fcc178e38a7a4b,polybench_xilinx_post_frontend,bicg,xczu9eg-ffvb1156-2-i,10.0,2023.1.1,,7.016000000000001e-09,26637.0,0.00018688519200000002,26637.0,0.00018688519200000002,26637.0,0.00018688519200000002,2088,1604,7,20,0
bicg_opt_94c81d84290196b63d1fa294794eb12b,polybench_xilinx_post_frontend,bicg,xczu9eg-ffvb1156-2-i,10.0,2023.1.1,,7.114e-09,25827.0,0.000183733278,25827.0,0.000183733278,25827.0,0.000183733278,104181,137441,1280,480,0
bicg_opt_9a3ee5c2adaec53c3f2529448ce9374a,polybench_xilinx_post_frontend,bicg,xczu9eg-ffvb1156-2-i,10.0,2023.1.1,,7.016000000000001e-09,23568.0,0.000165353088,23568.0,0.000165353088,23568.0,0.000165353088,2284,2178,10,16,0
bicg_opt_9dde8a5377a14bb7bdf20b185a7bd656,polybench_xilinx_post_frontend,bicg,xczu9eg-ffvb1156-2-i,10.0,2023.1.1,,7.2720000000000005e-09,1516.0,1.1024352000000001e-05,1516.0,1.1024352000000001e-05,1516.0,1.1024352000000001e-05,111163,151718,1280,480,0
bicg_opt_b2f84b33834115edbe044fb83e672c12,polybench_xilinx_post_frontend,bicg,xczu9eg-ffvb1156-2-i,10.0,2023.1.1,,7.2720000000000005e-09,21839.0,0.000158813208,21839.0,0.000158813208,21839.0,0.000158813208,30217,40292,80,11,0
bicg_opt_ba24811d4dcfa1b6b10e966873dc18b3,polybench_xilinx_post_frontend,bicg,xczu9eg-ffvb1156-2-i,10.0,2023.1.1,,7.016000000000001e-09,25552.0,0.00017927283200000002,25552.0,0.00017927283200000002,25552.0,0.00017927283200000002,1442,1028,5,14,0
bicg_opt_d084211d0602d00807efacfd5d20e958,polybench_xilinx_post_frontend,bicg,xczu9eg-ffvb1156-2-i,10.0,2023.1.1,,7.114e-09,30283.0,0.000215433262,30283.0,0.000215433262,30283.0,0.000215433262,3852,2826,5,8,0
bicg_opt_e1401f5f21c886cc4f1facb14f7fb938,polybench_xilinx_post_frontend,bicg,xczu9eg-ffvb1156-2-i,10.0,2023.1.1,,7.016000000000001e-09,6950.0,4.87612e-05,6950.0,4.87612e-05,6950.0,4.87612e-05,23069,35292,160,136,0
bicg_opt_e26a6ebac84d7b9e5bd49aa4a3c96db2,polybench_xilinx_post_frontend,bicg,xczu9eg-ffvb1156-2-i,10.0,2023.1.1,,7.114e-09,14479.0,0.000103003606,14479.0,0.000103003606,14479.0,0.000103003606,6218,6326,40,8,0
bicg_opt_e4bd994259bf375141346aa68d544ecb,polybench_xilinx_post_frontend,bicg,xczu9eg-ffvb1156-2-i,10.0,2023.1.1,,7.114e-09,20109.0,0.000143055426,20109.0,0.000143055426,20109.0,0.000143055426,3901,2890,5,8,0
bicg_opt_e63082810872cf431a52c4516d440aaf,polybench_xilinx_post_frontend,bicg,xczu9eg-ffvb1156-2-i,10.0,2023.1.1,,7.114e-09,5380.0,3.827332e-05,5380.0,3.827332e-05,5380.0,3.827332e-05,115191,129542,1280,3,0
bicg_opt_fd218319263107ed813ab3119ee7bb85,polybench_xilinx_post_frontend,bicg,xczu9eg-ffvb1156-2-i,10.0,2023.1.1,,7.331000000000001e-09,21576.0,0.00015817365600000004,21576.0,0.00015817365600000004,21576.0,0.00015817365600000004,3756,3682,10,13,0
gemm_opt_005cf8bb045a4fb3c76a388b9dd58a67,polybench_xilinx_post_frontend,gemm,xczu9eg-ffvb1156-2-i,10.0,2023.1.1,,7.016000000000001e-09,28958.0,0.00020316932800000002,28958.0,0.00020316932800000002,28958.0,0.00020316932800000002,16366,22844,128,256,0
gemm_opt_033c4730614699c752ef07c66d3ee372,polybench_xilinx_post_frontend,gemm,xczu9eg-ffvb1156-2-i,10.0,2023.1.1,,7.016000000000001e-09,28958.0,0.00020316932800000002,28958.0,0.00020316932800000002,28958.0,0.00020316932800000002,16366,22844,128,256,0
gemm_opt_034f5ef438aa4edab7722fc5107e5e66,polybench_xilinx_post_frontend,gemm,xczu9eg-ffvb1156-2-i,10.0,2023.1.1,,7.016000000000001e-09,28958.0,0.00020316932800000002,28958.0,0.00020316932800000002,28958.0,0.00020316932800000002,16366,22844,128,256,0
gemm_opt_150fca79959f0434ec99af23839efdb8,polybench_xilinx_post_frontend,gemm,xczu9eg-ffvb1156-2-i,10.0,2023.1.1,,7.016000000000001e-09,28958.0,0.00020316932800000002,28958.0,0.00020316932800000002,28958.0,0.00020316932800000002,16366,22844,128,256,0
gemm_opt_1661f944d8d9c440a894dcbff70e87c4,polybench_xilinx_post_frontend,gemm,xczu9eg-ffvb1156-2-i,10.0,2023.1.1,,7.016000000000001e-09,28958.0,0.00020316932800000002,28958.0,0.00020316932800000002,28958.0,0.00020316932800000002,16366,22844,128,256,0
gemm_opt_2d2aae32028e15dec07ba7460d8c439d,polybench_xilinx_post_frontend,gemm,xczu9eg-ffvb1156-2-i,10.0,2023.1.1,,7.016000000000001e-09,28958.0,0.00020316932800000002,28958.0,0.00020316932800000002,28958.0,0.00020316932800000002,16366,22844,128,256,0
gemm_opt_2f61dc2bb6708fc5014f9dad4c05161b,polybench_xilinx_post_frontend,gemm,xczu9eg-ffvb1156-2-i,10.0,2023.1.1,,7.016000000000001e-09,28958.0,0.00020316932800000002,28958.0,0.00020316932800000002,28958.0,0.00020316932800000002,16366,22844,128,256,0
gemm_opt_2f8f09cb2a0e13ac7432dd649da81362,polybench_xilinx_post_frontend,gemm,xczu9eg-ffvb1156-2-i,10.0,2023.1.1,,7.016000000000001e-09,28958.0,0.00020316932800000002,28958.0,0.00020316932800000002,28958.0,0.00020316932800000002,16366,22844,128,256,0
gemm_opt_3021f75d79a336c552d9c1e7485f5f94,polybench_xilinx_post_frontend,gemm,xczu9eg-ffvb1156-2-i,10.0,2023.1.1,,7.016000000000001e-09,28958.0,0.00020316932800000002,28958.0,0.00020316932800000002,28958.0,0.00020316932800000002,16366,22844,128,256,0
gemm_opt_470eb9169366e5fca725f59f47374f8a,polybench_xilinx_post_frontend,gemm,xczu9eg-ffvb1156-2-i,10.0,2023.1.1,,7.016000000000001e-09,28958.0,0.00020316932800000002,28958.0,0.00020316932800000002,28958.0,0.00020316932800000002,16366,22844,128,256,0
gemm_opt_51fc7fb48a3381cfe66e2709e6125930,polybench_xilinx_post_frontend,gemm,xczu9eg-ffvb1156-2-i,10.0,2023.1.1,,7.016000000000001e-09,28958.0,0.00020316932800000002,28958.0,0.00020316932800000002,28958.0,0.00020316932800000002,16366,22844,128,256,0
gemm_opt_5221d480c434e2e36e79e2823a8a357b,polybench_xilinx_post_frontend,gemm,xczu9eg-ffvb1156-2-i,10.0,2023.1.1,,7.016000000000001e-09,28958.0,0.00020316932800000002,28958.0,0.00020316932800000002,28958.0,0.00020316932800000002,16366,22844,128,256,0
gemm_opt_63a60abcf5699d658eee3fa893c1e7d0,polybench_xilinx_post_frontend,gemm,xczu9eg-ffvb1156-2-i,10.0,2023.1.1,,7.016000000000001e-09,28958.0,0.00020316932800000002,28958.0,0.00020316932800000002,28958.0,0.00020316932800000002,16366,22844,128,256,0
gemm_opt_64b43800695a6e3cb0b61248be5ac204,polybench_xilinx_post_frontend,gemm,xczu9eg-ffvb1156-2-i,10.0,2023.1.1,,7.016000000000001e-09,28958.0,0.00020316932800000002,28958.0,0.00020316932800000002,28958.0,0.00020316932800000002,16366,22844,128,256,0
gemm_opt_6ee5fe841266247916bc4bfa33a0222d,polybench_xilinx_post_frontend,gemm,xczu9eg-ffvb1156-2-i,10.0,2023.1.1,,7.016000000000001e-09,28958.0,0.00020316932800000002,28958.0,0.00020316932800000002,28958.0,0.00020316932800000002,16366,22844,128,256,0
gemm_opt_790a0914c0a98712470334fa07fbee4f,polybench_xilinx_post_frontend,gemm,xczu9eg-ffvb1156-2-i,10.0,2023.1.1,,7.016000000000001e-09,28958.0,0.00020316932800000002,28958.0,0.00020316932800000002,28958.0,0.00020316932800000002,16366,22844,128,256,0
gemm_opt_8dcaed9b54a767205092ebb43a6039e6,polybench_xilinx_post_frontend,gemm,xczu9eg-ffvb1156-2-i,10.0,2023.1.1,,7.016000000000001e-09,28958.0,0.00020316932800000002,28958.0,0.00020316932800000002,28958.0,0.00020316932800000002,16366,22844,128,256,0
gemm_opt_93a37bec87aaa28fb398511546ccc266,polybench_xilinx_post_frontend,gemm,xczu9eg-ffvb1156-2-i,10.0,2023.1.1,,7.016000000000001e-09,28958.0,0.00020316932800000002,28958.0,0.00020316932800000002,28958.0,0.00020316932800000002,16366,22844,128,256,0
gemm_opt_94b3d262c37c6601797a5528790ea862,polybench_xilinx_post_frontend,gemm,xczu9eg-ffvb1156-2-i,10.0,2023.1.1,,7.016000000000001e-09,28958.0,0.00020316932800000002,28958.0,0.00020316932800000002,28958.0,0.00020316932800000002,16366,22844,128,256,0
gemm_opt_9e4db76ce30803d5554fe31d7bc363ae,polybench_xilinx_post_frontend,gemm,xczu9eg-ffvb1156-2-i,10.0,2023.1.1,,7.016000000000001e-09,28958.0,0.00020316932800000002,28958.0,0.00020316932800000002,28958.0,0.00020316932800000002,16366,22844,128,256,0
gemm_opt_a1cdf3c428b089fa59f6187e232f24fa,polybench_xilinx_post_frontend,gemm,xczu9eg-ffvb1156-2-i,10.0,2023.1.1,,7.016000000000001e-09,28958.0,0.00020316932800000002,28958.0,0.00020316932800000002,28958.0,0.00020316932800000002,16366,22844,128,256,0
gemm_opt_a2d61a52ea12f34b39bedd675a0f2554,polybench_xilinx_post_frontend,gemm,xczu9eg-ffvb1156-2-i,10.0,2023.1.1,,7.016000000000001e-09,28958.0,0.00020316932800000002,28958.0,0.00020316932800000002,28958.0,0.00020316932800000002,16366,22844,128,256,0
gemm_opt_ac139bcfefc71f7366683503e6faa76f,polybench_xilinx_post_frontend,gemm,xczu9eg-ffvb1156-2-i,10.0,2023.1.1,,7.016000000000001e-09,28958.0,0.00020316932800000002,28958.0,0.00020316932800000002,28958.0,0.00020316932800000002,16366,22844,128,256,0
gemm_opt_ac4d026df24a55625bdb482ee3c2debf,polybench_xilinx_post_frontend,gemm,xczu9eg-ffvb1156-2-i,10.0,2023.1.1,,7.016000000000001e-09,28958.0,0.00020316932800000002,28958.0,0.00020316932800000002,28958.0,0.00020316932800000002,16366,22844,128,256,0
gemm_opt_b366ef3d01f72f93a92d2761e4e8911c,polybench_xilinx_post_frontend,gemm,xczu9eg-ffvb1156-2-i,10.0,2023.1.1,,7.016000000000001e-09,28958.0,0.00020316932800000002,28958.0,0.00020316932800000002,28958.0,0.00020316932800000002,16366,22844,128,256,0
gemm_opt_c48ef8572ee6a732b36287f95168d995,polybench_xilinx_post_frontend,gemm,xczu9eg-ffvb1156-2-i,10.0,2023.1.1,,7.016000000000001e-09,28958.0,0.00020316932800000002,28958.0,0.00020316932800000002,28958.0,0.00020316932800000002,16366,22844,128,256,0
gemm_opt_c71f81640b2f8c41c15387d3c0414103,polybench_xilinx_post_frontend,gemm,xczu9eg-ffvb1156-2-i,10.0,2023.1.1,,7.016000000000001e-09,28958.0,0.00020316932800000002,28958.0,0.00020316932800000002,28958.0,0.00020316932800000002,16366,22844,128,256,0
gemm_opt_d2d1b565c965b86f11076cea6d3f390a,polybench_xilinx_post_frontend,gemm,xczu9eg-ffvb1156-2-i,10.0,2023.1.1,,7.016000000000001e-09,28958.0,0.00020316932800000002,28958.0,0.00020316932800000002,28958.0,0.00020316932800000002,16366,22844,128,256,0
gemm_opt_eae1e8e2bb1d5d5d3884ccd2e265e635,polybench_xilinx_post_frontend,gemm,xczu9eg-ffvb1156-2-i,10.0,2023.1.1,,7.016000000000001e-09,28958.0,0.00020316932800000002,28958.0,0.00020316932800000002,28958.0,0.00020316932800000002,16366,22844,128,256,0
gemm_opt_f18c8fd55a4998fa5915246f97e9e74c,polybench_xilinx_post_frontend,gemm,xczu9eg-ffvb1156-2-i,10.0,2023.1.1,,7.016000000000001e-09,28958.0,0.00020316932800000002,28958.0,0.00020316932800000002,28958.0,0.00020316932800000002,16366,22844,128,256,0
gemm_opt_f4a2e9d7a8efe5fc26eb8dc4e88d56fb,polybench_xilinx_post_frontend,gemm,xczu9eg-ffvb1156-2-i,10.0,2023.1.1,,7.016000000000001e-09,28958.0,0.00020316932800000002,28958.0,0.00020316932800000002,28958.0,0.00020316932800000002,16366,22844,128,256,0
gemm_opt_f8555a9a0b7becf7747a657dc222fb89,polybench_xilinx_post_frontend,gemm,xczu9eg-ffvb1156-2-i,10.0,2023.1.1,,7.016000000000001e-09,28958.0,0.00020316932800000002,28958.0,0.00020316932800000002,28958.0,0.00020316932800000002,16366,22844,128,256,0
gesummv_opt_00934c7466047a461c597102e2e1212c,polybench_xilinx_post_frontend,gesummv,xczu9eg-ffvb1156-2-i,10.0,2023.1.1,,7.016000000000001e-09,38991.0,0.000273560856,38991.0,0.000273560856,38991.0,0.000273560856,1987,1704,5,23,0
gesummv_opt_064926337dbc796c0b6f2cc4d8589f27,polybench_xilinx_post_frontend,gesummv,xczu9eg-ffvb1156-2-i,10.0,2023.1.1,,7.016000000000001e-09,36943.0,0.000259192088,36943.0,0.000259192088,36943.0,0.000259192088,2097,1694,5,26,0
gesummv_opt_0f82fc51275e9992dcb61a85d28b0255,polybench_xilinx_post_frontend,gesummv,xczu9eg-ffvb1156-2-i,10.0,2023.1.1,,7.016000000000001e-09,19504.0,0.000136840064,19504.0,0.000136840064,19504.0,0.000136840064,61823,93851,616,260,0
gesummv_opt_183602602d5d3239e0eee67d4cbf11a2,polybench_xilinx_post_frontend,gesummv,xczu9eg-ffvb1156-2-i,10.0,2023.1.1,,7.114e-09,31950.0,0.0002272923,31950.0,0.0002272923,31950.0,0.0002272923,2922,2165,5,16,0
gesummv_opt_2557497feaa1844a4bcf7bcec2064377,polybench_xilinx_post_frontend,gesummv,xczu9eg-ffvb1156-2-i,10.0,2023.1.1,,7.016000000000001e-09,20136.0,0.00014127417600000002,20136.0,0.00014127417600000002,20136.0,0.00014127417600000002,27755,43233,256,138,0
gesummv_opt_2d169d9f156a7079abd45e20fd79b780,polybench_xilinx_post_frontend,gesummv,xczu9eg-ffvb1156-2-i,10.0,2023.1.1,,7.114e-09,22088.0,0.000157134032,22088.0,0.000157134032,22088.0,0.000157134032,137386,169362,2048,12,0
gesummv_opt_4df33cddf7e6e33b2fc598ef64043b0e,polybench_xilinx_post_frontend,gesummv,xczu9eg-ffvb1156-2-i,10.0,2023.1.1,,7.2720000000000005e-09,35918.0,0.000261195696,35918.0,0.000261195696,35918.0,0.000261195696,3405,3354,5,16,0
gesummv_opt_4fec73cd1b65e1d72b7a2ecde731ea85,polybench_xilinx_post_frontend,gesummv,xczu9eg-ffvb1156-2-i,10.0,2023.1.1,,7.2720000000000005e-09,22064.0,0.000160449408,22064.0,0.000160449408,22064.0,0.000160449408,137858,170088,2048,10,0
gesummv_opt_526515fffb892c79dd0143b3183ccc75,polybench_xilinx_post_frontend,gesummv,xczu9eg-ffvb1156-2-i,10.0,2023.1.1,,7.2720000000000005e-09,35534.0,0.000258403248,35534.0,0.000258403248,35534.0,0.000258403248,4609,3653,5,16,0
gesummv_opt_5843594a29d55efb3cd549d6da0922ca,polybench_xilinx_post_frontend,gesummv,xczu9eg-ffvb1156-2-i,10.0,2023.1.1,,7.114e-09,27982.0,0.000199063948,27982.0,0.000199063948,27982.0,0.000199063948,2923,2108,5,16,0
gesummv_opt_75f0683004c7ed2043a6873d8e28afd8,polybench_xilinx_post_frontend,gesummv,xczu9eg-ffvb1156-2-i,10.0,2023.1.1,,7.2720000000000005e-09,20123.0,0.00014633445600000002,20123.0,0.00014633445600000002,20123.0,0.00014633445600000002,27996,43561,256,198,0
gesummv_opt_75f5cbce1ba5fc882105c3e2ad9bf995,polybench_xilinx_post_frontend,gesummv,xczu9eg-ffvb1156-2-i,10.0,2023.1.1,,7.114e-09,35918.0,0.000255520652,35918.0,0.000255520652,35918.0,0.000255520652,2921,2222,5,16,0
gesummv_opt_779340b31087b7d01e6d6921a89230a6,polybench_xilinx_post_frontend,gesummv,xczu9eg-ffvb1156-2-i,10.0,2023.1.1,,7.114e-09,14635.0,0.00010411339,14635.0,0.00010411339,14635.0,0.00010411339,139324,178728,2048,488,0
gesummv_opt_7fd4cd252b04f35f2107bdfc76870069,polybench_xilinx_post_frontend,gesummv,xczu9eg-ffvb1156-2-i,10.0,2023.1.1,,7.016000000000001e-09,18361.0,0.00012882077600000002,18361.0,0.00012882077600000002,18361.0,0.00012882077600000002,15063,22978,128,133,0
gesummv_opt_8180eef8c5691ca5df151dbf014ce76b,polybench_xilinx_post_frontend,gesummv,xczu9eg-ffvb1156-2-i,10.0,2023.1.1,,7.114e-09,18619.0,0.000132455566,18619.0,0.000132455566,18619.0,0.000132455566,72123,92612,1024,248,0
gesummv_opt_833972467702263da32443872feee72b,polybench_xilinx_post_frontend,gesummv,xczu9eg-ffvb1156-2-i,10.0,2023.1.1,,7.114e-09,1322.0,9.404708e-06,1322.0,9.404708e-06,1322.0,9.404708e-06,273970,352449,4096,960,0
gesummv_opt_91094b7dee88f6b056f994a3fd8ab373,polybench_xilinx_post_frontend,gesummv,xczu9eg-ffvb1156-2-i,10.0,2023.1.1,,7.016000000000001e-09,32736.0,0.00022967577600000003,32736.0,0.00022967577600000003,32736.0,0.00022967577600000003,10964,11847,104,146,0
gesummv_opt_96406d834abc46cbd4fb96bc1fef7a4d,polybench_xilinx_post_frontend,gesummv,xczu9eg-ffvb1156-2-i,10.0,2023.1.1,,7.114e-09,18538.0,0.000131879332,18538.0,0.000131879332,18538.0,0.000131879332,139357,178783,2048,488,0
gesummv_opt_9e47a71ad5293c826b2bb218795e4461,polybench_xilinx_post_frontend,gesummv,xczu9eg-ffvb1156-2-i,10.0,2023.1.1,,7.114e-09,4984.0,3.5456176e-05,4984.0,3.5456176e-05,4984.0,3.5456176e-05,320660,407649,4608,69,0
gesummv_opt_a04c012f9ebef589dbd9c78fc16cdddb,polybench_xilinx_post_frontend,gesummv,xczu9eg-ffvb1156-2-i,10.0,2023.1.1,,7.114e-09,35918.0,0.000255520652,35918.0,0.000255520652,35918.0,0.000255520652,2952,2388,5,16,0
gesummv_opt_b14889fa848eeb6e7a3bc146bd61531c,polybench_xilinx_post_frontend,gesummv,xczu9eg-ffvb1156-2-i,10.0,2023.1.1,,7.016000000000001e-09,38991.0,0.000273560856,38991.0,0.000273560856,38991.0,0.000273560856,1817,1530,5,23,0
gesummv_opt_ba34f703b4be8fbe21e7b985dc5c7f38,polybench_xilinx_post_frontend,gesummv,xczu9eg-ffvb1156-2-i,10.0,2023.1.1,,7.2720000000000005e-09,20122.0,0.00014632718400000002,20122.0,0.00014632718400000002,20122.0,0.00014632718400000002,27996,43560,256,198,0
gesummv_opt_bd854cfb06ec43421785d66f5ebe08b4,polybench_xilinx_post_frontend,gesummv,xczu9eg-ffvb1156-2-i,10.0,2023.1.1,,7.2720000000000005e-09,22044.0,0.00016030396800000002,22044.0,0.00016030396800000002,22044.0,0.00016030396800000002,35257,43358,512,108,0
gesummv_opt_c18828972f8a7cfbd84dff454c20c49f,polybench_xilinx_post_frontend,gesummv,xczu9eg-ffvb1156-2-i,10.0,2023.1.1,,7.2720000000000005e-09,31566.0,0.00022954795200000002,31566.0,0.00022954795200000002,31566.0,0.00022954795200000002,4564,3596,5,16,0
gesummv_opt_e833a9064693e7ffa1b178b3761cb654,polybench_xilinx_post_frontend,gesummv,xczu9eg-ffvb1156-2-i,10.0,2023.1.1,,7.114e-09,35534.0,0.000252788876,35534.0,0.000252788876,35534.0,0.000252788876,4555,3152,5,16,0
gesummv_opt_ec887411691f5b0564f2ec0c4fdcbcbf,polybench_xilinx_post_frontend,gesummv,xczu9eg-ffvb1156-2-i,10.0,2023.1.1,,7.114e-09,31566.0,0.000224560524,31566.0,0.000224560524,31566.0,0.000224560524,4715,3261,5,16,0
gesummv_opt_ee9316ba3a7ae028606b25cfaa406c3c,polybench_xilinx_post_frontend,gesummv,xczu9eg-ffvb1156-2-i,10.0,2023.1.1,,7.016000000000001e-09,20136.0,0.00014127417600000002,20136.0,0.00014127417600000002,20136.0,0.00014127417600000002,27601,43065,256,138,0
gesummv_opt_ef2b96ca155ff5b21533356b7a1006b1,polybench_xilinx_post_frontend,gesummv,xczu9eg-ffvb1156-2-i,10.0,2023.1.1,,7.016000000000001e-09,35023.0,0.000245721368,35023.0,0.000245721368,35023.0,0.000245721368,1756,1446,5,21,0
gesummv_opt_fab17af249be4d69e06a12d98afed4b8,polybench_xilinx_post_frontend,gesummv,xczu9eg-ffvb1156-2-i,10.0,2023.1.1,,7.2720000000000005e-09,38927.0,0.00028307714400000003,38927.0,0.00028307714400000003,38927.0,0.00028307714400000003,2016,1819,5,21,0
gesummv_opt_feec9e2ec675c4af00a7392a13fec23c,polybench_xilinx_post_frontend,gesummv,xczu9eg-ffvb1156-2-i,10.0,2023.1.1,,7.016000000000001e-09,18360.0,0.00012881376,18360.0,0.00012881376,18360.0,0.00012881376,15056,22977,128,133,0
gesummv_opt_ff632d426a296b99ad60429950e9da66,polybench_xilinx_post_frontend,gesummv,xczu9eg-ffvb1156-2-i,10.0,2023.1.1,,7.114e-09,22071.0,0.000157013094,22071.0,0.000157013094,22071.0,0.000157013094,137518,169503,2048,14,0
k2mm_opt_04a4b54823cea6038f229a2de1a7f222,polybench_xilinx_post_frontend,k2mm,xczu9eg-ffvb1156-2-i,10.0,2023.1.1,,7.764000000000001e-09,2177559.0,0.016906568076,2177559.0,0.016906568076,2177559.0,0.016906568076,10138,6076,40,88,0
k2mm_opt_0b39e22e0a051f2bedf5a9ea51d76aa7,polybench_xilinx_post_frontend,k2mm,xczu9eg-ffvb1156-2-i,10.0,2023.1.1,,7.793e-09,2166809.0,0.016885942537,2166809.0,0.016885942537,2166809.0,0.016885942537,8093,2532,8,56,0
k2mm_opt_17b5dd70d0b34ae099a743aa7de3a718,polybench_xilinx_post_frontend,k2mm,xczu9eg-ffvb1156-2-i,10.0,2023.1.1,,7.675000000000001e-09,1075617.0,0.008255360475000001,1075617.0,0.008255360475000001,1075617.0,0.008255360475000001,166143,198040,1472,256,0
k2mm_opt_197d8284187ce0a97e7981115aa605fe,polybench_xilinx_post_frontend,k2mm,xczu9eg-ffvb1156-2-i,10.0,2023.1.1,,7.016000000000001e-09,1128731.0,0.007919176696,1128731.0,0.007919176696,1128731.0,0.007919176696,15514,20334,80,280,0
k2mm_opt_1e4d3024979f6688e034bfe07c5bc4ff,polybench_xilinx_post_frontend,k2mm,xczu9eg-ffvb1156-2-i,10.0,2023.1.1,,7.016000000000001e-09,878875.0,0.006166187000000001,878875.0,0.006166187000000001,878875.0,0.006166187000000001,14994,19426,80,280,0
k2mm_opt_1e93ad1815b8943647905cb2caf95ba7,polybench_xilinx_post_frontend,k2mm,xczu9eg-ffvb1156-2-i,10.0,2023.1.1,,7.793e-09,1083681.0,0.008445126033000001,1083681.0,0.008445126033000001,1083681.0,0.008445126033000001,46386,53435,416,288,0
k2mm_opt_26c507bafef1683016b090c2e1370146,polybench_xilinx_post_frontend,k2mm,xczu9eg-ffvb1156-2-i,10.0,2023.1.1,,7.675000000000001e-09,2180630.0,0.01673633525,2180630.0,0.01673633525,2180630.0,0.01673633525,12102,5585,40,88,0
k2mm_opt_2b6bdb9eecdd8177769c0054d85d6617,polybench_xilinx_post_frontend,k2mm,xczu9eg-ffvb1156-2-i,10.0,2023.1.1,,7.016000000000001e-09,880923.0,0.006180555768,880923.0,0.006180555768,880923.0,0.006180555768,14843,19224,80,280,0
k2mm_opt_4fce37b0a8e5f8d78704fbc835966996,polybench_xilinx_post_frontend,k2mm,xczu9eg-ffvb1156-2-i,10.0,2023.1.1,,7.764000000000001e-09,2179094.0,0.016918485816,2179094.0,0.016918485816,2179094.0,0.016918485816,7521,3310,13,64,0
k2mm_opt_6671b1a3f4e2e07f887b040bdc1a7d6e,polybench_xilinx_post_frontend,k2mm,xczu9eg-ffvb1156-2-i,10.0,2023.1.1,,7.675000000000001e-09,2184214.0,0.016763842450000004,2184214.0,0.016763842450000004,2184214.0,0.016763842450000004,10588,2705,11,104,0
k2mm_opt_6a9a508991be4c97cf5567d1f8ac4861,polybench_xilinx_post_frontend,k2mm,xczu9eg-ffvb1156-2-i,10.0,2023.1.1,,7.016000000000001e-09,45606.0,0.00031997169600000004,45606.0,0.00031997169600000004,45606.0,0.00031997169600000004,25439,35497,128,504,0
k2mm_opt_6afe86fa4d26c27894b4e7332c4c20f1,polybench_xilinx_post_frontend,k2mm,xczu9eg-ffvb1156-2-i,10.0,2023.1.1,,7.764000000000001e-09,2179094.0,0.016918485816,2179094.0,0.016918485816,2179094.0,0.016918485816,7338,3138,13,64,0
k2mm_opt_6bc312b5b681437f5924b11af2d32055,polybench_xilinx_post_frontend,k2mm,xczu9eg-ffvb1156-2-i,10.0,2023.1.1,,7.764000000000001e-09,1927190.0,0.014962703160000002,1927190.0,0.014962703160000002,1927190.0,0.014962703160000002,6989,2662,11,64,0
k2mm_opt_6ffd2a81742853b3c35735af5025f5c4,polybench_xilinx_post_frontend,k2mm,xczu9eg-ffvb1156-2-i,10.0,2023.1.1,,7.449e-09,2179109.0,0.016232182941,2179109.0,0.016232182941,2179109.0,0.016232182941,158315,158700,1280,32,0
k2mm_opt_7515757042acc07d48afc4f41211a7d4,polybench_xilinx_post_frontend,k2mm,xczu9eg-ffvb1156-2-i,10.0,2023.1.1,,7.449e-09,2179109.0,0.016232182941,2179109.0,0.016232182941,2179109.0,0.016232182941,158794,159223,1280,32,0
k2mm_opt_7d215b8c1e1543f974fbf24b8ff940d4,polybench_xilinx_post_frontend,k2mm,xczu9eg-ffvb1156-2-i,10.0,2023.1.1,,7.764000000000001e-09,1925142.0,0.014946802488000002,1925142.0,0.014946802488000002,1925142.0,0.014946802488000002,7285,3081,13,64,0
k2mm_opt_811468c90e949730e765645688591f63,polybench_xilinx_post_frontend,k2mm,xczu9eg-ffvb1156-2-i,10.0,2023.1.1,,7.449e-09,2184215.0,0.016270217535,2184215.0,0.016270217535,2184215.0,0.016270217535,6716,3514,20,56,0
k2mm_opt_86f1f01a41e6dcc0b4218e28c4480719,polybench_xilinx_post_frontend,k2mm,xczu9eg-ffvb1156-2-i,10.0,2023.1.1,,7.764000000000001e-09,1083939.0,0.008415702396,1083939.0,0.008415702396,1083939.0,0.008415702396,77489,96882,736,416,0
k2mm_opt_95b4c1b90534111916b2cf49fd2a990f,polybench_xilinx_post_frontend,k2mm,xczu9eg-ffvb1156-2-i,10.0,2023.1.1,,7.016000000000001e-09,43558.0,0.000305602928,43558.0,0.000305602928,43558.0,0.000305602928,27329,36594,128,448,0
k2mm_opt_9a1d038e04ffd79fdbd365ae06181094,polybench_xilinx_post_frontend,k2mm,xczu9eg-ffvb1156-2-i,10.0,2023.1.1,,7.675000000000001e-09,2180374.0,0.01673437045,2180374.0,0.01673437045,2180374.0,0.01673437045,19911,16890,80,128,0
k2mm_opt_9dba5a4512f14ecca4ab1731e86d120e,polybench_xilinx_post_frontend,k2mm,xczu9eg-ffvb1156-2-i,10.0,2023.1.1,,7.675000000000001e-09,1926294.0,0.014784306450000001,1926294.0,0.014784306450000001,1926294.0,0.014784306450000001,30717,31585,160,152,0
k2mm_opt_b02c63a987f6235d328d00432a046e8f,polybench_xilinx_post_frontend,k2mm,xczu9eg-ffvb1156-2-i,10.0,2023.1.1,,7.793e-09,1082659.0,0.008437161587000001,1082659.0,0.008437161587000001,1082659.0,0.008437161587000001,47207,54746,416,288,0
k2mm_opt_b42c8ca6e6a7446e34b8cd5a622ac91d,polybench_xilinx_post_frontend,k2mm,xczu9eg-ffvb1156-2-i,10.0,2023.1.1,,7.793e-09,2181142.0,0.016997639606000002,2181142.0,0.016997639606000002,2181142.0,0.016997639606000002,5735,2489,10,56,0
k2mm_opt_bc09f0f272a89c88614fa882f4941c00,polybench_xilinx_post_frontend,k2mm,xczu9eg-ffvb1156-2-i,10.0,2023.1.1,,7.675000000000001e-09,1077537.0,0.008270096475,1077537.0,0.008270096475,1077537.0,0.008270096475,153457,179804,1472,184,0
k2mm_opt_bf3f3c110858ea2c70d67aa637395870,polybench_xilinx_post_frontend,k2mm,xczu9eg-ffvb1156-2-i,10.0,2023.1.1,,7.793e-09,1083681.0,0.008445126033000001,1083681.0,0.008445126033000001,1083681.0,0.008445126033000001,46103,53111,416,288,0
k2mm_opt_d6705e0cd66c65dac941ffe534bffb06,polybench_xilinx_post_frontend,k2mm,xczu9eg-ffvb1156-2-i,10.0,2023.1.1,,7.764000000000001e-09,1086754.0,0.008437558056000001,1086754.0,0.008437558056000001,1086754.0,0.008437558056000001,58497,80419,368,176,0
k2mm_opt_d8ada3e9a38dbf0bed43849ea7942576,polybench_xilinx_post_frontend,k2mm,xczu9eg-ffvb1156-2-i,10.0,2023.1.1,,7.793e-09,2180118.0,0.016989659574,2180118.0,0.016989659574,2180118.0,0.016989659574,9945,6270,20,64,0
k2mm_opt_d96de13db6ffeecb905c8dc7baa4e00d,polybench_xilinx_post_frontend,k2mm,xczu9eg-ffvb1156-2-i,10.0,2023.1.1,,7.675000000000001e-09,2184214.0,0.016763842450000004,2184214.0,0.016763842450000004,2184214.0,0.016763842450000004,10564,3037,11,88,0
k2mm_opt_dd0825bbbe0efd2ae1e4479c455dca07,polybench_xilinx_post_frontend,k2mm,xczu9eg-ffvb1156-2-i,10.0,2023.1.1,,7.675000000000001e-09,2182166.0,0.01674812405,2182166.0,0.01674812405,2182166.0,0.01674812405,10285,2884,13,88,0
k2mm_opt_f6d534b4afdb7a6b4a7da4163b7fd2d3,polybench_xilinx_post_frontend,k2mm,xczu9eg-ffvb1156-2-i,10.0,2023.1.1,,7.449e-09,2184215.0,0.016270217535,2184215.0,0.016270217535,2184215.0,0.016270217535,6542,3333,20,56,0
k3mm_opt_01105847379419478df0104542d6ad31,polybench_xilinx_post_frontend,k3mm,xczu9eg-ffvb1156-2-i,10.0,2023.1.1,,7.705e-09,40964.0,0.00031562762,40964.0,0.00031562762,40964.0,0.00031562762,52533,86188,160,576,0
k3mm_opt_1c2c448ff78bc2f0712175ccb08079ef,polybench_xilinx_post_frontend,k3mm,xczu9eg-ffvb1156-2-i,10.0,2023.1.1,,7.675000000000001e-09,2168082.0,0.016640029350000002,2168082.0,0.016640029350000002,2168082.0,0.016640029350000002,83672,56011,320,208,0
k3mm_opt_2d692c4bb687771a274932f647c04c19,polybench_xilinx_post_frontend,k3mm,xczu9eg-ffvb1156-2-i,10.0,2023.1.1,,7.449e-09,1078546.0,0.008034089154,1078546.0,0.008034089154,1078546.0,0.008034089154,156373,184172,1280,264,0
k3mm_opt_322bdb236740b700baaa0495434b9d9a,polybench_xilinx_post_frontend,k3mm,xczu9eg-ffvb1156-2-i,10.0,2023.1.1,,7.793e-09,1081618.0,0.008429049074000002,1081618.0,0.008429049074000002,1081618.0,0.008429049074000002,69855,70741,328,520,0
k3mm_opt_375ea2f5afd65a44c4c4053e6eac2bcb,polybench_xilinx_post_frontend,k3mm,xczu9eg-ffvb1156-2-i,10.0,2023.1.1,,7.793e-09,2175250.0,0.016951723250000002,2175250.0,0.016951723250000002,2175250.0,0.016951723250000002,26585,35644,160,216,0
k3mm_opt_37e06e7f75c75d006877d34974f9ce61,polybench_xilinx_post_frontend,k3mm,xczu9eg-ffvb1156-2-i,10.0,2023.1.1,,7.793e-09,2150413.0,0.016758168509000002,2150413.0,0.016758168509000002,2150413.0,0.016758168509000002,75803,91461,648,416,0
k3mm_opt_3c83707c589dee2216a3242f0abd8345,polybench_xilinx_post_frontend,k3mm,xczu9eg-ffvb1156-2-i,10.0,2023.1.1,,7.016000000000001e-09,877076.0,0.006153565216000001,877076.0,0.006153565216000001,877076.0,0.006153565216000001,25819,37484,80,440,0
k3mm_opt_3f612e3a58d1ea1042a5607d2ec221b0,polybench_xilinx_post_frontend,k3mm,xczu9eg-ffvb1156-2-i,10.0,2023.1.1,,7.016000000000001e-09,877079.0,0.006153586264000001,877079.0,0.006153586264000001,877079.0,0.006153586264000001,23435,31556,80,504,0
k3mm_opt_6ae4f528081e964ba7278117cbb4e294,polybench_xilinx_post_frontend,k3mm,xczu9eg-ffvb1156-2-i,10.0,2023.1.1,,7.764000000000001e-09,3235853.0,0.025123162692000003,3235853.0,0.025123162692000003,3235853.0,0.025123162692000003,15362,11086,53,124,0
k3mm_opt_79b6aebdf3b7581d8ff3deac3f80ee11,polybench_xilinx_post_frontend,k3mm,xczu9eg-ffvb1156-2-i,10.0,2023.1.1,,7.449e-09,2171154.0,0.016172926146,2171154.0,0.016172926146,2171154.0,0.016172926146,69584,76555,320,160,0
k3mm_opt_88e90f86eb7ceb94788fc323d12cbeb2,polybench_xilinx_post_frontend,k3mm,xczu9eg-ffvb1156-2-i,10.0,2023.1.1,,7.793e-09,1610765.0,0.012552691645,1610765.0,0.012552691645,1610765.0,0.012552691645,48296,50206,328,288,0
k3mm_opt_9a7fd202aaf559d3bdb179ce1535b10a,polybench_xilinx_post_frontend,k3mm,xczu9eg-ffvb1156-2-i,10.0,2023.1.1,,7.764000000000001e-09,2162962.0,0.016793236968000003,2162962.0,0.016793236968000003,2162962.0,0.016793236968000003,79903,75903,640,168,0
k3mm_opt_a57e22bca7802fc066514666b8cd4fcc,polybench_xilinx_post_frontend,k3mm,xczu9eg-ffvb1156-2-i,10.0,2023.1.1,,7.449e-09,2171154.0,0.016172926146,2171154.0,0.016172926146,2171154.0,0.016172926146,69429,76342,320,160,0
k3mm_opt_cc7bb46b3f8c8f247a5739221de36ad8,polybench_xilinx_post_frontend,k3mm,xczu9eg-ffvb1156-2-i,10.0,2023.1.1,,7.793e-09,1080349.0,0.008419159757000002,1080349.0,0.008419159757000002,1080349.0,0.008419159757000002,116827,155321,640,584,0
k3mm_opt_d0e92e50a908a61a21ef9d1f8384e426,polybench_xilinx_post_frontend,k3mm,xczu9eg-ffvb1156-2-i,10.0,2023.1.1,,7.675000000000001e-09,2164498.0,0.016612522150000003,2164498.0,0.016612522150000003,2164498.0,0.016612522150000003,250863,286538,2560,192,0
k3mm_opt_da40f84e6bd6115e0286b955dfb5dfaa,polybench_xilinx_post_frontend,k3mm,xczu9eg-ffvb1156-2-i,10.0,2023.1.1,,7.360000000000001e-09,45587.0,0.00033552032000000004,45587.0,0.00033552032000000004,45587.0,0.00033552032000000004,41235,52702,145,624,0
k3mm_opt_dc91a7994b8893044f33e60725387a15,polybench_xilinx_post_frontend,k3mm,xczu9eg-ffvb1156-2-i,10.0,2023.1.1,,7.675000000000001e-09,1072402.0,0.008230685350000001,1072402.0,0.008230685350000001,1072402.0,0.008230685350000001,201068,191028,1291,280,0
k3mm_opt_e286ebea7503840d089fcbe5033bcbdd,polybench_xilinx_post_frontend,k3mm,xczu9eg-ffvb1156-2-i,10.0,2023.1.1,,7.705e-09,1130500.0,0.0087105025,1130500.0,0.0087105025,1130500.0,0.0087105025,38623,68676,85,408,0
k3mm_opt_e70fc3f478dacd73aa76d4100798bccf,polybench_xilinx_post_frontend,k3mm,xczu9eg-ffvb1156-2-i,10.0,2023.1.1,,7.764000000000001e-09,2162197.0,0.016787297508000003,2162197.0,0.016787297508000003,2162197.0,0.016787297508000003,155089,195803,1280,128,0
k3mm_opt_eccf0446367d354d818a2e5d6feda0b3,polybench_xilinx_post_frontend,k3mm,xczu9eg-ffvb1156-2-i,10.0,2023.1.1,,7.764000000000001e-09,2979853.0,0.023135578692000003,2979853.0,0.023135578692000003,2979853.0,0.023135578692000003,10145,2920,11,72,0
k3mm_opt_ee017e59698771d07daa71c38dcd4f70,polybench_xilinx_post_frontend,k3mm,xczu9eg-ffvb1156-2-i,10.0,2023.1.1,,7.675000000000001e-09,2704397.0,0.020756246975000003,2704397.0,0.020756246975000003,2704397.0,0.020756246975000003,14602,3457,13,88,0
k3mm_opt_f5fa63631c43db9d71242ae28f63db6e,polybench_xilinx_post_frontend,k3mm,xczu9eg-ffvb1156-2-i,10.0,2023.1.1,,7.764000000000001e-09,2977805.0,0.023119678020000003,2977805.0,0.023119678020000003,2977805.0,0.023119678020000003,15222,10956,53,124,0
k3mm_opt_ff0efcff53c6c8837c5b7e4d30397c23,polybench_xilinx_post_frontend,k3mm,xczu9eg-ffvb1156-2-i,10.0,2023.1.1,,7.793e-09,2150413.0,0.016758168509000002,2150413.0,0.016758168509000002,2150413.0,0.016758168509000002,11121,3199,16,56,0
k3mm_opt_ffe250e066e8c80d8c467ddb3ed7a65f,polybench_xilinx_post_frontend,k3mm,xczu9eg-ffvb1156-2-i,10.0,2023.1.1,,7.675000000000001e-09,2168082.0,0.016640029350000002,2168082.0,0.016640029350000002,2168082.0,0.016640029350000002,83661,56343,320,192,0
mvt_opt_07f859ebaf5256cc7a4ecc31fbfb9437,polybench_xilinx_post_frontend,mvt,xczu9eg-ffvb1156-2-i,10.0,2023.1.1,,7.114e-09,18271.0,0.000129979894,18271.0,0.000129979894,18271.0,0.000129979894,103811,137309,1280,480,0
mvt_opt_0efaced69e9a4c813ead4537299e1498,polybench_xilinx_post_frontend,mvt,xczu9eg-ffvb1156-2-i,10.0,2023.1.1,,7.114e-09,21820.0,0.00015522748,21820.0,0.00015522748,21820.0,0.00015522748,110491,136148,1280,3,0
mvt_opt_126fdedda261a2bb5ba53332aad310dc,polybench_xilinx_post_frontend,mvt,xczu9eg-ffvb1156-2-i,10.0,2023.1.1,,7.016000000000001e-09,38470.0,0.00026990552,38470.0,0.00026990552,38470.0,0.00026990552,1804,1591,5,14,0
mvt_opt_1749843673e74854395aeb9d59813c93,polybench_xilinx_post_frontend,mvt,xczu9eg-ffvb1156-2-i,10.0,2023.1.1,,7.016000000000001e-09,35078.0,0.000246107248,35078.0,0.000246107248,35078.0,0.000246107248,5542,3188,5,64,0
mvt_opt_1fff85c3ac3d3ab8b68fc6112532c897,polybench_xilinx_post_frontend,mvt,xczu9eg-ffvb1156-2-i,10.0,2023.1.1,,7.016000000000001e-09,19552.0,0.000137176832,19552.0,0.000137176832,19552.0,0.000137176832,47999,72564,320,134,0
mvt_opt_202b36f6451e3a84dc597e460167acb9,polybench_xilinx_post_frontend,mvt,xczu9eg-ffvb1156-2-i,10.0,2023.1.1,,7.016000000000001e-09,31046.0,0.000217818736,31046.0,0.000217818736,31046.0,0.000217818736,3570,2689,5,8,0
mvt_opt_2102489cae2fd2ba8a63acf5808e0431,polybench_xilinx_post_frontend,mvt,xczu9eg-ffvb1156-2-i,10.0,2023.1.1,,7.114e-09,21883.0,0.00015567566200000001,21883.0,0.00015567566200000001,21883.0,0.00015567566200000001,106856,128367,1280,7,0
mvt_opt_33f4605197363cf3cbf982b4da056a58,polybench_xilinx_post_frontend,mvt,xczu9eg-ffvb1156-2-i,10.0,2023.1.1,,7.016000000000001e-09,31046.0,0.000217818736,31046.0,0.000217818736,31046.0,0.000217818736,3438,3056,5,8,0
mvt_opt_35fa6fefa9ea9e1d2641808f2f5f72c9,polybench_xilinx_post_frontend,mvt,xczu9eg-ffvb1156-2-i,10.0,2023.1.1,,7.016000000000001e-09,18028.0,0.000126484448,18028.0,0.000126484448,18028.0,0.000126484448,12607,18645,80,126,0
mvt_opt_3cbc64464227f3737198bc267e1e18d3,polybench_xilinx_post_frontend,mvt,xczu9eg-ffvb1156-2-i,10.0,2023.1.1,,7.016000000000001e-09,34502.0,0.00024206603200000002,34502.0,0.00024206603200000002,34502.0,0.00024206603200000002,1496,1114,5,13,0
mvt_opt_3faa2a957d57019348dcb5a6262eabfb,polybench_xilinx_post_frontend,mvt,xczu9eg-ffvb1156-2-i,10.0,2023.1.1,,7.114e-09,21820.0,0.00015522748,21820.0,0.00015522748,21820.0,0.00015522748,107998,127134,1280,5,0
mvt_opt_4cab6806569e7c5d5946bf6f1f8fa08f,polybench_xilinx_post_frontend,mvt,xczu9eg-ffvb1156-2-i,10.0,2023.1.1,,7.016000000000001e-09,19868.0,0.000139393888,19868.0,0.000139393888,19868.0,0.000139393888,22713,34815,160,134,0
mvt_opt_4d494677685c9c3f89189c9372e08cd6,polybench_xilinx_post_frontend,mvt,xczu9eg-ffvb1156-2-i,10.0,2023.1.1,,7.016000000000001e-09,19804.0,0.00013894486400000002,19804.0,0.00013894486400000002,19804.0,0.00013894486400000002,38519,46733,320,254,0
mvt_opt_684fc57ca5c77c3d5e7a89435665a8c5,polybench_xilinx_post_frontend,mvt,xczu9eg-ffvb1156-2-i,10.0,2023.1.1,,7.016000000000001e-09,38534.0,0.00027035454400000004,38534.0,0.00027035454400000004,38534.0,0.00027035454400000004,1688,1300,5,16,0
mvt_opt_68e8944026cb380d2bc9ac6901f063cb,polybench_xilinx_post_frontend,mvt,xczu9eg-ffvb1156-2-i,10.0,2023.1.1,,7.016000000000001e-09,32215.0,0.00022602044,32215.0,0.00022602044,32215.0,0.00022602044,9860,11448,104,138,0
mvt_opt_6b190ddb2859d74ec9b8f099bd3041b3,polybench_xilinx_post_frontend,mvt,xczu9eg-ffvb1156-2-i,10.0,2023.1.1,,7.016000000000001e-09,21804.0,0.00015297686400000002,21804.0,0.00015297686400000002,21804.0,0.00015297686400000002,33533,36893,320,135,0
mvt_opt_7ffd91ba42476551c3bb8b47f3e698c2,polybench_xilinx_post_frontend,mvt,xczu9eg-ffvb1156-2-i,10.0,2023.1.1,,7.016000000000001e-09,2751.0,1.9301016e-05,2751.0,1.9301016e-05,2751.0,1.9301016e-05,293374,349745,1280,272,0
mvt_opt_8514549d8ee84209f2a8191fbabe2bb9,polybench_xilinx_post_frontend,mvt,xczu9eg-ffvb1156-2-i,10.0,2023.1.1,,7.016000000000001e-09,31430.0,0.00022051288000000003,31430.0,0.00022051288000000003,31430.0,0.00022051288000000003,2333,1699,5,8,0
mvt_opt_852a206663796cf34908ff10c4605e21,polybench_xilinx_post_frontend,mvt,xczu9eg-ffvb1156-2-i,10.0,2023.1.1,,7.016000000000001e-09,19773.0,0.00013872736800000002,19773.0,0.00013872736800000002,19773.0,0.00013872736800000002,62579,69632,640,270,0
mvt_opt_ac4f32362e4047c0f9fd61974a962e21,polybench_xilinx_post_frontend,mvt,xczu9eg-ffvb1156-2-i,10.0,2023.1.1,,7.016000000000001e-09,35462.0,0.000248801392,35462.0,0.000248801392,35462.0,0.000248801392,2419,1829,5,8,0
mvt_opt_b048390e9603176b8b008fcc3cfb183a,polybench_xilinx_post_frontend,mvt,xczu9eg-ffvb1156-2-i,10.0,2023.1.1,,7.016000000000001e-09,19868.0,0.000139393888,19868.0,0.000139393888,19868.0,0.000139393888,22554,34609,160,132,0
mvt_opt_b1407ea9d60f6b8a0ad4483d3a4c8f7d,polybench_xilinx_post_frontend,mvt,xczu9eg-ffvb1156-2-i,10.0,2023.1.1,,7.016000000000001e-09,38534.0,0.00027035454400000004,38534.0,0.00027035454400000004,38534.0,0.00027035454400000004,1852,1506,5,16,0
mvt_opt_b9a631d23d1f1035a4bcc4887f2dd881,polybench_xilinx_post_frontend,mvt,xczu9eg-ffvb1156-2-i,10.0,2023.1.1,,7.016000000000001e-09,36486.0,0.000255985776,36486.0,0.000255985776,36486.0,0.000255985776,1812,1371,5,18,0
mvt_opt_bf5b0988d877f9bf20b76a495c04e8cc,polybench_xilinx_post_frontend,mvt,xczu9eg-ffvb1156-2-i,10.0,2023.1.1,,7.016000000000001e-09,35462.0,0.000248801392,35462.0,0.000248801392,35462.0,0.000248801392,2431,2027,5,8,0
mvt_opt_c00c6a74b57ca9e1595a877645a13474,polybench_xilinx_post_frontend,mvt,xczu9eg-ffvb1156-2-i,10.0,2023.1.1,,7.114e-09,14304.0,0.000101758656,14304.0,0.000101758656,14304.0,0.000101758656,130078,137439,1280,0,0
mvt_opt_d849d3c9b3a7d76768bde9894c99b326,polybench_xilinx_post_frontend,mvt,xczu9eg-ffvb1156-2-i,10.0,2023.1.1,,7.016000000000001e-09,18029.0,0.00012649146400000002,18029.0,0.00012649146400000002,18029.0,0.00012649146400000002,12159,18789,80,126,0
mvt_opt_de33afc97dc750e515c0db16f9663f63,polybench_xilinx_post_frontend,mvt,xczu9eg-ffvb1156-2-i,10.0,2023.1.1,,7.016000000000001e-09,35078.0,0.000246107248,35078.0,0.000246107248,35078.0,0.000246107248,3606,2621,5,16,0
mvt_opt_f2f8decc35f6e0ea4e4c2634fa80089b,polybench_xilinx_post_frontend,mvt,xczu9eg-ffvb1156-2-i,10.0,2023.1.1,,7.114e-09,18352.0,0.000130556128,18352.0,0.000130556128,18352.0,0.000130556128,82162,79976,640,0,0
mvt_opt_fb74b13279d5a7b6fe17aa3b8432b0ce,polybench_xilinx_post_frontend,mvt,xczu9eg-ffvb1156-2-i,10.0,2023.1.1,,7.016000000000001e-09,27398.0,0.00019222436800000003,27398.0,0.00019222436800000003,27398.0,0.00019222436800000003,2193,1569,5,8,0
mvt_opt_fb9fe1987d446af2ef8a19a142954a77,polybench_xilinx_post_frontend,mvt,xczu9eg-ffvb1156-2-i,10.0,2023.1.1,,7.016000000000001e-09,35462.0,0.000248801392,35462.0,0.000248801392,35462.0,0.000248801392,4093,3215,5,32,0
syr2k_opt_036e5bd22be897c70ad96b8fbd152e07,polybench_xilinx_post_frontend,syr2k,xczu9eg-ffvb1156-2-i,10.0,2023.1.1,,7.852000000000001e-09,2192663.0,0.017216789876,2192663.0,0.017216789876,2192663.0,0.017216789876,24316,26413,112,88,0
syr2k_opt_097033a5007af67a25d1d9c773f72c78,polybench_xilinx_post_frontend,syr2k,xczu9eg-ffvb1156-2-i,10.0,2023.1.1,,7.449e-09,2192407.0,0.016331239743,2192407.0,0.016331239743,2192407.0,0.016331239743,11838,8022,28,56,0
syr2k_opt_157295b96f1315f009fbd6d16a402991,polybench_xilinx_post_frontend,syr2k,xczu9eg-ffvb1156-2-i,10.0,2023.1.1,,7.016000000000001e-09,880927.0,0.006180583832000001,880927.0,0.006180583832000001,880927.0,0.006180583832000001,17529,23247,128,280,0
syr2k_opt_1fb40ce1ce512fe4c0e6f556898626e9,polybench_xilinx_post_frontend,syr2k,xczu9eg-ffvb1156-2-i,10.0,2023.1.1,,7.331000000000001e-09,1939479.0,0.014218320549000003,1939479.0,0.014218320549000003,1939479.0,0.014218320549000003,6764,2987,16,56,0
syr2k_opt_2ce989ce088a35d3f552cb8d80e31c19,polybench_xilinx_post_frontend,syr2k,xczu9eg-ffvb1156-2-i,10.0,2023.1.1,,7.449e-09,1092393.0,0.008137235457,1092393.0,0.008137235457,1092393.0,0.008137235457,100089,143462,688,336,0
syr2k_opt_3dc4a1b4a44ab5ef5e91486e3b8d4178,polybench_xilinx_post_frontend,syr2k,xczu9eg-ffvb1156-2-i,10.0,2023.1.1,,7.449e-09,1100067.0,0.008194399083,1100067.0,0.008194399083,1100067.0,0.008194399083,29596,40114,208,216,0
syr2k_opt_424238c4dec7db1d6c80006005243515,polybench_xilinx_post_frontend,syr2k,xczu9eg-ffvb1156-2-i,10.0,2023.1.1,,7.449e-09,1100066.0,0.008194391634,1100066.0,0.008194391634,1100066.0,0.008194391634,29138,39470,208,216,0
syr2k_opt_472b18d624332d45f858e125ca9eba9e,polybench_xilinx_post_frontend,syr2k,xczu9eg-ffvb1156-2-i,10.0,2023.1.1,,7.331000000000001e-09,2191383.0,0.016065028773000003,2191383.0,0.016065028773000003,2191383.0,0.016065028773000003,7248,3800,20,56,0
syr2k_opt_612b56e6619eb2e6099bba6211899e57,polybench_xilinx_post_frontend,syr2k,xczu9eg-ffvb1156-2-i,10.0,2023.1.1,,7.016000000000001e-09,43562.0,0.00030563099200000003,43562.0,0.00030563099200000003,43562.0,0.00030563099200000003,27309,39061,128,336,0
syr2k_opt_623084d9643384b101fdc3b48c937223,polybench_xilinx_post_frontend,syr2k,xczu9eg-ffvb1156-2-i,10.0,2023.1.1,,7.601e-09,2195493.0,0.016687942293,2195493.0,0.016687942293,2195493.0,0.016687942293,227576,210469,1792,40,0
syr2k_opt_7737a54338a4b6ce4cdd37b8b375eac5,polybench_xilinx_post_frontend,syr2k,xczu9eg-ffvb1156-2-i,10.0,2023.1.1,,7.793e-09,1089826.0,0.008493014018000001,1089826.0,0.008493014018000001,1089826.0,0.008493014018000001,126348,163786,1472,640,0
syr2k_opt_7c235f64f2505ac506be7d730e58e6f3,polybench_xilinx_post_frontend,syr2k,xczu9eg-ffvb1156-2-i,10.0,2023.1.1,,7.331000000000001e-09,2191383.0,0.016065028773000003,2191383.0,0.016065028773000003,2191383.0,0.016065028773000003,7217,3634,20,56,0
syr2k_opt_7e9f0d52c6274d0319c596af04510c6f,polybench_xilinx_post_frontend,syr2k,xczu9eg-ffvb1156-2-i,10.0,2023.1.1,,7.016000000000001e-09,878879.0,0.006166215064000001,878879.0,0.006166215064000001,878879.0,0.006166215064000001,17721,23513,128,280,0
syr2k_opt_870237e52122f314607d6df3c10818ee,polybench_xilinx_post_frontend,syr2k,xczu9eg-ffvb1156-2-i,10.0,2023.1.1,,7.016000000000001e-09,45610.0,0.00031999976,45610.0,0.00031999976,45610.0,0.00031999976,27088,37220,128,392,0
syr2k_opt_8b8a36602d0e6142143565a2b5633294,polybench_xilinx_post_frontend,syr2k,xczu9eg-ffvb1156-2-i,10.0,2023.1.1,,7.601e-09,1099043.0,0.008353825843,1099043.0,0.008353825843,1099043.0,0.008353825843,63020,82130,368,176,0
syr2k_opt_8faf274a92a19431283836ffe58af781,polybench_xilinx_post_frontend,syr2k,xczu9eg-ffvb1156-2-i,10.0,2023.1.1,,7.449e-09,1098278.0,0.008181072822,1098278.0,0.008181072822,1098278.0,0.008181072822,49314,74757,368,216,0
syr2k_opt_903da4e0f65001e3a6c5be642f108282,polybench_xilinx_post_frontend,syr2k,xczu9eg-ffvb1156-2-i,10.0,2023.1.1,,7.852000000000001e-09,2194455.0,0.017230860660000003,2194455.0,0.017230860660000003,2194455.0,0.017230860660000003,9337,3991,23,56,0
syr2k_opt_98198cac2a6b70823b572e7ac6d03009,polybench_xilinx_post_frontend,syr2k,xczu9eg-ffvb1156-2-i,10.0,2023.1.1,,7.016000000000001e-09,1128735.0,0.007919204760000001,1128735.0,0.007919204760000001,1128735.0,0.007919204760000001,18439,24867,128,280,0
syr2k_opt_a8a6b347c2fd0b6f9278f2faa24d4251,polybench_xilinx_post_frontend,syr2k,xczu9eg-ffvb1156-2-i,10.0,2023.1.1,,7.659000000000001e-09,2196504.0,0.016823024136000002,2196504.0,0.016823024136000002,2196504.0,0.016823024136000002,8157,4614,28,72,0
syr2k_opt_b8fb49ab3c453d5f57f1ff8f1ff2dee2,polybench_xilinx_post_frontend,syr2k,xczu9eg-ffvb1156-2-i,10.0,2023.1.1,,7.449e-09,2179098.0,0.016232101002,2179098.0,0.016232101002,2179098.0,0.016232101002,8422,2608,10,56,0
syr2k_opt_be7164b15011276bd0222e83499f7dba,polybench_xilinx_post_frontend,syr2k,xczu9eg-ffvb1156-2-i,10.0,2023.1.1,,7.449e-09,2193431.0,0.016338867519,2193431.0,0.016338867519,2193431.0,0.016338867519,6182,3015,14,56,0
syr2k_opt_d3a11c8ba2d3ee23ad7a8681c6cf4b87,polybench_xilinx_post_frontend,syr2k,xczu9eg-ffvb1156-2-i,10.0,2023.1.1,,7.659000000000001e-09,2196504.0,0.016823024136000002,2196504.0,0.016823024136000002,2196504.0,0.016823024136000002,8312,4788,28,72,0
syr2k_opt_d479f4b3206e55fe43e8285264aad7cb,polybench_xilinx_post_frontend,syr2k,xczu9eg-ffvb1156-2-i,10.0,2023.1.1,,7.331000000000001e-09,1937431.0,0.014203306661000002,1937431.0,0.014203306661000002,1937431.0,0.014203306661000002,7250,3635,20,56,0
syr2k_opt_e316e28b7baf3ff0e961b2916872d3e7,polybench_xilinx_post_frontend,syr2k,xczu9eg-ffvb1156-2-i,10.0,2023.1.1,,7.331000000000001e-09,2189848.0,0.016053775688000003,2189848.0,0.016053775688000003,2189848.0,0.016053775688000003,10622,8306,56,56,0
syr2k_opt_e548207634c38c2d4dc670b4b76d05c9,polybench_xilinx_post_frontend,syr2k,xczu9eg-ffvb1156-2-i,10.0,2023.1.1,,7.852000000000001e-09,1938583.0,0.015221753716000003,1938583.0,0.015221753716000003,1938583.0,0.015221753716000003,42747,50496,224,152,0
syr2k_opt_e6231e15be6d3db7ffcfacd4c72d43bf,polybench_xilinx_post_frontend,syr2k,xczu9eg-ffvb1156-2-i,10.0,2023.1.1,,7.852000000000001e-09,2192919.0,0.017218799988000005,2192919.0,0.017218799988000005,2192919.0,0.017218799988000005,12178,8182,56,56,0
syr2k_opt_e6cb4bf48cb45fe84e53cf383c102968,polybench_xilinx_post_frontend,syr2k,xczu9eg-ffvb1156-2-i,10.0,2023.1.1,,7.659000000000001e-09,2195493.0,0.016815280887000003,2195493.0,0.016815280887000003,2195493.0,0.016815280887000003,227594,209740,1792,40,0
syr2k_opt_e9bfacc3f0f2e68a4bd04fdb46c4e24a,polybench_xilinx_post_frontend,syr2k,xczu9eg-ffvb1156-2-i,10.0,2023.1.1,,7.852000000000001e-09,1087906.0,0.008542237912000001,1087906.0,0.008542237912000001,1087906.0,0.008542237912000001,147301,193803,1472,728,0
syr2k_opt_eb78cb529e52711d210cae39af0c32d3,polybench_xilinx_post_frontend,syr2k,xczu9eg-ffvb1156-2-i,10.0,2023.1.1,,7.852000000000001e-09,2196503.0,0.017246941556000005,2196503.0,0.017246941556000005,2196503.0,0.017246941556000005,8845,3847,19,56,0
syr2k_opt_f84693e26097405a74f5e7d21a3a42ee,polybench_xilinx_post_frontend,syr2k,xczu9eg-ffvb1156-2-i,10.0,2023.1.1,,7.449e-09,1099044.0,0.008186778756000001,1099044.0,0.008186778756000001,1099044.0,0.008186778756000001,30234,41028,208,216,0
syr2k_opt_ff53af9a2dfd991f0b577aa1dbf760ad,polybench_xilinx_post_frontend,syr2k,xczu9eg-ffvb1156-2-i,10.0,2023.1.1,,7.852000000000001e-09,2196503.0,0.017246941556000005,2196503.0,0.017246941556000005,2196503.0,0.017246941556000005,8996,3512,19,56,0
syrk_opt_0cee13a25624454f15e0d139c6c4a898,polybench_xilinx_post_frontend,syrk,xczu9eg-ffvb1156-2-i,10.0,2023.1.1,,7.449e-09,1118224.0,0.008329650576,1118224.0,0.008329650576,1118224.0,0.008329650576,4749,1458,8,32,0
syrk_opt_0f12cb68a1ffb2a3ddad0f31bd4fd16a,polybench_xilinx_post_frontend,syrk,xczu9eg-ffvb1156-2-i,10.0,2023.1.1,,7.016000000000001e-09,37404.0,0.000262426464,37404.0,0.000262426464,37404.0,0.000262426464,45498,73837,368,192,0
syrk_opt_18eca491df86f3a1296b94df2a08c095,polybench_xilinx_post_frontend,syrk,xczu9eg-ffvb1156-2-i,10.0,2023.1.1,,7.016000000000001e-09,20762.0,0.00014566619200000002,20762.0,0.00014566619200000002,20762.0,0.00014566619200000002,25787,38857,208,192,0
syrk_opt_317abc0962414bc26c3deff1f9de6b78,polybench_xilinx_post_frontend,syrk,xczu9eg-ffvb1156-2-i,10.0,2023.1.1,,7.449e-09,1108042.0,0.008253804858000001,1108042.0,0.008253804858000001,1108042.0,0.008253804858000001,6761,9786,10,32,0
syrk_opt_33be06cb36f521882943523dd15a91db,polybench_xilinx_post_frontend,syrk,xczu9eg-ffvb1156-2-i,10.0,2023.1.1,,7.016000000000001e-09,1111059.0,0.007795189944000001,1111059.0,0.007795189944000001,1111059.0,0.007795189944000001,3309,2969,20,32,0
syrk_opt_3673530e870613b271a494b28f9f8b9f,polybench_xilinx_post_frontend,syrk,xczu9eg-ffvb1156-2-i,10.0,2023.1.1,,7.2720000000000005e-09,1110050.0,0.0080722836,1110050.0,0.0080722836,1110050.0,0.0080722836,141993,151378,1280,16,0
syrk_opt_405548d260b6dce179d1d98e19625c82,polybench_xilinx_post_frontend,syrk,xczu9eg-ffvb1156-2-i,10.0,2023.1.1,,7.016000000000001e-09,864275.0,0.006063753400000001,864275.0,0.006063753400000001,864275.0,0.006063753400000001,1837,1209,5,32,0
syrk_opt_4f0901ad199fcab56e34565d3a0aacf2,polybench_xilinx_post_frontend,syrk,xczu9eg-ffvb1156-2-i,10.0,2023.1.1,,7.016000000000001e-09,1117198.0,0.007838261168,1117198.0,0.007838261168,1117198.0,0.007838261168,3840,1268,5,32,0
syrk_opt_5d05f487e358d5cde17cba1a339fa1af,polybench_xilinx_post_frontend,syrk,xczu9eg-ffvb1156-2-i,10.0,2023.1.1,,7.114e-09,1110050.0,0.0078968957,1110050.0,0.0078968957,1110050.0,0.0078968957,141555,150890,1280,16,0
syrk_opt_5e3fdf60c60ffe59f85ef17473f97a46,polybench_xilinx_post_frontend,syrk,xczu9eg-ffvb1156-2-i,10.0,2023.1.1,,7.016000000000001e-09,28958.0,0.00020316932800000002,28958.0,0.00020316932800000002,28958.0,0.00020316932800000002,16768,22607,128,256,0
syrk_opt_65cdbc86e4c0a642ff74f8c8eca20762,polybench_xilinx_post_frontend,syrk,xczu9eg-ffvb1156-2-i,10.0,2023.1.1,,7.2720000000000005e-09,1103386.0,0.008023822992000001,1103386.0,0.008023822992000001,1103386.0,0.008023822992000001,10508,14920,40,48,0
syrk_opt_6898aff75f30b3af7a2fac71ec4ab9c9,polybench_xilinx_post_frontend,syrk,xczu9eg-ffvb1156-2-i,10.0,2023.1.1,,7.016000000000001e-09,28965.0,0.00020321844000000002,28965.0,0.00020321844000000002,28965.0,0.00020321844000000002,17973,23444,128,200,0
syrk_opt_6c03250aa25f83b75e8fa96f1014e6a0,polybench_xilinx_post_frontend,syrk,xczu9eg-ffvb1156-2-i,10.0,2023.1.1,,7.016000000000001e-09,878605.0,0.006164292680000001,878605.0,0.006164292680000001,878605.0,0.006164292680000001,2557,1077,5,32,0
syrk_opt_706fe8fd11b9f4d989bb535d52aa0bd3,polybench_xilinx_post_frontend,syrk,xczu9eg-ffvb1156-2-i,10.0,2023.1.1,,7.016000000000001e-09,1105939.0,0.0077592680240000005,1105939.0,0.0077592680240000005,1105939.0,0.0077592680240000005,3055,2126,10,32,0
syrk_opt_7294d021badeef9cc0c67a91349b650a,polybench_xilinx_post_frontend,syrk,xczu9eg-ffvb1156-2-i,10.0,2023.1.1,,7.2720000000000005e-09,1104916.0,0.008034949152,1104916.0,0.008034949152,1104916.0,0.008034949152,4318,4094,20,32,0
syrk_opt_7bee2a5e85cf865bc460763215146206,polybench_xilinx_post_frontend,syrk,xczu9eg-ffvb1156-2-i,10.0,2023.1.1,,7.016000000000001e-09,1103379.0,0.007741307064000001,1103379.0,0.007741307064000001,1103379.0,0.007741307064000001,6332,5122,40,40,0
syrk_opt_7eb1a21e13a210fae2d84241a5063d3a,polybench_xilinx_post_frontend,syrk,xczu9eg-ffvb1156-2-i,10.0,2023.1.1,,7.016000000000001e-09,864276.0,0.006063760416000001,864276.0,0.006063760416000001,864276.0,0.006063760416000001,1969,1406,5,32,0
syrk_opt_94ababdeea94002a59725d2a5cc28d13,polybench_xilinx_post_frontend,syrk,xczu9eg-ffvb1156-2-i,10.0,2023.1.1,,7.449e-09,7477.0,5.5696173e-05,7477.0,5.5696173e-05,7477.0,5.5696173e-05,92304,146614,688,312,0
syrk_opt_a3dcee07932d52c534c8cf5e6763147e,polybench_xilinx_post_frontend,syrk,xczu9eg-ffvb1156-2-i,10.0,2023.1.1,,7.016000000000001e-09,13598.0,9.5403568e-05,13598.0,9.5403568e-05,13598.0,9.5403568e-05,55254,79347,368,136,0
syrk_opt_a447ac10b0839f4bedba29b8ca393ce5,polybench_xilinx_post_frontend,syrk,xczu9eg-ffvb1156-2-i,10.0,2023.1.1,,7.2720000000000005e-09,2610.0,1.8979920000000002e-05,2610.0,1.8979920000000002e-05,2610.0,1.8979920000000002e-05,132365,186190,1472,656,0
syrk_opt_af3c0693a9585c010f8747232b332cae,polybench_xilinx_post_frontend,syrk,xczu9eg-ffvb1156-2-i,10.0,2023.1.1,,7.016000000000001e-09,14625.0,0.000102609,14625.0,0.000102609,14625.0,0.000102609,26331,39951,208,192,0
syrk_opt_bcdcc0a0ec2a1d1986277110bf1d3949,polybench_xilinx_post_frontend,syrk,xczu9eg-ffvb1156-2-i,10.0,2023.1.1,,7.016000000000001e-09,1106963.0,0.007766452408000001,1106963.0,0.007766452408000001,1106963.0,0.007766452408000001,4233,1977,5,40,0
syrk_opt_c48fb51cd1e4776eb01fafbf8402f635,polybench_xilinx_post_frontend,syrk,xczu9eg-ffvb1156-2-i,10.0,2023.1.1,,7.016000000000001e-09,4382.0,3.0744112e-05,4382.0,3.0744112e-05,4382.0,3.0744112e-05,121543,162906,1472,616,0
syrk_opt_c4c518fe3d86992c4473a7ed58fadf57,polybench_xilinx_post_frontend,syrk,xczu9eg-ffvb1156-2-i,10.0,2023.1.1,,7.016000000000001e-09,1118222.0,0.007845445552,1118222.0,0.007845445552,1118222.0,0.007845445552,2606,1229,5,32,0
syrk_opt_c857cfcb5df930bab5229cbb4b5aeb15,polybench_xilinx_post_frontend,syrk,xczu9eg-ffvb1156-2-i,10.0,2023.1.1,,7.016000000000001e-09,1114138.0,0.007816792208,1114138.0,0.007816792208,1114138.0,0.007816792208,2165,1916,5,32,0
syrk_opt_c909a45777413dc8b5ec9495ea76c2a3,polybench_xilinx_post_frontend,syrk,xczu9eg-ffvb1156-2-i,10.0,2023.1.1,,7.016000000000001e-09,1111059.0,0.007795189944000001,1111059.0,0.007795189944000001,1111059.0,0.007795189944000001,3464,3143,20,32,0
syrk_opt_d9d503426e1168a1c08e6cf673db579c,polybench_xilinx_post_frontend,syrk,xczu9eg-ffvb1156-2-i,10.0,2023.1.1,,7.2720000000000005e-09,1106963.0,0.008049834936,1106963.0,0.008049834936,1106963.0,0.008049834936,4082,2312,5,40,0
syrk_opt_dc41088253e977352d94ef7b6424a347,polybench_xilinx_post_frontend,syrk,xczu9eg-ffvb1156-2-i,10.0,2023.1.1,,7.2720000000000005e-09,849191.0,0.006175316952000001,849191.0,0.006175316952000001,849191.0,0.006175316952000001,18509,29924,80,80,0
syrk_opt_ef2b3268c2b235940d3f4e26225b69da,polybench_xilinx_post_frontend,syrk,xczu9eg-ffvb1156-2-i,10.0,2023.1.1,,7.016000000000001e-09,1107987.0,0.007773636792000001,1107987.0,0.007773636792000001,1107987.0,0.007773636792000001,2358,1830,10,32,0
syrk_opt_f11a1e1bb0a1c630e240b824710c1cd1,polybench_xilinx_post_frontend,syrk,xczu9eg-ffvb1156-2-i,10.0,2023.1.1,,7.016000000000001e-09,864270.0,0.0060637183200000005,864270.0,0.0060637183200000005,864270.0,0.0060637183200000005,2607,1172,5,32,0
syrk_opt_f68e33d3f79ef853ad146c6207d69bf7,polybench_xilinx_post_frontend,syrk,xczu9eg-ffvb1156-2-i,10.0,2023.1.1,,7.016000000000001e-09,14622.0,0.000102587952,14622.0,0.000102587952,14622.0,0.000102587952,25685,38739,208,192,0
aes_table_opt_004c035ef006f66ca29fc333d6dad1da,machsuite_xilinx_post_frontend,aes256_encrypt_ecb,xczu9eg-ffvb1156-2-i,10.0,2023.1.1,,7.117e-09,952.0,6.775384e-06,952.0,6.775384e-06,952.0,6.775384e-06,394822,77792,0,2,0
aes_table_opt_02a1a9f467998ff0cf9adb72e3109795,machsuite_xilinx_post_frontend,aes256_encrypt_ecb,xczu9eg-ffvb1156-2-i,10.0,2023.1.1,,7.279e-09,701.0,5.102579e-06,701.0,5.102579e-06,701.0,5.102579e-06,324965,69691,0,2,0
aes_table_opt_0b59feaf4e529955e171085fd2dbe729,machsuite_xilinx_post_frontend,aes256_encrypt_ecb,xczu9eg-ffvb1156-2-i,10.0,2023.1.1,,7.117e-09,1441.0,1.0255597e-05,1519.0,1.0810723000000001e-05,1584.0,1.1273328000000001e-05,403117,78279,0,48,0
aes_table_opt_1175e4042ecb08a6cd2470e6c81e68c8,machsuite_xilinx_post_frontend,aes256_encrypt_ecb,xczu9eg-ffvb1156-2-i,10.0,2023.1.1,,7.117e-09,676.0,4.811092e-06,676.0,4.811092e-06,676.0,4.811092e-06,399337,78462,0,16,0
aes_table_opt_2b89f42140a35c4656e5de6c568912ae,machsuite_xilinx_post_frontend,aes256_encrypt_ecb,xczu9eg-ffvb1156-2-i,10.0,2023.1.1,,7.117e-09,1686.0,1.1999262e-05,1855.0,1.3202035e-05,2024.0,1.4404808e-05,398579,78220,0,6,0
aes_table_opt_39e053ff3e085e523bf2e276be633432,machsuite_xilinx_post_frontend,aes256_encrypt_ecb,xczu9eg-ffvb1156-2-i,10.0,2023.1.1,,6.925e-09,1782.0,1.234035e-05,1925.0,1.3330624999999999e-05,2068.0,1.43209e-05,328588,70013,0,3,0
aes_table_opt_4e97c4ec45461e153f8283862d3e3578,machsuite_xilinx_post_frontend,aes256_encrypt_ecb,xczu9eg-ffvb1156-2-i,10.0,2023.1.1,,7.0290000000000004e-09,611.0,4.294719e-06,611.0,4.294719e-06,611.0,4.294719e-06,330469,83173,0,32,0
aes_table_opt_691bc066aa7ff656a2c98991acef7d2a,machsuite_xilinx_post_frontend,aes256_encrypt_ecb,xczu9eg-ffvb1156-2-i,10.0,2023.1.1,,7.117e-09,1738.0,1.2369346e-05,1790.0,1.273943e-05,1842.0,1.3109514e-05,400914,78146,0,24,0
aes_table_opt_6fd203f08839b47e0afe3b8b75edc9b0,machsuite_xilinx_post_frontend,aes256_encrypt_ecb,xczu9eg-ffvb1156-2-i,10.0,2023.1.1,,7.117e-09,1738.0,1.2369346e-05,1790.0,1.273943e-05,1842.0,1.3109514e-05,400914,78146,0,24,0
aes_table_opt_77edcad9227b375b6df763ea72e19be9,machsuite_xilinx_post_frontend,aes256_encrypt_ecb,xczu9eg-ffvb1156-2-i,10.0,2023.1.1,,7.117e-09,702.0,4.996134e-06,702.0,4.996134e-06,702.0,4.996134e-06,394404,77071,0,2,0
aes_table_opt_78823f8da71cdab306c634345a6f9e77,machsuite_xilinx_post_frontend,aes256_encrypt_ecb,xczu9eg-ffvb1156-2-i,10.0,2023.1.1,,7.117e-09,1686.0,1.1999262e-05,1855.0,1.3202035e-05,2024.0,1.4404808e-05,398579,78220,0,6,0
aes_table_opt_7f09e675a6cebdaef9c714805d5e69eb,machsuite_xilinx_post_frontend,aes256_encrypt_ecb,xczu9eg-ffvb1156-2-i,10.0,2023.1.1,,7.117e-09,804.0,5.722068e-06,804.0,5.722068e-06,804.0,5.722068e-06,395561,78767,0,4,0
aes_table_opt_7ff2fe70298b346dc4b4c47a2bed3a70,machsuite_xilinx_post_frontend,aes256_encrypt_ecb,xczu9eg-ffvb1156-2-i,10.0,2023.1.1,,7.117e-09,676.0,4.811092e-06,676.0,4.811092e-06,676.0,4.811092e-06,398433,77923,0,16,0
aes_table_opt_8396ec09643194388e8a84e9ce5d754f,machsuite_xilinx_post_frontend,aes256_encrypt_ecb,xczu9eg-ffvb1156-2-i,10.0,2023.1.1,,7.117e-09,676.0,4.811092e-06,676.0,4.811092e-06,676.0,4.811092e-06,399337,78462,0,16,0
aes_table_opt_83e63ed371b80fa6584ce0adef547eef,machsuite_xilinx_post_frontend,aes256_encrypt_ecb,xczu9eg-ffvb1156-2-i,10.0,2023.1.1,,7.279e-09,681.0,4.956999e-06,681.0,4.956999e-06,681.0,4.956999e-06,325694,83625,0,4,0
aes_table_opt_88cf98f8a42396bc88ae773df4e1db10,machsuite_xilinx_post_frontend,aes256_encrypt_ecb,xczu9eg-ffvb1156-2-i,10.0,2023.1.1,,6.925e-09,952.0,6.5926e-06,952.0,6.5926e-06,952.0,6.5926e-06,325382,70432,0,2,0
aes_table_opt_8a3159a366752f8c339d58638516d152,machsuite_xilinx_post_frontend,aes256_encrypt_ecb,xczu9eg-ffvb1156-2-i,10.0,2023.1.1,,7.0290000000000004e-09,611.0,4.294719e-06,611.0,4.294719e-06,611.0,4.294719e-06,330467,83197,0,32,0
aes_table_opt_96c8df1bf9232c67632e34dcc5f64c84,machsuite_xilinx_post_frontend,aes256_encrypt_ecb,xczu9eg-ffvb1156-2-i,10.0,2023.1.1,,6.925e-09,1441.0,9.978925e-06,1519.0,1.0519075e-05,1584.0,1.09692e-05,333745,83971,0,48,0
aes_table_opt_a44ac25f879a9c5feae1ff00ce1099ec,machsuite_xilinx_post_frontend,aes256_encrypt_ecb,xczu9eg-ffvb1156-2-i,10.0,2023.1.1,,7.117e-09,1686.0,1.1999262e-05,1855.0,1.3202035e-05,2024.0,1.4404808e-05,398579,78220,0,6,0
aes_table_opt_ab8ded9686249a892c7f6fe24da20e97,machsuite_xilinx_post_frontend,aes256_encrypt_ecb,xczu9eg-ffvb1156-2-i,10.0,2023.1.1,,7.279e-09,681.0,4.956999e-06,681.0,4.956999e-06,681.0,4.956999e-06,325694,83625,0,4,0
aes_table_opt_ae0c036a27cbdac38e9f7652e60291d4,machsuite_xilinx_post_frontend,aes256_encrypt_ecb,xczu9eg-ffvb1156-2-i,10.0,2023.1.1,,7.117e-09,952.0,6.775384e-06,952.0,6.775384e-06,952.0,6.775384e-06,394822,77792,0,2,0
aes_table_opt_b2733e866f820d30cfce275bb14fa847,machsuite_xilinx_post_frontend,aes256_encrypt_ecb,xczu9eg-ffvb1156-2-i,10.0,2023.1.1,,6.925e-09,1686.0,1.167555e-05,1855.0,1.2845875e-05,2024.0,1.40162e-05,329173,83921,0,6,0
aes_table_opt_b440e8c384da95570bfadf7cf48f5695,machsuite_xilinx_post_frontend,aes256_encrypt_ecb,xczu9eg-ffvb1156-2-i,10.0,2023.1.1,,7.279e-09,701.0,5.102579e-06,701.0,5.102579e-06,701.0,5.102579e-06,324965,69691,0,2,0
aes_table_opt_bf9019bbacb5882e896aa199abe4d434,machsuite_xilinx_post_frontend,aes256_encrypt_ecb,xczu9eg-ffvb1156-2-i,10.0,2023.1.1,,7.279e-09,677.0,4.927883e-06,677.0,4.927883e-06,677.0,4.927883e-06,326815,83591,0,8,0
aes_table_opt_d2d0a33cc3694426092bbee343aac7f7,machsuite_xilinx_post_frontend,aes256_encrypt_ecb,xczu9eg-ffvb1156-2-i,10.0,2023.1.1,,7.117e-09,804.0,5.722068e-06,804.0,5.722068e-06,804.0,5.722068e-06,395561,78767,0,4,0
aes_table_opt_d37414f511d10520ca39e2db907048a3,machsuite_xilinx_post_frontend,aes256_encrypt_ecb,xczu9eg-ffvb1156-2-i,10.0,2023.1.1,,7.117e-09,1782.0,1.2682494e-05,1925.0,1.3700225e-05,2068.0,1.4717956e-05,398028,77373,0,3,0
aes_table_opt_d3a0d82ff4ad3149964db62c0579d9aa,machsuite_xilinx_post_frontend,aes256_encrypt_ecb,xczu9eg-ffvb1156-2-i,10.0,2023.1.1,,6.925e-09,1441.0,9.978925e-06,1519.0,1.0519075e-05,1584.0,1.09692e-05,333745,83971,0,48,0
aes_table_opt_d8f3f50135ffde3792957803431d9773,machsuite_xilinx_post_frontend,aes256_encrypt_ecb,xczu9eg-ffvb1156-2-i,10.0,2023.1.1,,6.925e-09,1782.0,1.234035e-05,1925.0,1.3330624999999999e-05,2068.0,1.43209e-05,328588,70013,0,3,0
aes_table_opt_e4f195798af75f61d669f581a182f151,machsuite_xilinx_post_frontend,aes256_encrypt_ecb,xczu9eg-ffvb1156-2-i,10.0,2023.1.1,,6.925e-09,1582.0,1.095535e-05,1725.0,1.1945625e-05,1868.0,1.29359e-05,329988,83880,0,12,0
aes_table_opt_eb868b80d752ab472992ad760d56ec8a,machsuite_xilinx_post_frontend,aes256_encrypt_ecb,xczu9eg-ffvb1156-2-i,10.0,2023.1.1,,7.279e-09,675.0,4.913325e-06,675.0,4.913325e-06,675.0,4.913325e-06,329044,83492,0,16,0
aes_table_opt_ee825ed4146ae5d56bfc842d60d0c7ae,machsuite_xilinx_post_frontend,aes256_encrypt_ecb,xczu9eg-ffvb1156-2-i,10.0,2023.1.1,,7.117e-09,1582.0,1.1259094e-05,1725.0,1.2276825e-05,1868.0,1.3294556000000001e-05,399394,78182,0,12,0
aes_table_opt_f290246b1cc9c601e4f371d927e01b2a,machsuite_xilinx_post_frontend,aes256_encrypt_ecb,xczu9eg-ffvb1156-2-i,10.0,2023.1.1,,7.117e-09,1782.0,1.2682494e-05,1925.0,1.3700225e-05,2068.0,1.4717956e-05,398028,77373,0,3,0
aes_tableless_opt_0baa4e820ac0f69a9d664f61096e0964,machsuite_xilinx_post_frontend,aes256_encrypt_ecb,xczu9eg-ffvb1156-2-i,10.0,2023.1.1,,7.042e-09,1825.0,1.2851650000000001e-05,17383.0,0.000122411086,102621.0,0.000722657082,214090,23570,0,0,0
aes_tableless_opt_14a78e292d0aeac0ae7f7d779c425401,machsuite_xilinx_post_frontend,aes256_encrypt_ecb,xczu9eg-ffvb1156-2-i,10.0,2023.1.1,,7.042e-09,1955.0,1.3767110000000001e-05,17513.0,0.000123326546,102751.0,0.000723572542,213843,22736,0,0,0
aes_tableless_opt_20d9249413feb29600b2a863b8e6361f,machsuite_xilinx_post_frontend,aes256_encrypt_ecb,xczu9eg-ffvb1156-2-i,10.0,2023.1.1,,6.925e-09,1786.0,1.236805e-05,17344.0,0.0001201072,102582.0,0.00071038035,328398,60404,0,0,0
aes_tableless_opt_247b148274f2f2a6cce090ceba99a1fd,machsuite_xilinx_post_frontend,aes256_encrypt_ecb,xczu9eg-ffvb1156-2-i,10.0,2023.1.1,,6.925e-09,1916.0,1.32683e-05,17474.0,0.00012100744999999999,102712.0,0.0007112806,328985,59686,0,0,0
aes_tableless_opt_2cd2f48fd1bfab1064822363d7a65b25,machsuite_xilinx_post_frontend,aes256_encrypt_ecb,xczu9eg-ffvb1156-2-i,10.0,2023.1.1,,6.925e-09,1717.0,1.1890225e-05,17275.0,0.000119629375,102513.0,0.000709902525,329218,60396,0,0,0
aes_tableless_opt_2f634706742d788f5aab9c8b5bdb39a9,machsuite_xilinx_post_frontend,aes256_encrypt_ecb,xczu9eg-ffvb1156-2-i,10.0,2023.1.1,,6.925e-09,1825.0,1.2638125e-05,17383.0,0.000120377275,102621.0,0.000710650425,328781,60446,0,0,0
aes_tableless_opt_2ffb2ae3c35aee46906d378c2ce3964d,machsuite_xilinx_post_frontend,aes256_encrypt_ecb,xczu9eg-ffvb1156-2-i,10.0,2023.1.1,,6.925e-09,1730.0,1.198025e-05,17288.0,0.0001197194,102526.0,0.00070999255,328750,60393,0,0,0
aes_tableless_opt_34154e2bd0cd397b1a0856d9968fe91e,machsuite_xilinx_post_frontend,aes256_encrypt_ecb,xczu9eg-ffvb1156-2-i,10.0,2023.1.1,,7.042e-09,1717.0,1.2091114e-05,17275.0,0.00012165055,102513.0,0.0007218965460000001,214527,23520,0,0,0
aes_tableless_opt_360d2afa9c5389a71b06c34f7e595bab,machsuite_xilinx_post_frontend,aes256_encrypt_ecb,xczu9eg-ffvb1156-2-i,10.0,2023.1.1,,7.042e-09,1825.0,1.2851650000000001e-05,17383.0,0.000122411086,102621.0,0.000722657082,214090,23570,0,0,0
aes_tableless_opt_48668a8d8254b27e431933143841f4f1,machsuite_xilinx_post_frontend,aes256_encrypt_ecb,xczu9eg-ffvb1156-2-i,10.0,2023.1.1,,6.925e-09,1469.0,1.0172825e-05,16924.0,0.00011719869999999999,102058.0,0.00070675165,331945,60475,0,0,0
aes_tableless_opt_53809570a906877999191821ec564fea,machsuite_xilinx_post_frontend,aes256_encrypt_ecb,xczu9eg-ffvb1156-2-i,10.0,2023.1.1,,7.042e-09,1825.0,1.2851650000000001e-05,17383.0,0.000122411086,102621.0,0.000722657082,214090,23570,0,0,0
aes_tableless_opt_6ecf3d83f7f87b6720fe4d3ddf91fcf8,machsuite_xilinx_post_frontend,aes256_encrypt_ecb,xczu9eg-ffvb1156-2-i,10.0,2023.1.1,,6.925e-09,1379.0,9.549575e-06,16834.0,0.00011657545,101968.0,0.0007061284,331301,60221,0,0,0
aes_tableless_opt_70d01e9d8aab0568b9fc813cd7c5635c,machsuite_xilinx_post_frontend,aes256_encrypt_ecb,xczu9eg-ffvb1156-2-i,10.0,2023.1.1,,7.042e-09,1858.0,1.3084036e-05,17325.0,0.00012200265,102459.0,0.000721516278,215328,23469,0,0,0
aes_tableless_opt_88d16d54bea24fc9c3e63f7c12a85a3e,machsuite_xilinx_post_frontend,aes256_encrypt_ecb,xczu9eg-ffvb1156-2-i,10.0,2023.1.1,,7.042e-09,1786.0,1.2577012000000001e-05,17344.0,0.000122136448,102582.0,0.000722382444,214541,23613,0,0,0
aes_tableless_opt_89f9068edf021178eaa856502707db82,machsuite_xilinx_post_frontend,aes256_encrypt_ecb,xczu9eg-ffvb1156-2-i,10.0,2023.1.1,,7.042e-09,1916.0,1.3492472e-05,17474.0,0.000123051908,102712.0,0.000723297904,214294,22810,0,0,0
aes_tableless_opt_8ed7b0a8ac789a48b786c56e2267bf0f,machsuite_xilinx_post_frontend,aes256_encrypt_ecb,xczu9eg-ffvb1156-2-i,10.0,2023.1.1,,7.042e-09,1819.0,1.2809398000000001e-05,17286.0,0.000121728012,102420.0,0.00072124164,215990,23455,0,0,0
aes_tableless_opt_991bd147404397414029a200204ad134,machsuite_xilinx_post_frontend,aes256_encrypt_ecb,xczu9eg-ffvb1156-2-i,10.0,2023.1.1,,7.042e-09,1955.0,1.3767110000000001e-05,17513.0,0.000123326546,102751.0,0.000723572542,213843,22736,0,0,0
aes_tableless_opt_9e6aeef8a9abcd18d466eb57411cd690,machsuite_xilinx_post_frontend,aes256_encrypt_ecb,xczu9eg-ffvb1156-2-i,10.0,2023.1.1,,7.042e-09,1858.0,1.3084036e-05,17325.0,0.00012200265,102459.0,0.000721516278,215328,23469,0,0,0
aes_tableless_opt_aa5e0fa4286ec3a18b42bd07f50c0c57,machsuite_xilinx_post_frontend,aes256_encrypt_ecb,xczu9eg-ffvb1156-2-i,10.0,2023.1.1,,7.042e-09,1786.0,1.2577012000000001e-05,17344.0,0.000122136448,102582.0,0.000722382444,214541,23613,0,0,0
aes_tableless_opt_b6e739c7c5e29191492e58590ff9e4e0,machsuite_xilinx_post_frontend,aes256_encrypt_ecb,xczu9eg-ffvb1156-2-i,10.0,2023.1.1,,6.925e-09,1313.0,9.092525e-06,16859.0,0.000116748575,102097.0,0.000707021725,331148,60084,0,0,0
aes_tableless_opt_be53f93cca6e6fd74863744a47fe1491,machsuite_xilinx_post_frontend,aes256_encrypt_ecb,xczu9eg-ffvb1156-2-i,10.0,2023.1.1,,7.042e-09,1916.0,1.3492472e-05,17474.0,0.000123051908,102712.0,0.000723297904,213484,22661,0,0,0
aes_tableless_opt_c12b86195efb363354d53f030e6f278b,machsuite_xilinx_post_frontend,aes256_encrypt_ecb,xczu9eg-ffvb1156-2-i,10.0,2023.1.1,,7.042e-09,1916.0,1.3492472e-05,17474.0,0.000123051908,102712.0,0.000723297904,214294,22810,0,0,0
aes_tableless_opt_ca03b94f89ca5fbdd144f8bb5fd3d67a,machsuite_xilinx_post_frontend,aes256_encrypt_ecb,xczu9eg-ffvb1156-2-i,10.0,2023.1.1,,6.925e-09,1955.0,1.3538375e-05,17513.0,0.000121277525,102751.0,0.000711550675,328534,59612,0,0,0
aes_tableless_opt_cc3b22ad05fec9cdbbef66c3cf8e6474,machsuite_xilinx_post_frontend,aes256_encrypt_ecb,xczu9eg-ffvb1156-2-i,10.0,2023.1.1,,7.042e-09,1897.0,1.3358674e-05,17364.0,0.000122277288,102498.0,0.0007217909160000001,215017,23465,0,0,0
aes_tableless_opt_ce0439bebb18b7b0079f94c6b6dbcca8,machsuite_xilinx_post_frontend,aes256_encrypt_ecb,xczu9eg-ffvb1156-2-i,10.0,2023.1.1,,6.925e-09,1916.0,1.32683e-05,17474.0,0.00012100744999999999,102712.0,0.0007112806,328175,59537,0,0,0
aes_tableless_opt_d3e7e03820b6db86c09724e9a91a011d,machsuite_xilinx_post_frontend,aes256_encrypt_ecb,xczu9eg-ffvb1156-2-i,10.0,2023.1.1,,7.042e-09,1819.0,1.2809398000000001e-05,17286.0,0.000121728012,102420.0,0.00072124164,215990,23455,0,0,0
aes_tableless_opt_e3aa416fe76e7255c4afae45e5280ba5,machsuite_xilinx_post_frontend,aes256_encrypt_ecb,xczu9eg-ffvb1156-2-i,10.0,2023.1.1,,7.042e-09,1379.0,9.710918e-06,16834.0,0.00011854502800000001,101968.0,0.000718058656,216610,23345,0,0,0
aes_tableless_opt_e4c1ea15e94f505396dd01a3a999135d,machsuite_xilinx_post_frontend,aes256_encrypt_ecb,xczu9eg-ffvb1156-2-i,10.0,2023.1.1,,6.925e-09,1897.0,1.3136724999999999e-05,17364.0,0.00012024569999999999,102498.0,0.00070979865,329708,60341,0,0,0
aes_tableless_opt_eb02f74b269f2cc90bec89ed52e0fec7,machsuite_xilinx_post_frontend,aes256_encrypt_ecb,xczu9eg-ffvb1156-2-i,10.0,2023.1.1,,6.925e-09,1916.0,1.32683e-05,17474.0,0.00012100744999999999,102712.0,0.0007112806,328175,59537,0,0,0
aes_tableless_opt_f10fb2371aa9078ec2e4fba385f04189,machsuite_xilinx_post_frontend,aes256_encrypt_ecb,xczu9eg-ffvb1156-2-i,10.0,2023.1.1,,6.925e-09,1379.0,9.549575e-06,16834.0,0.00011657545,101968.0,0.0007061284,331301,60221,0,0,0
aes_tableless_opt_f17cf05a2516925cb6e1e8564e976697,machsuite_xilinx_post_frontend,aes256_encrypt_ecb,xczu9eg-ffvb1156-2-i,10.0,2023.1.1,,6.925e-09,1955.0,1.3538375e-05,17513.0,0.000121277525,102751.0,0.000711550675,328534,59612,0,0,0
aes_tableless_opt_f64a26452d92e9c786d7935842beec1c,machsuite_xilinx_post_frontend,aes256_encrypt_ecb,xczu9eg-ffvb1156-2-i,10.0,2023.1.1,,6.925e-09,1786.0,1.236805e-05,17344.0,0.0001201072,102582.0,0.00071038035,328398,60404,0,0,0
backprop_opt_2dd32db55688312f2a1549eba064a9a4,machsuite_xilinx_post_frontend,backprop,xczu9eg-ffvb1156-2-i,10.0,2023.1.1,,7.584e-09,12016361.0,0.091132081824,12016361.0,0.091132081824,12016361.0,0.091132081824,37389,48630,304,82,0
backprop_opt_53a53c348a3bd63e0b611fed3ad29845,machsuite_xilinx_post_frontend,backprop,xczu9eg-ffvb1156-2-i,10.0,2023.1.1,,7.386000000000001e-09,11743662.0,0.08673868753200001,11743662.0,0.08673868753200001,11743662.0,0.08673868753200001,24886,29848,147,54,0
backprop_opt_872ef4262e157ad9ee3b68f8c43b94a7,machsuite_xilinx_post_frontend,backprop,xczu9eg-ffvb1156-2-i,10.0,2023.1.1,,7.584e-09,11348550.0,0.0860674032,11348550.0,0.0860674032,11348550.0,0.0860674032,33069,41682,289,82,0
backprop_opt_a43289248881e339050099b317b2dfd0,machsuite_xilinx_post_frontend,backprop,xczu9eg-ffvb1156-2-i,10.0,2023.1.1,,7.566e-09,11743662.0,0.088852546692,11743662.0,0.088852546692,11743662.0,0.088852546692,30159,35930,159,54,0
backprop_opt_cc806062e5a1a8dec7ae042ac7dcc7da,machsuite_xilinx_post_frontend,backprop,xczu9eg-ffvb1156-2-i,10.0,2023.1.1,,7.328e-09,11817827.0,0.086601036256,11817827.0,0.086601036256,11817827.0,0.086601036256,105662,116728,720,64,0
backprop_opt_fbe922a24e6384fa3338be347e1d85a1,machsuite_xilinx_post_frontend,backprop,xczu9eg-ffvb1156-2-i,10.0,2023.1.1,,7.445000000000001e-09,28444968.0,0.21177278676000003,28444968.0,0.21177278676000003,28444968.0,0.21177278676000003,34322,36888,204,104,0
bfs_bulk_opt_00cdb32387a45d75ff7104c0d44ff296,machsuite_xilinx_post_frontend,bfs,xczu9eg-ffvb1156-2-i,10.0,2023.1.1,,3.789e-09,770.0,2.91753e-06,231690.0,0.00087787341,916500.0,0.0034726185,29414,2645,0,0,0
bfs_bulk_opt_090541d331d43948a32b0e5c75100d84,machsuite_xilinx_post_frontend,bfs,xczu9eg-ffvb1156-2-i,10.0,2023.1.1,,6.936e-09,770.0,5.34072e-06,258570.0,0.00179344152,1024020.0,0.00710260272,14082,13722,16,0,0
bfs_bulk_opt_2f3ae69c1d219bc8c8cbbe014560b381,machsuite_xilinx_post_frontend,bfs,xczu9eg-ffvb1156-2-i,10.0,2023.1.1,,3.328e-09,770.0,2.56256e-06,221450.0,0.0007369856,875540.0,0.00291379712,8689,1583,0,0,0
bfs_bulk_opt_33e768f9c11448585856e812c64fdd6e,machsuite_xilinx_post_frontend,bfs,xczu9eg-ffvb1156-2-i,10.0,2023.1.1,,3.239e-09,770.0,2.49403e-06,208650.0,0.00067581735,826900.0,0.0026783291,794,460,0,0,0
bfs_bulk_opt_3ed395a9582b2382f65678d49f0da877,machsuite_xilinx_post_frontend,bfs,xczu9eg-ffvb1156-2-i,10.0,2023.1.1,,3.328e-09,770.0,2.56256e-06,252170.0,0.00083922176,998420.0,0.00332274176,28735,4985,0,0,0
bfs_bulk_opt_4a64efb723bafb2e4307464e69c78ea2,machsuite_xilinx_post_frontend,bfs,xczu9eg-ffvb1156-2-i,10.0,2023.1.1,,3.239e-09,770.0,2.49403e-06,208650.0,0.00067581735,826900.0,0.0026783291,692,456,0,0,0
bfs_bulk_opt_4fac3c55de2c649c270ddf5e0f55ca07,machsuite_xilinx_post_frontend,bfs,xczu9eg-ffvb1156-2-i,10.0,2023.1.1,,3.792e-09,770.0,2.9198400000000002e-06,209930.0,0.0007960545600000001,832020.0,0.00315501984,6406,33449,0,0,0
bfs_bulk_opt_5011e8a586c9ad38edee752b5caf5ab2,machsuite_xilinx_post_frontend,bfs,xczu9eg-ffvb1156-2-i,10.0,2023.1.1,,3.239e-09,770.0,2.49403e-06,252170.0,0.00081677863,998420.0,0.00323388238,11843,4979,0,0,0
bfs_bulk_opt_5b227ae9456d8f93d814c258910dde91,machsuite_xilinx_post_frontend,bfs,xczu9eg-ffvb1156-2-i,10.0,2023.1.1,,3.239e-09,770.0,2.49403e-06,373770.0,0.00121064103,1487380.0,0.00481762382,37726,19024,0,0,0
bfs_bulk_opt_6d2b1f99c07811332a1636b653b46254,machsuite_xilinx_post_frontend,bfs,xczu9eg-ffvb1156-2-i,10.0,2023.1.1,,3.239e-09,770.0,2.49403e-06,252170.0,0.00081677863,998420.0,0.00323388238,11843,4979,0,0,0
bfs_bulk_opt_74a51459dc094c06084b7d657b84334b,machsuite_xilinx_post_frontend,bfs,xczu9eg-ffvb1156-2-i,10.0,2023.1.1,,3.239e-09,770.0,2.49403e-06,208650.0,0.00067581735,826900.0,0.0026783291,692,456,0,0,0
bfs_bulk_opt_7ac25722a208f203c9bc599a9015bfc7,machsuite_xilinx_post_frontend,bfs,xczu9eg-ffvb1156-2-i,10.0,2023.1.1,,3.239e-09,770.0,2.49403e-06,252170.0,0.00081677863,998420.0,0.00323388238,9715,4975,0,0,0
bfs_bulk_opt_894b2e9a6a7ba71a2fd031a3751c254f,machsuite_xilinx_post_frontend,bfs,xczu9eg-ffvb1156-2-i,10.0,2023.1.1,,3.239e-09,770.0,2.49403e-06,231690.0,0.00075044391,916500.0,0.0029685435,4791,2510,0,0,0
bfs_bulk_opt_8b010271c340f4386fba23d79235d4f6,machsuite_xilinx_post_frontend,bfs,xczu9eg-ffvb1156-2-i,10.0,2023.1.1,,3.239e-09,770.0,2.49403e-06,252170.0,0.00081677863,998420.0,0.00323388238,9715,4975,0,0,0
bfs_bulk_opt_9cb54479855e7399434ebd7d0ff11db2,machsuite_xilinx_post_frontend,bfs,xczu9eg-ffvb1156-2-i,10.0,2023.1.1,,3.239e-09,770.0,2.49403e-06,209930.0,0.00067996327,832020.0,0.00269491278,1038,669,0,0,0
bfs_bulk_opt_aa480ea7eeb74e628d2c4fc7cc4d23ae,machsuite_xilinx_post_frontend,bfs,xczu9eg-ffvb1156-2-i,10.0,2023.1.1,,3.239e-09,770.0,2.49403e-06,231690.0,0.00075044391,916500.0,0.0029685435,6314,2627,0,0,0
bfs_bulk_opt_ab9cd725994a79bcc8be9c4fb9beb706,machsuite_xilinx_post_frontend,bfs,xczu9eg-ffvb1156-2-i,10.0,2023.1.1,,3.239e-09,770.0,2.49403e-06,208650.0,0.00067581735,826900.0,0.0026783291,665,463,0,0,0
bfs_bulk_opt_ae25dee7db6e207488e134f28b4076a7,machsuite_xilinx_post_frontend,bfs,xczu9eg-ffvb1156-2-i,10.0,2023.1.1,,5.8510000000000006e-09,770.0,4.50527e-06,252170.0,0.0014754466700000002,1000980.0,0.005856733980000001,11395,13309,16,0,0
bfs_bulk_opt_bf92791b451e6c99826e846e19c237dc,machsuite_xilinx_post_frontend,bfs,xczu9eg-ffvb1156-2-i,10.0,2023.1.1,,3.239e-09,770.0,2.49403e-06,209930.0,0.00067996327,832020.0,0.00269491278,1218,673,0,0,0
bfs_bulk_opt_c66492efc3382fdf5eb7a30fe275b716,machsuite_xilinx_post_frontend,bfs,xczu9eg-ffvb1156-2-i,10.0,2023.1.1,,3.239e-09,770.0,2.49403e-06,208650.0,0.00067581735,826900.0,0.0026783291,794,460,0,0,0
bfs_bulk_opt_c682f7c8bdb527fc728e249eaedd9d98,machsuite_xilinx_post_frontend,bfs,xczu9eg-ffvb1156-2-i,10.0,2023.1.1,,3.239e-09,770.0,2.49403e-06,373770.0,0.00121064103,1487380.0,0.00481762382,35304,18015,0,0,0
bfs_bulk_opt_debb2d1fbe1212af0833766e14a2b176,machsuite_xilinx_post_frontend,bfs,xczu9eg-ffvb1156-2-i,10.0,2023.1.1,,3.239e-09,770.0,2.49403e-06,373770.0,0.00121064103,1487380.0,0.00481762382,45554,19028,0,0,0
bfs_bulk_opt_e0fc14298acba1a74adf8a2c0270e81d,machsuite_xilinx_post_frontend,bfs,xczu9eg-ffvb1156-2-i,10.0,2023.1.1,,3.789e-09,770.0,2.91753e-06,216330.0,0.00081967437,855060.0,0.0032398223400000002,9205,1120,0,0,0
bfs_bulk_opt_e28c0db54a4d1d844eafc6d73c28e55a,machsuite_xilinx_post_frontend,bfs,xczu9eg-ffvb1156-2-i,10.0,2023.1.1,,3.239e-09,770.0,2.49403e-06,216330.0,0.00070069287,855060.0,0.00276953934,1693,1110,0,0,0
bfs_bulk_opt_e3bce80797d85af3cfbdb26789562b2f,machsuite_xilinx_post_frontend,bfs,xczu9eg-ffvb1156-2-i,10.0,2023.1.1,,3.239e-09,770.0,2.49403e-06,373770.0,0.00121064103,1487380.0,0.00481762382,35304,18015,0,0,0
bfs_bulk_opt_ee592148aa8b94669fec2b1e4312b769,machsuite_xilinx_post_frontend,bfs,xczu9eg-ffvb1156-2-i,10.0,2023.1.1,,6.936e-09,770.0,5.34072e-06,263690.0,0.00182895384,1044500.0,0.007244652,45244,70302,16,0,0
bfs_bulk_opt_f2753b5701faf71c30a7150889b46b15,machsuite_xilinx_post_frontend,bfs,xczu9eg-ffvb1156-2-i,10.0,2023.1.1,,3.239e-09,770.0,2.49403e-06,221450.0,0.0007172765500000001,875540.0,0.00283587406,3039,1575,0,0,0
bfs_bulk_opt_f987ebc7a05eb9fd8f34ecc128f82fe0,machsuite_xilinx_post_frontend,bfs,xczu9eg-ffvb1156-2-i,10.0,2023.1.1,,3.239e-09,770.0,2.49403e-06,216330.0,0.00070069287,855060.0,0.00276953934,1593,1093,0,0,0
bfs_queue_opt_03c08829fbbc5d138cb7b8867ae0189a,machsuite_xilinx_post_frontend,bfs,xczu9eg-ffvb1156-2-i,10.0,2023.1.1,,3.239e-09,1.0,3.239e-09,107137.0,0.000347016743,295169.0,0.000956052391,45717,13139,0,1,0
bfs_queue_opt_0902da33fad7fd34c39395edd741ce64,machsuite_xilinx_post_frontend,bfs,xczu9eg-ffvb1156-2-i,10.0,2023.1.1,,3.239e-09,1.0,3.239e-09,107137.0,0.000347016743,295169.0,0.000956052391,48967,13142,0,2,0
bfs_queue_opt_0fb2aaeb3feb7931a5b02e1b70e80664,machsuite_xilinx_post_frontend,bfs,xczu9eg-ffvb1156-2-i,10.0,2023.1.1,,3.239e-09,1.0,3.239e-09,67969.0,0.000220151591,135937.0,0.00044029994300000003,6088,2889,0,1,0
bfs_queue_opt_14d16354e03d00dca562c6a482c8b7e6,machsuite_xilinx_post_frontend,bfs,xczu9eg-ffvb1156-2-i,10.0,2023.1.1,,3.239e-09,1.0,3.239e-09,107137.0,0.000347016743,295169.0,0.000956052391,45717,13139,0,1,0
bfs_queue_opt_23fdc560ca9cba57b00e5c263a6f6ca0,machsuite_xilinx_post_frontend,bfs,xczu9eg-ffvb1156-2-i,10.0,2023.1.1,,6.936e-09,1.0,6.936e-09,89993.0,0.000624191448,179981.0,0.001248348216,65975,106261,32,0,0
bfs_queue_opt_3ca105cb502c4a7777b927f58799c6bf,machsuite_xilinx_post_frontend,bfs,xczu9eg-ffvb1156-2-i,10.0,2023.1.1,,3.239e-09,1.0,3.239e-09,61697.0,0.000199836583,123393.0,0.000399669927,2709,842,0,0,0
bfs_queue_opt_50ef906c1b71987064b0ac0379d3344e,machsuite_xilinx_post_frontend,bfs,xczu9eg-ffvb1156-2-i,10.0,2023.1.1,,3.789e-09,1.0,3.789e-09,63361.0,0.000240074829,126721.0,0.000480145869,21859,2279,0,0,0
bfs_queue_opt_5e7d3a14ea7588ba253893e629f1ed19,machsuite_xilinx_post_frontend,bfs,xczu9eg-ffvb1156-2-i,10.0,2023.1.1,,3.239e-09,1.0,3.239e-09,61569.0,0.000199421991,123137.0,0.00039884074300000004,1091,344,0,2,0
bfs_queue_opt_65cfded47a4962da382030fa7ac064e2,machsuite_xilinx_post_frontend,bfs,xczu9eg-ffvb1156-2-i,10.0,2023.1.1,,3.239e-09,1.0,3.239e-09,74113.0,0.000240052007,148225.0,0.000480100775,12351,5466,0,2,0
bfs_queue_opt_6aafd34e404b2ba7a27a0eaf709701b1,machsuite_xilinx_post_frontend,bfs,xczu9eg-ffvb1156-2-i,10.0,2023.1.1,,3.239e-09,1.0,3.239e-09,64897.0,0.00021020138300000002,129793.0,0.000420399527,4302,1639,0,0,0
bfs_queue_opt_87ee8596434f4e342775b89c9acca5ad,machsuite_xilinx_post_frontend,bfs,xczu9eg-ffvb1156-2-i,10.0,2023.1.1,,3.239e-09,1.0,3.239e-09,61569.0,0.000199421991,123137.0,0.00039884074300000004,1481,422,0,0,0
bfs_queue_opt_8af628875c2cf8f0ee704261ce071d97,machsuite_xilinx_post_frontend,bfs,xczu9eg-ffvb1156-2-i,10.0,2023.1.1,,6.4710000000000005e-09,1.0,6.4710000000000005e-09,88201.0,0.0005707486710000001,176397.0,0.0011414649870000002,34113,36804,32,0,0
bfs_queue_opt_8e28e662ed58436c55ab068144936eaf,machsuite_xilinx_post_frontend,bfs,xczu9eg-ffvb1156-2-i,10.0,2023.1.1,,3.239e-09,1.0,3.239e-09,61569.0,0.000199421991,123137.0,0.00039884074300000004,1018,341,0,1,0
bfs_queue_opt_9ed9425c6206c6dc44e2fd273f552780,machsuite_xilinx_post_frontend,bfs,xczu9eg-ffvb1156-2-i,10.0,2023.1.1,,3.239e-09,1.0,3.239e-09,67969.0,0.000220151591,135937.0,0.00044029994300000003,9074,2984,0,0,0
bfs_queue_opt_b4ee26c68132d6f9889ead63a2a236e9,machsuite_xilinx_post_frontend,bfs,xczu9eg-ffvb1156-2-i,10.0,2023.1.1,,3.239e-09,1.0,3.239e-09,61569.0,0.000199421991,123137.0,0.00039884074300000004,1481,422,0,0,0
bfs_queue_opt_be5ccc7ab9607b3e6dd92a9d252d404a,machsuite_xilinx_post_frontend,bfs,xczu9eg-ffvb1156-2-i,10.0,2023.1.1,,3.239e-09,1.0,3.239e-09,74113.0,0.000240052007,148225.0,0.000480100775,12351,5466,0,2,0
bfs_queue_opt_c733bbc316d1f3253de02983e2e94400,machsuite_xilinx_post_frontend,bfs,xczu9eg-ffvb1156-2-i,10.0,2023.1.1,,3.239e-09,1.0,3.239e-09,61697.0,0.000199836583,123393.0,0.000399669927,1698,796,0,0,0
bfs_queue_opt_d183d17449f999b2a5d080119202f55d,machsuite_xilinx_post_frontend,bfs,xczu9eg-ffvb1156-2-i,10.0,2023.1.1,,3.239e-09,1.0,3.239e-09,61569.0,0.000199421991,123137.0,0.00039884074300000004,1091,344,0,2,0
bfs_queue_opt_d95d20a2370f735c23596831054d88dd,machsuite_xilinx_post_frontend,bfs,xczu9eg-ffvb1156-2-i,10.0,2023.1.1,,3.328e-09,1.0,3.328e-09,64897.0,0.000215977216,129793.0,0.000431951104,18337,2153,0,0,0
bfs_queue_opt_e5608879482eb364c4e8e90cf273e24b,machsuite_xilinx_post_frontend,bfs,xczu9eg-ffvb1156-2-i,10.0,2023.1.1,,3.239e-09,1.0,3.239e-09,74113.0,0.000240052007,148225.0,0.000480100775,16591,5560,0,0,0
bfs_queue_opt_e8296923cf9393471c9357ad56f0b525,machsuite_xilinx_post_frontend,bfs,xczu9eg-ffvb1156-2-i,10.0,2023.1.1,,3.239e-09,1.0,3.239e-09,63361.0,0.000205226279,126721.0,0.000410449319,2347,1231,0,2,0
bfs_queue_opt_eb58fbe73b8a0e022782e1589462734e,machsuite_xilinx_post_frontend,bfs,xczu9eg-ffvb1156-2-i,10.0,2023.1.1,,3.239e-09,1.0,3.239e-09,74113.0,0.000240052007,148225.0,0.000480100775,16591,5560,0,0,0
bfs_queue_opt_f987ebc7a05eb9fd8f34ecc128f82fe0,machsuite_xilinx_post_frontend,bfs,xczu9eg-ffvb1156-2-i,10.0,2023.1.1,,3.239e-09,1.0,3.239e-09,63361.0,0.000205226279,126721.0,0.000410449319,2150,1230,0,1,0
fft_transpose_opt_0b71c5d81da7361354a3f45badbc1ea4,machsuite_xilinx_post_frontend,fft1D_512,xczu9eg-ffvb1156-2-i,10.0,2023.1.1,,7.386000000000001e-09,1343.0,9.919398000000001e-06,1343.0,9.919398000000001e-06,1343.0,9.919398000000001e-06,212721,117302,1985,304,0
fft_transpose_opt_0ecf98d16866986eb94e6a109b105fb9,machsuite_xilinx_post_frontend,fft1D_512,xczu9eg-ffvb1156-2-i,10.0,2023.1.1,,7.266e-09,3257.0,2.3665362e-05,3257.0,2.3665362e-05,3257.0,2.3665362e-05,208762,153227,2103,196,0
fft_transpose_opt_252914d235f8e0a0079cc340f961be63,machsuite_xilinx_post_frontend,fft1D_512,xczu9eg-ffvb1156-2-i,10.0,2023.1.1,,7.298e-09,2383.0,1.7391134e-05,2383.0,1.7391134e-05,2383.0,1.7391134e-05,269726,195699,2165,144,0
fft_transpose_opt_2599a732c7de4372c83a49033cb9b383,machsuite_xilinx_post_frontend,fft1D_512,xczu9eg-ffvb1156-2-i,10.0,2023.1.1,,7.657e-09,13202.0,0.00010108771400000001,13202.0,0.00010108771400000001,13202.0,0.00010108771400000001,167321,105801,750,208,0
fft_transpose_opt_30011cd2d1ccd189d3ecebcca131a6d1,machsuite_xilinx_post_frontend,fft1D_512,xczu9eg-ffvb1156-2-i,10.0,2023.1.1,,7.445000000000001e-09,1947.0,1.4495415000000001e-05,1947.0,1.4495415000000001e-05,1947.0,1.4495415000000001e-05,202673,136943,1843,256,0
fft_transpose_opt_4d4fbfbc3425fdb2e3ff1e6698295589,machsuite_xilinx_post_frontend,fft1D_512,xczu9eg-ffvb1156-2-i,10.0,2023.1.1,,7.266e-09,1288.0,9.358608e-06,1288.0,9.358608e-06,1288.0,9.358608e-06,237448,174584,1985,272,0
fft_transpose_opt_4e746a10326cc99263200ec0eb21eb30,machsuite_xilinx_post_frontend,fft1D_512,xczu9eg-ffvb1156-2-i,10.0,2023.1.1,,7.445000000000001e-09,13822.0,0.00010290479,13822.0,0.00010290479,13822.0,0.00010290479,52043,32894,382,96,0
fft_transpose_opt_51ee11c9bfdc9fe7fa8009608ec23cf8,machsuite_xilinx_post_frontend,fft1D_512,xczu9eg-ffvb1156-2-i,10.0,2023.1.1,,7.266e-09,1290.0,9.373140000000001e-06,1290.0,9.373140000000001e-06,1290.0,9.373140000000001e-06,238775,177751,1985,272,0
fft_transpose_opt_5be5fd4fead90df2292548561a07fdc3,machsuite_xilinx_post_frontend,fft1D_512,xczu9eg-ffvb1156-2-i,10.0,2023.1.1,,7.266e-09,3300.0,2.3977800000000003e-05,3300.0,2.3977800000000003e-05,3300.0,2.3977800000000003e-05,203336,131654,2097,228,0
fft_transpose_opt_5eb35b18afd9fe557d2708334637c7f1,machsuite_xilinx_post_frontend,fft1D_512,xczu9eg-ffvb1156-2-i,10.0,2023.1.1,,7.416000000000001e-09,14736.0,0.00010928217600000002,14736.0,0.00010928217600000002,14736.0,0.00010928217600000002,45413,26869,361,76,0
fft_transpose_opt_72f23732230f0cf261e4aa10bf670396,machsuite_xilinx_post_frontend,fft1D_512,xczu9eg-ffvb1156-2-i,10.0,2023.1.1,,7.461000000000001e-09,16066.0,0.00011986842600000002,16066.0,0.00011986842600000002,16066.0,0.00011986842600000002,72334,48694,449,92,0
fft_transpose_opt_8d09a06aeb40cf62f7d7b3ee041c668e,machsuite_xilinx_post_frontend,fft1D_512,xczu9eg-ffvb1156-2-i,10.0,2023.1.1,,7.657e-09,13404.0,0.000102634428,13404.0,0.000102634428,13404.0,0.000102634428,87775,41392,346,208,0
fft_transpose_opt_902b2adaa0903860d5286ad4d6f7214a,machsuite_xilinx_post_frontend,fft1D_512,xczu9eg-ffvb1156-2-i,10.0,2023.1.1,,7.613000000000002e-09,2145.0,1.6329885000000003e-05,2145.0,1.6329885000000003e-05,2145.0,1.6329885000000003e-05,731740,422318,8120,704,0
fft_transpose_opt_919efcd83815ac45f658195dfe575b4b,machsuite_xilinx_post_frontend,fft1D_512,xczu9eg-ffvb1156-2-i,10.0,2023.1.1,,7.445000000000001e-09,16317.0,0.00012148006500000001,16317.0,0.00012148006500000001,16317.0,0.00012148006500000001,63742,47763,401,156,0
fft_transpose_opt_9994212a902e0cbdc77f0bf5a4e9adf3,machsuite_xilinx_post_frontend,fft1D_512,xczu9eg-ffvb1156-2-i,10.0,2023.1.1,,7.445000000000001e-09,3513.0,2.6154285000000004e-05,3513.0,2.6154285000000004e-05,3513.0,2.6154285000000004e-05,361388,223904,4102,404,0
fft_transpose_opt_9e49b7527232ef3f36a753a874408ed7,machsuite_xilinx_post_frontend,fft1D_512,xczu9eg-ffvb1156-2-i,10.0,2023.1.1,,7.445000000000001e-09,3641.0,2.7107245000000003e-05,3641.0,2.7107245000000003e-05,3641.0,2.7107245000000003e-05,201495,134622,2121,228,0
fft_transpose_opt_a053ff7d862fddcba81936d3f8ba48a2,machsuite_xilinx_post_frontend,fft1D_512,xczu9eg-ffvb1156-2-i,10.0,2023.1.1,,7.445000000000001e-09,1493.0,1.1115385000000001e-05,1493.0,1.1115385000000001e-05,1493.0,1.1115385000000001e-05,374578,202688,3970,608,0
fft_transpose_opt_a6e7339dcaf91d48fb98fd2c31f630f3,machsuite_xilinx_post_frontend,fft1D_512,xczu9eg-ffvb1156-2-i,10.0,2023.1.1,,7.445000000000001e-09,3745.0,2.7881525000000002e-05,3745.0,2.7881525000000002e-05,3745.0,2.7881525000000002e-05,202369,156922,2047,180,0
fft_transpose_opt_aa11dce0f5c0829bad1229b4a4c19fcb,machsuite_xilinx_post_frontend,fft1D_512,xczu9eg-ffvb1156-2-i,10.0,2023.1.1,,7.266e-09,1022.0,7.425852000000001e-06,1022.0,7.425852000000001e-06,1022.0,7.425852000000001e-06,294442,200369,2269,304,0
fft_transpose_opt_aeb83c26ed38d9bc816fbee795d3308a,machsuite_xilinx_post_frontend,fft1D_512,xczu9eg-ffvb1156-2-i,10.0,2023.1.1,,7.266e-09,3288.0,2.3890608e-05,3288.0,2.3890608e-05,3288.0,2.3890608e-05,236679,170948,2181,228,0
fft_transpose_opt_b4753d5163443b3724ee3aa1a20b673f,machsuite_xilinx_post_frontend,fft1D_512,xczu9eg-ffvb1156-2-i,10.0,2023.1.1,,7.445000000000001e-09,2569.0,1.9126205e-05,2569.0,1.9126205e-05,2569.0,1.9126205e-05,196113,125026,2105,228,0
fft_transpose_opt_c1e4d3d0db39d42170ca2938f11056c8,machsuite_xilinx_post_frontend,fft1D_512,xczu9eg-ffvb1156-2-i,10.0,2023.1.1,,7.657e-09,13299.0,0.00010183044300000001,13299.0,0.00010183044300000001,13299.0,0.00010183044300000001,165597,105510,750,208,0
fft_transpose_opt_c2f537d644e48bfe639918d5ccd10927,machsuite_xilinx_post_frontend,fft1D_512,xczu9eg-ffvb1156-2-i,10.0,2023.1.1,,7.643000000000001e-09,3995.0,3.0533785e-05,3995.0,3.0533785e-05,3995.0,3.0533785e-05,227799,152385,2009,128,0
fft_transpose_opt_cd879c5e8fa5220b38060702451e0933,machsuite_xilinx_post_frontend,fft1D_512,xczu9eg-ffvb1156-2-i,10.0,2023.1.1,,7.266e-09,2892.0,2.1013272e-05,2892.0,2.1013272e-05,2892.0,2.1013272e-05,443314,311099,4246,288,0
fft_transpose_opt_dd6b677dcdb498a6e76981ae36c78d12,machsuite_xilinx_post_frontend,fft1D_512,xczu9eg-ffvb1156-2-i,10.0,2023.1.1,,7.266e-09,1593.0,1.1574738e-05,1593.0,1.1574738e-05,1593.0,1.1574738e-05,185485,102152,1843,272,0
fft_transpose_opt_e10e58d8e295e6114a5d80add746660f,machsuite_xilinx_post_frontend,fft1D_512,xczu9eg-ffvb1156-2-i,10.0,2023.1.1,,7.266e-09,2732.0,1.9850712000000002e-05,2732.0,1.9850712000000002e-05,2732.0,1.9850712000000002e-05,445763,324017,4178,288,0
gemm_blocked_opt_1d440e98cd31531327063efacd9af915,machsuite_xilinx_post_frontend,bbgemm,xczu9eg-ffvb1156-2-i,10.0,2023.1.1,,7.357000000000001e-09,131114.0,0.0009646056980000001,131114.0,0.0009646056980000001,131114.0,0.0009646056980000001,4661,6428,28,0,0
gemm_blocked_opt_221e4c8864da5d613f0f077ae10cb6ca,machsuite_xilinx_post_frontend,bbgemm,xczu9eg-ffvb1156-2-i,10.0,2023.1.1,,7.042e-09,786441.0,0.005538117522,786441.0,0.005538117522,786441.0,0.005538117522,3971,2370,14,0,0
gemm_blocked_opt_3234fa39863de1a99d722cb1b1c44d08,machsuite_xilinx_post_frontend,bbgemm,xczu9eg-ffvb1156-2-i,10.0,2023.1.1,,7.357000000000001e-09,131114.0,0.0009646056980000001,131114.0,0.0009646056980000001,131114.0,0.0009646056980000001,4661,6428,28,0,0
gemm_blocked_opt_60bb8e4d7d30bab541d545978c6c0616,machsuite_xilinx_post_frontend,bbgemm,xczu9eg-ffvb1156-2-i,10.0,2023.1.1,,7.357000000000001e-09,163851.0,0.0012054518070000002,163851.0,0.0012054518070000002,163851.0,0.0012054518070000002,5987,10073,28,0,0
gemm_blocked_opt_634dea442db5d87dbd4ac021243e435a,machsuite_xilinx_post_frontend,bbgemm,xczu9eg-ffvb1156-2-i,10.0,2023.1.1,,7.298e-09,225281.0,0.001644100738,225281.0,0.001644100738,225281.0,0.001644100738,3533,7030,28,0,0
gemm_blocked_opt_63f6b64661ba4d744eaa77e1a0357995,machsuite_xilinx_post_frontend,bbgemm,xczu9eg-ffvb1156-2-i,10.0,2023.1.1,,7.298e-09,180233.0,0.0013153404340000001,180233.0,0.0013153404340000001,180233.0,0.0013153404340000001,5283,5809,34,0,0
gemm_blocked_opt_6bb94355158af2e3cc354e234e03a44f,machsuite_xilinx_post_frontend,bbgemm,xczu9eg-ffvb1156-2-i,10.0,2023.1.1,,7.042e-09,229385.0,0.0016153291700000002,229385.0,0.0016153291700000002,229385.0,0.0016153291700000002,4493,3542,34,0,0
gemm_blocked_opt_6fef90fcb56642258f45b686f8acadae,machsuite_xilinx_post_frontend,bbgemm,xczu9eg-ffvb1156-2-i,10.0,2023.1.1,,7.042e-09,262156.0,0.001846102552,262156.0,0.001846102552,262156.0,0.001846102552,2030,2033,14,0,0
gemm_blocked_opt_8d94a7bf14fe2504adeb6c859c2e7343,machsuite_xilinx_post_frontend,bbgemm,xczu9eg-ffvb1156-2-i,10.0,2023.1.1,,7.042e-09,1572871.0,0.011076157582,1572871.0,0.011076157582,1572871.0,0.011076157582,1768,1264,14,0,0
gemm_blocked_opt_909311b832da03ea54c4fc1dc699535e,machsuite_xilinx_post_frontend,bbgemm,xczu9eg-ffvb1156-2-i,10.0,2023.1.1,,7.864e-09,199681.0,0.0015702913840000001,199681.0,0.0015702913840000001,199681.0,0.0015702913840000001,15319,21580,199,0,0
gemm_blocked_opt_9552b47b5ff6480b7f2b7838c432b3c1,machsuite_xilinx_post_frontend,bbgemm,xczu9eg-ffvb1156-2-i,10.0,2023.1.1,,7.042e-09,196618.0,0.001384583956,196618.0,0.001384583956,196618.0,0.001384583956,4320,3643,34,0,0
gemm_blocked_opt_97730470c70a4518a2e3798842105c8c,machsuite_xilinx_post_frontend,bbgemm,xczu9eg-ffvb1156-2-i,10.0,2023.1.1,,7.357000000000001e-09,131114.0,0.0009646056980000001,131114.0,0.0009646056980000001,131114.0,0.0009646056980000001,4661,6428,28,0,0
gemm_blocked_opt_a085fb8e627d9fae356177c56e3f9b09,machsuite_xilinx_post_frontend,bbgemm,xczu9eg-ffvb1156-2-i,10.0,2023.1.1,,7.042e-09,196618.0,0.001384583956,196618.0,0.001384583956,196618.0,0.001384583956,4320,3643,34,0,0
gemm_blocked_opt_a7e1dec7e28083813ca3c8ee56abf303,machsuite_xilinx_post_frontend,bbgemm,xczu9eg-ffvb1156-2-i,10.0,2023.1.1,,7.406e-09,195585.0,0.00144850251,195585.0,0.00144850251,195585.0,0.00144850251,18551,26708,408,0,0
gemm_blocked_opt_ab66a4c87a0cb25db68d495573a10338,machsuite_xilinx_post_frontend,bbgemm,xczu9eg-ffvb1156-2-i,10.0,2023.1.1,,7.335000000000001e-09,192520.0,0.0014121342,192520.0,0.0014121342,192520.0,0.0014121342,6431,17911,28,0,0
gemm_blocked_opt_b126858977a8f444029a11641221c1db,machsuite_xilinx_post_frontend,bbgemm,xczu9eg-ffvb1156-2-i,10.0,2023.1.1,,7.980000000000001e-09,198145.0,0.0015811971000000001,198145.0,0.0015811971000000001,198145.0,0.0015811971000000001,18939,25299,144,0,0
gemm_blocked_opt_b327fd556e1e5b1da9982388dc0ba4f1,machsuite_xilinx_post_frontend,bbgemm,xczu9eg-ffvb1156-2-i,10.0,2023.1.1,,7.335000000000001e-09,167946.0,0.00123188391,167946.0,0.00123188391,167946.0,0.00123188391,5968,17928,28,0,0
gemm_blocked_opt_ca79d820cc3f6d0eaf3dd825253955e3,machsuite_xilinx_post_frontend,bbgemm,xczu9eg-ffvb1156-2-i,10.0,2023.1.1,,7.042e-09,180234.0,0.001269207828,180234.0,0.001269207828,180234.0,0.001269207828,4732,4986,34,0,0
gemm_blocked_opt_d39a2674b8c20b8156ad043232c26bf3,machsuite_xilinx_post_frontend,bbgemm,xczu9eg-ffvb1156-2-i,10.0,2023.1.1,,7.357000000000001e-09,163851.0,0.0012054518070000002,163851.0,0.0012054518070000002,163851.0,0.0012054518070000002,5043,10065,28,0,0
gemm_blocked_opt_e02054944426dc763c22189da225dce8,machsuite_xilinx_post_frontend,bbgemm,xczu9eg-ffvb1156-2-i,10.0,2023.1.1,,7.042e-09,1572871.0,0.011076157582,1572871.0,0.011076157582,1572871.0,0.011076157582,1922,1494,14,0,0
gemm_blocked_opt_e47ecb4f4c74588820ec55a3ba3af96c,machsuite_xilinx_post_frontend,bbgemm,xczu9eg-ffvb1156-2-i,10.0,2023.1.1,,7.042e-09,225281.0,0.001586428802,225281.0,0.001586428802,225281.0,0.001586428802,2931,5862,28,0,0
gemm_blocked_opt_e8485850afa524335b5f11db2baf8369,machsuite_xilinx_post_frontend,bbgemm,xczu9eg-ffvb1156-2-i,10.0,2023.1.1,,7.042e-09,393227.0,0.002769104534,393227.0,0.002769104534,393227.0,0.002769104534,4469,2659,14,0,0
gemm_blocked_opt_fa6ea6ece1509f092d929b3582b79716,machsuite_xilinx_post_frontend,bbgemm,xczu9eg-ffvb1156-2-i,10.0,2023.1.1,,7.475e-09,167946.0,0.00125539635,167946.0,0.00125539635,167946.0,0.00125539635,4601,13806,28,0,0
gemm_ncubed_opt_012a576439dd171ae37258ab02732aec,machsuite_xilinx_post_frontend,gemm,xczu9eg-ffvb1156-2-i,10.0,2023.1.1,,7.042e-09,1355777.0,0.009547381634,1355777.0,0.009547381634,1355777.0,0.009547381634,1530,1610,14,0,0
gemm_ncubed_opt_04506f4cf94ea466204f89a545842800,machsuite_xilinx_post_frontend,gemm,xczu9eg-ffvb1156-2-i,10.0,2023.1.1,,7.042e-09,1355777.0,0.009547381634,1355777.0,0.009547381634,1355777.0,0.009547381634,1829,2104,14,0,0
gemm_ncubed_opt_0e4bf513e51a23001988ecc3601c2f32,machsuite_xilinx_post_frontend,gemm,xczu9eg-ffvb1156-2-i,10.0,2023.1.1,,7.357000000000001e-09,65832.0,0.00048432602400000005,65832.0,0.00048432602400000005,65832.0,0.00048432602400000005,13335,31884,56,0,0
gemm_ncubed_opt_14871ab1d620f7d0e7f24afeeb94571f,machsuite_xilinx_post_frontend,gemm,xczu9eg-ffvb1156-2-i,10.0,2023.1.1,,7.042e-09,1355777.0,0.009547381634,1355777.0,0.009547381634,1355777.0,0.009547381634,1348,1321,14,0,0
gemm_ncubed_opt_238967663ae8f25c053a868f429f9c08,machsuite_xilinx_post_frontend,gemm,xczu9eg-ffvb1156-2-i,10.0,2023.1.1,,7.357000000000001e-09,33064.0,0.00024325184800000002,33064.0,0.00024325184800000002,33064.0,0.00024325184800000002,20831,44078,112,0,0
gemm_ncubed_opt_26a1fd6f272b8d54532a37552ea2d4be,machsuite_xilinx_post_frontend,gemm,xczu9eg-ffvb1156-2-i,10.0,2023.1.1,,7.335000000000001e-09,65801.0,0.00048265033500000007,65801.0,0.00048265033500000007,65801.0,0.00048265033500000007,16817,52041,56,0,0
gemm_ncubed_opt_28e528bde0199eacb29f23b5405ff444,machsuite_xilinx_post_frontend,gemm,xczu9eg-ffvb1156-2-i,10.0,2023.1.1,,7.357000000000001e-09,131368.0,0.0009664743760000002,131368.0,0.0009664743760000002,131368.0,0.0009664743760000002,7096,16712,28,0,0
gemm_ncubed_opt_2c74945a1e24f9630b297dbd4fd96619,machsuite_xilinx_post_frontend,gemm,xczu9eg-ffvb1156-2-i,10.0,2023.1.1,,7.475e-09,131336.0,0.0009817366000000002,131336.0,0.0009817366000000002,131336.0,0.0009817366000000002,8275,19153,28,0,0
gemm_ncubed_opt_3e17b9c043ac41bd1ea6215f21d7c7a4,machsuite_xilinx_post_frontend,gemm,xczu9eg-ffvb1156-2-i,10.0,2023.1.1,,7.042e-09,1355777.0,0.009547381634,1355777.0,0.009547381634,1355777.0,0.009547381634,1995,2474,14,0,0
gemm_ncubed_opt_48b9e3f3d4cc564c7744fa3b6aa88268,machsuite_xilinx_post_frontend,gemm,xczu9eg-ffvb1156-2-i,10.0,2023.1.1,,7.357000000000001e-09,131368.0,0.0009664743760000002,131368.0,0.0009664743760000002,131368.0,0.0009664743760000002,8213,17719,28,0,0
gemm_ncubed_opt_4a6fc3b79da17dcaafc2886c33394cc5,machsuite_xilinx_post_frontend,gemm,xczu9eg-ffvb1156-2-i,10.0,2023.1.1,,7.298e-09,1355777.0,0.009894460546000001,1355777.0,0.009894460546000001,1355777.0,0.009894460546000001,2869,3862,14,0,0
gemm_ncubed_opt_6476ed1f4fec3482fe4fde269fde4727,machsuite_xilinx_post_frontend,gemm,xczu9eg-ffvb1156-2-i,10.0,2023.1.1,,7.298e-09,1355777.0,0.009894460546000001,1355777.0,0.009894460546000001,1355777.0,0.009894460546000001,3493,3920,14,0,0
gemm_ncubed_opt_687e158af24a06be124be2368cfae682,machsuite_xilinx_post_frontend,gemm,xczu9eg-ffvb1156-2-i,10.0,2023.1.1,,7.357000000000001e-09,1355777.0,0.009974451389000001,1355777.0,0.009974451389000001,1355777.0,0.009974451389000001,5702,6819,14,0,0
gemm_ncubed_opt_6bb9a674b083d49aab9e4d8c68754353,machsuite_xilinx_post_frontend,gemm,xczu9eg-ffvb1156-2-i,10.0,2023.1.1,,7.042e-09,1355777.0,0.009547381634,1355777.0,0.009547381634,1355777.0,0.009547381634,1359,1348,14,0,0
gemm_ncubed_opt_7a0e528ea9660d6a71981d2475478a6b,machsuite_xilinx_post_frontend,gemm,xczu9eg-ffvb1156-2-i,10.0,2023.1.1,,7.042e-09,1355777.0,0.009547381634,1355777.0,0.009547381634,1355777.0,0.009547381634,2121,1752,14,0,0
gemm_ncubed_opt_8675c731fbdf4bdb7aff99a1ac8eed13,machsuite_xilinx_post_frontend,gemm,xczu9eg-ffvb1156-2-i,10.0,2023.1.1,,7.042e-09,1355777.0,0.009547381634,1355777.0,0.009547381634,1355777.0,0.009547381634,1635,1750,14,0,0
gemm_ncubed_opt_8856e33cf4638eddd65764e897663af3,machsuite_xilinx_post_frontend,gemm,xczu9eg-ffvb1156-2-i,10.0,2023.1.1,,7.042e-09,1355777.0,0.009547381634,1355777.0,0.009547381634,1355777.0,0.009547381634,1408,1350,14,0,0
gemm_ncubed_opt_936674f17442b95a0974a3b9c0f7b724,machsuite_xilinx_post_frontend,gemm,xczu9eg-ffvb1156-2-i,10.0,2023.1.1,,7.475e-09,33032.0,0.0002469142,33032.0,0.0002469142,33032.0,0.0002469142,27151,70085,112,0,0
gemm_ncubed_opt_96463f951b651910401325564cacd7c4,machsuite_xilinx_post_frontend,gemm,xczu9eg-ffvb1156-2-i,10.0,2023.1.1,,7.357000000000001e-09,131368.0,0.0009664743760000002,131368.0,0.0009664743760000002,131368.0,0.0009664743760000002,10786,18241,28,0,0
gemm_ncubed_opt_9d5bb45535928f410c1ac21c39d8a98b,machsuite_xilinx_post_frontend,gemm,xczu9eg-ffvb1156-2-i,10.0,2023.1.1,,7.357000000000001e-09,1355777.0,0.009974451389000001,1355777.0,0.009974451389000001,1355777.0,0.009974451389000001,3769,6441,14,0,0
gemm_ncubed_opt_a2f1508039e02a9b8fe79ae82e8deb1b,machsuite_xilinx_post_frontend,gemm,xczu9eg-ffvb1156-2-i,10.0,2023.1.1,,7.515e-09,131339.0,0.000987012585,131339.0,0.000987012585,131339.0,0.000987012585,12854,21979,28,0,0
gemm_ncubed_opt_a5946bf159c99feb3fe80e09e269f400,machsuite_xilinx_post_frontend,gemm,xczu9eg-ffvb1156-2-i,10.0,2023.1.1,,7.357000000000001e-09,1355777.0,0.009974451389000001,1355777.0,0.009974451389000001,1355777.0,0.009974451389000001,3708,5021,14,0,0
gemm_ncubed_opt_bad2ba1f6b202284722b1d261d947f24,machsuite_xilinx_post_frontend,gemm,xczu9eg-ffvb1156-2-i,10.0,2023.1.1,,7.042e-09,1355777.0,0.009547381634,1355777.0,0.009547381634,1355777.0,0.009547381634,2376,2472,14,0,0
gemm_ncubed_opt_d30eb6df3a3d4923da3dacf5c127fcd1,machsuite_xilinx_post_frontend,gemm,xczu9eg-ffvb1156-2-i,10.0,2023.1.1,,7.357000000000001e-09,131368.0,0.0009664743760000002,131368.0,0.0009664743760000002,131368.0,0.0009664743760000002,6453,10643,28,0,0
gemm_ncubed_opt_ec3eaa3e92da5a69a42caac3eda570a1,machsuite_xilinx_post_frontend,gemm,xczu9eg-ffvb1156-2-i,10.0,2023.1.1,,7.357000000000001e-09,33064.0,0.00024325184800000002,33064.0,0.00024325184800000002,33064.0,0.00024325184800000002,23634,44797,112,0,0
gemm_ncubed_opt_f68f2a1fc6608b97371844ac467c94ce,machsuite_xilinx_post_frontend,gemm,xczu9eg-ffvb1156-2-i,10.0,2023.1.1,,7.335000000000001e-09,131337.0,0.0009633568950000001,131337.0,0.0009633568950000001,131337.0,0.0009633568950000001,9628,29810,28,0,0
md_grid_opt_174688a84d23d78e075a9e30939cf3ef,machsuite_xilinx_post_frontend,md,xczu9eg-ffvb1156-2-i,10.0,2023.1.1,,7.672e-09,11009.0,8.446104800000001e-05,1681153.0,0.012897805816000002,37368065.0,0.28668779468000005,19767,21843,98,0,0
md_grid_opt_1a59146583a31a542d04a0794e2b1c83,machsuite_xilinx_post_frontend,md,xczu9eg-ffvb1156-2-i,10.0,2023.1.1,,7.042e-09,6401.0,4.5075842e-05,1261953.0,0.008886673026,28574081.0,0.201218678402,7770,7820,110,0,0
md_grid_opt_2ae707b09a89d8f8cad2ee78b9ac4e87,machsuite_xilinx_post_frontend,md,xczu9eg-ffvb1156-2-i,10.0,2023.1.1,,7.848e-09,16001.0,0.000125575848,1999233.0,0.015689980584,42467713.0,0.33328661162400003,19820,30251,122,0,0
md_grid_opt_2c7d5246aad51c42f919f75944fdde61,machsuite_xilinx_post_frontend,md,xczu9eg-ffvb1156-2-i,10.0,2023.1.1,,7.298e-09,1281.0,9.348738e-06,5856001.0,0.042737095298,354771201.0,2.589120224898,8031,6662,86,0,0
md_grid_opt_56e4b2baf587e2338aeea0a98ac7872d,machsuite_xilinx_post_frontend,md,xczu9eg-ffvb1156-2-i,10.0,2023.1.1,,7.357000000000001e-09,6721.0,4.944639700000001e-05,5916929.0,0.043530846653000006,356663553.0,2.623973759421,37680,23754,86,0,0
md_grid_opt_59da47ffd895658d1efb23dfd7f43a26,machsuite_xilinx_post_frontend,md,xczu9eg-ffvb1156-2-i,10.0,2023.1.1,,7.791e-09,26305.0,0.00020494225500000002,3318145.0,0.025851667695,53084545.0,0.413581690095,29832,49581,125,0,0
md_grid_opt_5cf9481f3385d6825d4ee0cad73d0e2c,machsuite_xilinx_post_frontend,md,xczu9eg-ffvb1156-2-i,10.0,2023.1.1,,7.445000000000001e-09,8577.0,6.385576500000001e-05,1533697.0,0.011418374165000002,35008769.0,0.26064028520500004,14647,16550,95,0,0
md_grid_opt_5d101e23cae6834cadfa4a8d401ce003,machsuite_xilinx_post_frontend,md,xczu9eg-ffvb1156-2-i,10.0,2023.1.1,,7.475e-09,3649.0,2.7276275000000003e-05,5905153.0,0.044141018675000004,356344065.0,2.6636718858750004,12577,12092,86,0,0
md_grid_opt_6c92f57b4926240374f242160c6e6c70,machsuite_xilinx_post_frontend,md,xczu9eg-ffvb1156-2-i,10.0,2023.1.1,,7.515e-09,12865.0,9.6680475e-05,11839745.0,0.088975683675,356921601.0,2.682265831515,23490,34595,86,0,0
md_grid_opt_6cb3df44bd16ced0d0fe0a16f8584595,machsuite_xilinx_post_frontend,md,xczu9eg-ffvb1156-2-i,10.0,2023.1.1,,7.445000000000001e-09,8513.0,6.3379285e-05,1532289.0,0.011407891605000001,34996609.0,0.260549754005,12628,17614,119,0,0
md_grid_opt_7403f646f66ae27cbda9366056b9eaa2,machsuite_xilinx_post_frontend,md,xczu9eg-ffvb1156-2-i,10.0,2023.1.1,,7.445000000000001e-09,7425.0,5.5279125000000006e-05,1468161.0,0.010930458645,33960193.0,0.25283363688500005,9965,12891,86,0,0
md_grid_opt_7f04b7802c22c2b919fc91002f5bfa8b,machsuite_xilinx_post_frontend,md,xczu9eg-ffvb1156-2-i,10.0,2023.1.1,,7.357000000000001e-09,2049.0,1.5074493000000002e-05,5887745.0,0.04331613996500001,355803393.0,2.6176455623010004,15278,9512,86,0,0
md_grid_opt_81fb9d232d686be93761610ac988fc8d,machsuite_xilinx_post_frontend,md,xczu9eg-ffvb1156-2-i,10.0,2023.1.1,,7.357000000000001e-09,2049.0,1.5074493000000002e-05,5887745.0,0.04331613996500001,355803393.0,2.6176455623010004,9918,8539,86,0,0
md_grid_opt_9b10103a93b72b85cbeb3ae80a689a6b,machsuite_xilinx_post_frontend,md,xczu9eg-ffvb1156-2-i,10.0,2023.1.1,,7.848e-09,16065.0,0.00012607812000000002,2000641.0,0.015701030568,42479873.0,0.333382043304,26843,26566,98,0,0
md_grid_opt_a56298bc64b1ebc88e1534cf3bcfc5fb,machsuite_xilinx_post_frontend,md,xczu9eg-ffvb1156-2-i,10.0,2023.1.1,,7.357000000000001e-09,6721.0,4.944639700000001e-05,5916929.0,0.043530846653000006,356663553.0,2.623973759421,16198,19601,86,0,0
md_grid_opt_ab755252e46e11b58c8f12f09a9f8c95,machsuite_xilinx_post_frontend,md,xczu9eg-ffvb1156-2-i,10.0,2023.1.1,,7.791e-09,26369.0,0.000205440879,3319553.0,0.025862637423,53096705.0,0.413676428655,43183,43049,101,0,0
md_grid_opt_c13629ab2dc07d9bf47f9abaf99934f5,machsuite_xilinx_post_frontend,md,xczu9eg-ffvb1156-2-i,10.0,2023.1.1,,7.475e-09,3649.0,2.7276275000000003e-05,5905153.0,0.044141018675000004,356344065.0,2.6636718858750004,23356,14258,86,0,0
md_grid_opt_dd5cc93d370f35cb47e98cead4e4ae88,machsuite_xilinx_post_frontend,md,xczu9eg-ffvb1156-2-i,10.0,2023.1.1,,7.042e-09,6465.0,4.552653e-05,1263361.0,0.008896588162,28586241.0,0.201304309122,9019,6954,86,0,0
md_grid_opt_e7339a0c849b3d6605240a05c2615495,machsuite_xilinx_post_frontend,md,xczu9eg-ffvb1156-2-i,10.0,2023.1.1,,7.298e-09,1281.0,9.348738e-06,5856001.0,0.042737095298,354771201.0,2.589120224898,10481,7133,86,0,0
md_grid_opt_ee954bb50d94118d194ab34cc3c8ba5c,machsuite_xilinx_post_frontend,md,xczu9eg-ffvb1156-2-i,10.0,2023.1.1,,7.672e-09,10945.0,8.397004000000001e-05,1679745.0,0.012887003640000002,37355905.0,0.28659450316,15910,23861,122,0,0
md_grid_opt_f2bb3282e381792bba56591c1a426fd2,machsuite_xilinx_post_frontend,md,xczu9eg-ffvb1156-2-i,10.0,2023.1.1,,7.445000000000001e-09,7361.0,5.4802645000000006e-05,1466753.0,0.010919976085000001,33948033.0,0.252743105685,8769,13667,110,0,0
md_knn_opt_03ada8057c9f8702eb5f2444c1303c07,machsuite_xilinx_post_frontend,md_kernel,xczu9eg-ffvb1156-2-i,10.0,2023.1.1,,7.701e-09,44033.0,0.00033909813300000004,44033.0,0.00033909813300000004,44033.0,0.00033909813300000004,8237,11956,62,0,0
md_knn_opt_043e15d06e35f57ef93d947a060ac65f,machsuite_xilinx_post_frontend,md_kernel,xczu9eg-ffvb1156-2-i,10.0,2023.1.1,,7.445000000000001e-09,43777.0,0.000325919765,43777.0,0.000325919765,43777.0,0.000325919765,5873,8341,45,0,0
md_knn_opt_12f96724a02d0478ae8c3e4f0737373a,machsuite_xilinx_post_frontend,md_kernel,xczu9eg-ffvb1156-2-i,10.0,2023.1.1,,7.701e-09,44033.0,0.00033909813300000004,44033.0,0.00033909813300000004,44033.0,0.00033909813300000004,11187,11822,62,0,0
md_knn_opt_1939b71903d87059f11af9ca17776bc7,machsuite_xilinx_post_frontend,md_kernel,xczu9eg-ffvb1156-2-i,10.0,2023.1.1,,7.042e-09,2465.0,1.7358530000000002e-05,2465.0,1.7358530000000002e-05,2465.0,1.7358530000000002e-05,24492,42805,268,0,0
md_knn_opt_23698e1ec5880922ae52a12a980fae59,machsuite_xilinx_post_frontend,md_kernel,xczu9eg-ffvb1156-2-i,10.0,2023.1.1,,7.731e-09,2251.0,1.7402481e-05,2251.0,1.7402481e-05,2251.0,1.7402481e-05,40084,78119,296,0,0
md_knn_opt_2b793528f1081b2a225b75789c666d65,machsuite_xilinx_post_frontend,md_kernel,xczu9eg-ffvb1156-2-i,10.0,2023.1.1,,7.416000000000001e-09,43777.0,0.00032465023200000005,43777.0,0.00032465023200000005,43777.0,0.00032465023200000005,4176,6268,42,0,0
md_knn_opt_2c58f35b362399257b368b8109b88652,machsuite_xilinx_post_frontend,md_kernel,xczu9eg-ffvb1156-2-i,10.0,2023.1.1,,7.445000000000001e-09,43777.0,0.000325919765,43777.0,0.000325919765,43777.0,0.000325919765,5589,8383,45,0,0
md_knn_opt_32ad564627d87b283965fb0f47fa0cea,machsuite_xilinx_post_frontend,md_kernel,xczu9eg-ffvb1156-2-i,10.0,2023.1.1,,7.731e-09,2329.0,1.8005499e-05,2329.0,1.8005499e-05,2329.0,1.8005499e-05,36951,78284,282,0,0
md_knn_opt_3987488b7776b0efeb3db7a17c9000c0,machsuite_xilinx_post_frontend,md_kernel,xczu9eg-ffvb1156-2-i,10.0,2023.1.1,,7.042e-09,2465.0,1.7358530000000002e-05,2465.0,1.7358530000000002e-05,2465.0,1.7358530000000002e-05,26299,42780,268,0,0
md_knn_opt_50ab6f5def149e2683f51a9a3b9eec13,machsuite_xilinx_post_frontend,md_kernel,xczu9eg-ffvb1156-2-i,10.0,2023.1.1,,7.445000000000001e-09,2336.0,1.7391520000000003e-05,2336.0,1.7391520000000003e-05,2336.0,1.7391520000000003e-05,29687,58147,282,0,0
md_knn_opt_5dd2483ccbd1b3ba538ed114cf7ccdc9,machsuite_xilinx_post_frontend,md_kernel,xczu9eg-ffvb1156-2-i,10.0,2023.1.1,,7.701e-09,44033.0,0.00033909813300000004,44033.0,0.00033909813300000004,44033.0,0.00033909813300000004,8732,11807,62,0,0
md_knn_opt_6646246189f4da04954c0191ab4ef065,machsuite_xilinx_post_frontend,md_kernel,xczu9eg-ffvb1156-2-i,10.0,2023.1.1,,7.43e-09,43777.0,0.00032526311,43777.0,0.00032526311,43777.0,0.00032526311,5410,6095,42,0,0
md_knn_opt_84ebdbf133e9d0ec765b3c7c74c9bbd3,machsuite_xilinx_post_frontend,md_kernel,xczu9eg-ffvb1156-2-i,10.0,2023.1.1,,7.701e-09,44033.0,0.00033909813300000004,44033.0,0.00033909813300000004,44033.0,0.00033909813300000004,9500,11820,62,0,0
md_knn_opt_870171da3de6dcf9ead094e5663eb1a7,machsuite_xilinx_post_frontend,md_kernel,xczu9eg-ffvb1156-2-i,10.0,2023.1.1,,7.445000000000001e-09,2336.0,1.7391520000000003e-05,2336.0,1.7391520000000003e-05,2336.0,1.7391520000000003e-05,32851,57972,282,0,0
md_knn_opt_9f8c4a8cb5f951457e84b7d3cc314b76,machsuite_xilinx_post_frontend,md_kernel,xczu9eg-ffvb1156-2-i,10.0,2023.1.1,,7.416000000000001e-09,43777.0,0.00032465023200000005,43777.0,0.00032465023200000005,43777.0,0.00032465023200000005,4732,6098,42,0,0
md_knn_opt_bf2654aba7add94a5f8d65646c1876ba,machsuite_xilinx_post_frontend,md_kernel,xczu9eg-ffvb1156-2-i,10.0,2023.1.1,,7.042e-09,2465.0,1.7358530000000002e-05,2465.0,1.7358530000000002e-05,2465.0,1.7358530000000002e-05,28577,42795,268,0,0
md_knn_opt_d6790a5094b0e3e971a7f707f6bb16b8,machsuite_xilinx_post_frontend,md_kernel,xczu9eg-ffvb1156-2-i,10.0,2023.1.1,,7.445000000000001e-09,2336.0,1.7391520000000003e-05,2336.0,1.7391520000000003e-05,2336.0,1.7391520000000003e-05,37190,57984,282,0,0
md_knn_opt_ea97a3404cf810d4c5eaa2ab7e9ea3ea,machsuite_xilinx_post_frontend,md_kernel,xczu9eg-ffvb1156-2-i,10.0,2023.1.1,,7.848e-09,2330.0,1.828584e-05,2330.0,1.828584e-05,2330.0,1.828584e-05,41379,91674,282,0,0
md_knn_opt_f066cc335d50985991b2b4a11d9604bf,machsuite_xilinx_post_frontend,md_kernel,xczu9eg-ffvb1156-2-i,10.0,2023.1.1,,7.416000000000001e-09,43777.0,0.00032465023200000005,43777.0,0.00032465023200000005,43777.0,0.00032465023200000005,4364,6086,42,0,0
nw_opt_038d7773678e139de83926a65b242945,machsuite_xilinx_post_frontend,needwun,xczu9eg-ffvb1156-2-i,10.0,2023.1.1,,6.847000000000001e-09,,,,,,,13968,2488,0,0,0
nw_opt_08f7663c0aa4d336d0c237008d37da1a,machsuite_xilinx_post_frontend,needwun,xczu9eg-ffvb1156-2-i,10.0,2023.1.1,,6.559e-09,,,,,,,29418,6357,0,0,0
nw_opt_1e411d2b1884a6930c851ada63b3f171,machsuite_xilinx_post_frontend,needwun,xczu9eg-ffvb1156-2-i,10.0,2023.1.1,,6.847000000000001e-09,,,,,,,23520,4163,0,0,0
nw_opt_1edd21caf60786f4d7d6af1a7d21e81a,machsuite_xilinx_post_frontend,needwun,xczu9eg-ffvb1156-2-i,10.0,2023.1.1,,7.2070000000000004e-09,,,,,,,19662,1957,0,0,0
nw_opt_1effb447272967eaf199ab7e63a7c7da,machsuite_xilinx_post_frontend,needwun,xczu9eg-ffvb1156-2-i,10.0,2023.1.1,,6.559e-09,,,,,,,19352,4236,0,0,0
nw_opt_271e89488f20c21f681e6f8f8abfd72d,machsuite_xilinx_post_frontend,needwun,xczu9eg-ffvb1156-2-i,10.0,2023.1.1,,6.847000000000001e-09,,,,,,,5954,1345,0,0,0
nw_opt_2e3c4d2bc2a2d3a45e9ab79c1fe35e1a,machsuite_xilinx_post_frontend,needwun,xczu9eg-ffvb1156-2-i,10.0,2023.1.1,,7.2070000000000004e-09,,,,,,,14097,1611,0,0,0
nw_opt_32b9cd98b1044b8ac72b7ede41f908c2,machsuite_xilinx_post_frontend,needwun,xczu9eg-ffvb1156-2-i,10.0,2023.1.1,,6.847000000000001e-09,,,,,,,6065,1279,0,0,0
nw_opt_32ed31f5bbe13082c787ddbd93b5f19b,machsuite_xilinx_post_frontend,needwun,xczu9eg-ffvb1156-2-i,10.0,2023.1.1,,6.847000000000001e-09,,,,,,,4023,796,0,0,0
nw_opt_377f351b68596748e1e8505ce6a90314,machsuite_xilinx_post_frontend,needwun,xczu9eg-ffvb1156-2-i,10.0,2023.1.1,,7.011000000000001e-09,,,,,,,22257,4347,0,0,0
nw_opt_394f8e7d2db7c5f6c78f5ec7cf5fcc6f,machsuite_xilinx_post_frontend,needwun,xczu9eg-ffvb1156-2-i,10.0,2023.1.1,,6.559e-09,,,,,,,9744,1468,0,0,0
nw_opt_3c5ff4731a8ed3412ce6a49135227830,machsuite_xilinx_post_frontend,needwun,xczu9eg-ffvb1156-2-i,10.0,2023.1.1,,7.2070000000000004e-09,,,,,,,19134,2460,0,0,0
nw_opt_475d8b7df4d527746e5f74206679d776,machsuite_xilinx_post_frontend,needwun,xczu9eg-ffvb1156-2-i,10.0,2023.1.1,,7.011000000000001e-09,,,,,,,8588,1154,0,0,0
nw_opt_533e36fd93c8dd892c02c9db1b0ef7da,machsuite_xilinx_post_frontend,needwun,xczu9eg-ffvb1156-2-i,10.0,2023.1.1,,6.847000000000001e-09,,,,,,,6965,1405,0,0,0
nw_opt_54ac1941c3dfd79b74f8b8004609ce77,machsuite_xilinx_post_frontend,needwun,xczu9eg-ffvb1156-2-i,10.0,2023.1.1,,7.011000000000001e-09,,,,,,,10784,1157,0,0,0
nw_opt_5d8f65a71bfcfc5bb65fd1d4c1fa28d3,machsuite_xilinx_post_frontend,needwun,xczu9eg-ffvb1156-2-i,10.0,2023.1.1,,6.559e-09,,,,,,,30084,6503,0,0,0
nw_opt_65f627ce09668df312e49bb6c7c4d748,machsuite_xilinx_post_frontend,needwun,xczu9eg-ffvb1156-2-i,10.0,2023.1.1,,7.011000000000001e-09,,,,,,,19766,2018,0,0,0
nw_opt_68079e408604287125cc61e96e6c2bd6,machsuite_xilinx_post_frontend,needwun,xczu9eg-ffvb1156-2-i,10.0,2023.1.1,,7.2070000000000004e-09,,,,,,,18841,889,0,0,0
nw_opt_68f0a75b2e8d5d4a446c20e84e0a8c99,machsuite_xilinx_post_frontend,needwun,xczu9eg-ffvb1156-2-i,10.0,2023.1.1,,7.011000000000001e-09,,,,,,,21630,4232,0,0,0
nw_opt_7f72a0e7c21dde39e6a83d567bfd87b1,machsuite_xilinx_post_frontend,needwun,xczu9eg-ffvb1156-2-i,10.0,2023.1.1,,6.559e-09,,,,,,,5089,1091,0,0,0
nw_opt_843ddc231b5dadc33489f41d937a24d5,machsuite_xilinx_post_frontend,needwun,xczu9eg-ffvb1156-2-i,10.0,2023.1.1,,6.559e-09,,,,,,,10536,2126,0,0,0
nw_opt_91a2b1d7119996299634a3967335bb6e,machsuite_xilinx_post_frontend,needwun,xczu9eg-ffvb1156-2-i,10.0,2023.1.1,,6.559e-09,,,,,,,10071,2250,0,0,0
nw_opt_b3df326cda504f37ed56248f23517a87,machsuite_xilinx_post_frontend,needwun,xczu9eg-ffvb1156-2-i,10.0,2023.1.1,,6.4200000000000006e-09,,,,,,,3877,1014,0,0,0
nw_opt_b4f652091dee2e703f676bd11b08354e,machsuite_xilinx_post_frontend,needwun,xczu9eg-ffvb1156-2-i,10.0,2023.1.1,,6.559e-09,,,,,,,9086,2070,0,0,0
nw_opt_b51e47d9f67ccf0e696569d33ed468f3,machsuite_xilinx_post_frontend,needwun,xczu9eg-ffvb1156-2-i,10.0,2023.1.1,,7.2070000000000004e-09,,,,,,,18302,3033,0,0,0
nw_opt_be18acecbf0705a233b2dbe692f3ae33,machsuite_xilinx_post_frontend,needwun,xczu9eg-ffvb1156-2-i,10.0,2023.1.1,,6.847000000000001e-09,,,,,,,6465,1146,0,0,0
nw_opt_c607c1c0e23e0b5cd4f6a407352e3aa3,machsuite_xilinx_post_frontend,needwun,xczu9eg-ffvb1156-2-i,10.0,2023.1.1,,7.2070000000000004e-09,,,,,,,23034,1620,0,0,0
nw_opt_df8f0849cf4531080c19c44b4807d7fe,machsuite_xilinx_post_frontend,needwun,xczu9eg-ffvb1156-2-i,10.0,2023.1.1,,6.559e-09,,,,,,,4599,1110,0,0,0
nw_opt_dfc3778f638aa7ff9ca7e361dea9a255,machsuite_xilinx_post_frontend,needwun,xczu9eg-ffvb1156-2-i,10.0,2023.1.1,,6.559e-09,,,,,,,2989,712,0,0,0
nw_opt_eff3de9478a4fd4121dad598ee8ea7d4,machsuite_xilinx_post_frontend,needwun,xczu9eg-ffvb1156-2-i,10.0,2023.1.1,,6.847000000000001e-09,,,,,,,3620,493,0,0,0
sort_merge_opt_0dee58022f00ea52abed9651fa3aed59,machsuite_xilinx_post_frontend,ms_mergesort,xczu9eg-ffvb1156-2-i,10.0,2023.1.1,,6.7380000000000005e-09,,,,,,,2800,947,0,4,0
sort_merge_opt_1e212271c7f4597ef4bbae84aee72b91,machsuite_xilinx_post_frontend,ms_mergesort,xczu9eg-ffvb1156-2-i,10.0,2023.1.1,,5.539e-09,,,,,,,2173,1049,0,4,0
sort_merge_opt_22626228db848cb9cb7f47c35ce6388c,machsuite_xilinx_post_frontend,ms_mergesort,xczu9eg-ffvb1156-2-i,10.0,2023.1.1,,6.367e-09,,,,,,,3196,1537,0,4,0
sort_merge_opt_27d6058c0143bd8e78545e3be97c73a7,machsuite_xilinx_post_frontend,ms_mergesort,xczu9eg-ffvb1156-2-i,10.0,2023.1.1,,5.539e-09,,,,,,,2173,1049,0,4,0
sort_merge_opt_2ac10fa8750683857c8c8f482ba77d0b,machsuite_xilinx_post_frontend,ms_mergesort,xczu9eg-ffvb1156-2-i,10.0,2023.1.1,,6.426000000000001e-09,,,,,,,5068,2329,0,4,0
sort_merge_opt_38687b030e79a0375948e56b8b796dd7,machsuite_xilinx_post_frontend,ms_mergesort,xczu9eg-ffvb1156-2-i,10.0,2023.1.1,,6.111e-09,,,,,,,2102,1142,0,4,0
sort_merge_opt_3c53f8c18a1a89a93bdd55c1bbf5154c,machsuite_xilinx_post_frontend,ms_mergesort,xczu9eg-ffvb1156-2-i,10.0,2023.1.1,,6.111e-09,,,,,,,1617,942,0,4,0
sort_merge_opt_6d33fe028764856d622804c3631c7c52,machsuite_xilinx_post_frontend,ms_mergesort,xczu9eg-ffvb1156-2-i,10.0,2023.1.1,,6.544e-09,,,,,,,8726,3912,0,4,0
sort_merge_opt_750aa3aa7f33b182f908c10293046102,machsuite_xilinx_post_frontend,ms_mergesort,xczu9eg-ffvb1156-2-i,10.0,2023.1.1,,6.367e-09,,,,,,,3196,1537,0,4,0
sort_merge_opt_799687ed11d7ce5415cdf4a71788bd6e,machsuite_xilinx_post_frontend,ms_mergesort,xczu9eg-ffvb1156-2-i,10.0,2023.1.1,,6.367e-09,,,,,,,3065,1536,0,4,0
sort_merge_opt_8e8326b35b0788fa8a8828bfb08cc042,machsuite_xilinx_post_frontend,ms_mergesort,xczu9eg-ffvb1156-2-i,10.0,2023.1.1,,6.404000000000001e-09,,,,,,,17135,7083,0,4,0
sort_merge_opt_8f37aeb3f19752e891d8020d616969b7,machsuite_xilinx_post_frontend,ms_mergesort,xczu9eg-ffvb1156-2-i,10.0,2023.1.1,,6.404000000000001e-09,,,,,,,17135,7083,0,4,0
sort_merge_opt_91aaba51605a0aacd84c8f1a808d5367,machsuite_xilinx_post_frontend,ms_mergesort,xczu9eg-ffvb1156-2-i,10.0,2023.1.1,,5.539e-09,,,,,,,1914,860,0,4,0
sort_merge_opt_93dbc83444db1d8f1e60acae8ee1ac52,machsuite_xilinx_post_frontend,ms_mergesort,xczu9eg-ffvb1156-2-i,10.0,2023.1.1,,4.672e-09,,,,,,,8637,3762,0,4,0
sort_merge_opt_a5a802d6a1d639f2b59caef6cdb5cbf6,machsuite_xilinx_post_frontend,ms_mergesort,xczu9eg-ffvb1156-2-i,10.0,2023.1.1,,4.5320000000000005e-09,,,,,,,16169,6928,0,4,0
sort_merge_opt_a858d5d0180da769af88dea0bdf3caa4,machsuite_xilinx_post_frontend,ms_mergesort,xczu9eg-ffvb1156-2-i,10.0,2023.1.1,,5.539e-09,,,,,,,2389,1050,0,4,0
sort_merge_opt_a8ff7b727c4bf3dee8917fd97ecc2255,machsuite_xilinx_post_frontend,ms_mergesort,xczu9eg-ffvb1156-2-i,10.0,2023.1.1,,6.111e-09,,,,,,,1617,942,0,4,0
sort_merge_opt_a9b270b786a758c27531e27a80f392a5,machsuite_xilinx_post_frontend,ms_mergesort,xczu9eg-ffvb1156-2-i,10.0,2023.1.1,,3.923000000000001e-09,,,,,,,2800,1288,0,4,0
sort_merge_opt_b114a82ac9ba22aed784eb6d60562bc3,machsuite_xilinx_post_frontend,ms_mergesort,xczu9eg-ffvb1156-2-i,10.0,2023.1.1,,6.404000000000001e-09,,,,,,,16354,7080,0,4,0
sort_merge_opt_b545a9d60b62345ada89f7612311a25f,machsuite_xilinx_post_frontend,ms_mergesort,xczu9eg-ffvb1156-2-i,10.0,2023.1.1,,6.111e-09,,,,,,,2398,945,0,4,0
sort_merge_opt_b61df4ecc1c7ed90411473c1e9da7843,machsuite_xilinx_post_frontend,ms_mergesort,xczu9eg-ffvb1156-2-i,10.0,2023.1.1,,6.426000000000001e-09,,,,,,,4937,2328,0,4,0
sort_merge_opt_b8f36c4801efcba1254d6c4f44b978d3,machsuite_xilinx_post_frontend,ms_mergesort,xczu9eg-ffvb1156-2-i,10.0,2023.1.1,,5.539e-09,,,,,,,1567,858,0,4,0
sort_merge_opt_c162b6793b217195d3151c006434b16c,machsuite_xilinx_post_frontend,ms_mergesort,xczu9eg-ffvb1156-2-i,10.0,2023.1.1,,5.795e-09,,,,,,,3766,1443,0,4,0
sort_merge_opt_d1d98ebd232d657dd70dc1dfd7b9ab02,machsuite_xilinx_post_frontend,ms_mergesort,xczu9eg-ffvb1156-2-i,10.0,2023.1.1,,6.7380000000000005e-09,,,,,,,10569,2215,0,8,0
sort_merge_opt_d57d1226eb7762f893067d2792a42667,machsuite_xilinx_post_frontend,ms_mergesort,xczu9eg-ffvb1156-2-i,10.0,2023.1.1,,6.367e-09,,,,,,,3196,1537,0,4,0
sort_merge_opt_d9bad536f405c0603bb97e72800526e4,machsuite_xilinx_post_frontend,ms_mergesort,xczu9eg-ffvb1156-2-i,10.0,2023.1.1,,6.111e-09,,,,,,,1748,943,0,4,0
sort_merge_opt_dc03e745d724d9837a9c120cab482d3f,machsuite_xilinx_post_frontend,ms_mergesort,xczu9eg-ffvb1156-2-i,10.0,2023.1.1,,3.667e-09,,,,,,,1616,710,0,4,0
sort_merge_opt_dfa6c95bc9adc97f10c486705468cc8e,machsuite_xilinx_post_frontend,ms_mergesort,xczu9eg-ffvb1156-2-i,10.0,2023.1.1,,6.367e-09,,,,,,,3196,1537,0,4,0
sort_radix_opt_0404d896f385460229de976c9b80c5f6,machsuite_xilinx_post_frontend,ss_sort,xczu9eg-ffvb1156-2-i,10.0,2023.1.1,,7.112e-09,116145.0,0.0008260232400000001,116145.0,0.0008260232400000001,116145.0,0.0008260232400000001,38382,21904,0,0,0
sort_radix_opt_103cc7c7edfc44a7ed6a895fb4ab0e36,machsuite_xilinx_post_frontend,ss_sort,xczu9eg-ffvb1156-2-i,10.0,2023.1.1,,6.0960000000000005e-09,230001.0,0.0014020860960000001,230001.0,0.0014020860960000001,230001.0,0.0014020860960000001,24349,13690,0,0,0
sort_radix_opt_153205c6da779047888ec965e3b32a25,machsuite_xilinx_post_frontend,ss_sort,xczu9eg-ffvb1156-2-i,10.0,2023.1.1,,3.862e-09,231793.0,0.0008951845660000001,231793.0,0.0008951845660000001,231793.0,0.0008951845660000001,7577,3415,0,0,0
sort_radix_opt_196be84b23eeece67a207bc559824a1a,machsuite_xilinx_post_frontend,ss_sort,xczu9eg-ffvb1156-2-i,10.0,2023.1.1,,3.862e-09,231793.0,0.0008951845660000001,231793.0,0.0008951845660000001,231793.0,0.0008951845660000001,20073,7513,0,0,0
sort_radix_opt_45df591a4bac8bd66cb869ae83b213e8,machsuite_xilinx_post_frontend,ss_sort,xczu9eg-ffvb1156-2-i,10.0,2023.1.1,,6.538e-09,132577.0,0.0008667884260000001,132577.0,0.0008667884260000001,132577.0,0.0008667884260000001,19837,11657,0,0,0
sort_radix_opt_4fc722156ffd8dae82eef74fd1641c1a,machsuite_xilinx_post_frontend,ss_sort,xczu9eg-ffvb1156-2-i,10.0,2023.1.1,,5.301000000000001e-09,165265.0,0.0008760697650000001,165265.0,0.0008760697650000001,165265.0,0.0008760697650000001,6385,3253,0,0,0
sort_radix_opt_55e7d777589d8f5fe857cf370c83bb59,machsuite_xilinx_post_frontend,ss_sort,xczu9eg-ffvb1156-2-i,10.0,2023.1.1,,4.2110000000000005e-09,168369.0,0.000709001859,168369.0,0.000709001859,168369.0,0.000709001859,13118,2568,0,0,0
sort_radix_opt_572fd3dea672735e19a23dabd8497723,machsuite_xilinx_post_frontend,ss_sort,xczu9eg-ffvb1156-2-i,10.0,2023.1.1,,6.538e-09,99793.0,0.0006524466340000001,99793.0,0.0006524466340000001,99793.0,0.0006524466340000001,29015,15400,0,0,0
sort_radix_opt_5bdef7791c48585dd2103c03c31b1024,machsuite_xilinx_post_frontend,ss_sort,xczu9eg-ffvb1156-2-i,10.0,2023.1.1,,6.538e-09,148961.0,0.000973907018,148961.0,0.000973907018,148961.0,0.000973907018,51066,28527,0,0,0
sort_radix_opt_63f378b39375eca8e49d951c22754d4e,machsuite_xilinx_post_frontend,ss_sort,xczu9eg-ffvb1156-2-i,10.0,2023.1.1,,6.538e-09,132561.0,0.000866683818,132561.0,0.000866683818,132561.0,0.000866683818,18293,8649,0,0,0
sort_radix_opt_8ccb160a533ca124c875dd45c71231f9,machsuite_xilinx_post_frontend,ss_sort,xczu9eg-ffvb1156-2-i,10.0,2023.1.1,,5.301000000000001e-09,132561.0,0.0007027058610000001,132561.0,0.0007027058610000001,132561.0,0.0007027058610000001,13665,5669,0,0,0
sort_radix_opt_93f5df82785b105d64edb2c21cfcbe99,machsuite_xilinx_post_frontend,ss_sort,xczu9eg-ffvb1156-2-i,10.0,2023.1.1,,6.538e-09,132561.0,0.000866683818,132561.0,0.000866683818,132561.0,0.000866683818,27084,11279,0,0,0
sort_radix_opt_9feb82cdf3e51b7d0ff4236721eda6ec,machsuite_xilinx_post_frontend,ss_sort,xczu9eg-ffvb1156-2-i,10.0,2023.1.1,,6.0960000000000005e-09,230257.0,0.001403646672,230257.0,0.001403646672,230257.0,0.001403646672,13077,6863,0,0,0
sort_radix_opt_a4cd3a342e090d8b96469ab8dd8bcdd2,machsuite_xilinx_post_frontend,ss_sort,xczu9eg-ffvb1156-2-i,10.0,2023.1.1,,7.112e-09,116113.0,0.000825795656,116113.0,0.000825795656,116113.0,0.000825795656,25759,12424,0,0,0
sort_radix_opt_aaec5a8f71397f869229400eab3765dc,machsuite_xilinx_post_frontend,ss_sort,xczu9eg-ffvb1156-2-i,10.0,2023.1.1,,5.087e-09,201137.0,0.001023183919,201137.0,0.001023183919,201137.0,0.001023183919,9704,1795,0,0,0
sort_radix_opt_b83bcdd57695308bb4e6e1b012041d99,machsuite_xilinx_post_frontend,ss_sort,xczu9eg-ffvb1156-2-i,10.0,2023.1.1,,6.0960000000000005e-09,230001.0,0.0014020860960000001,230001.0,0.0014020860960000001,230001.0,0.0014020860960000001,22742,13106,0,0,0
sort_radix_opt_c6152c731949a821d560dc6d174f49f2,machsuite_xilinx_post_frontend,ss_sort,xczu9eg-ffvb1156-2-i,10.0,2023.1.1,,6.538e-09,165313.0,0.001080816394,165313.0,0.001080816394,165313.0,0.001080816394,11253,6357,0,0,0
sort_radix_opt_d46d1dfd81f476dfb9415d46749066b6,machsuite_xilinx_post_frontend,ss_sort,xczu9eg-ffvb1156-2-i,10.0,2023.1.1,,6.0960000000000005e-09,230001.0,0.0014020860960000001,230001.0,0.0014020860960000001,230001.0,0.0014020860960000001,28508,15084,0,0,0
sort_radix_opt_de44afb0f16f528315273919ba396f2d,machsuite_xilinx_post_frontend,ss_sort,xczu9eg-ffvb1156-2-i,10.0,2023.1.1,,4.66e-09,198017.0,0.00092275922,198017.0,0.00092275922,198017.0,0.00092275922,12959,5812,0,0,0
sort_radix_opt_e73e3330b3df07a7eedcfe5b32b4df2b,machsuite_xilinx_post_frontend,ss_sort,xczu9eg-ffvb1156-2-i,10.0,2023.1.1,,6.538e-09,99825.0,0.00065265585,99825.0,0.00065265585,99825.0,0.00065265585,45143,27482,0,0,0
sort_radix_opt_eed6318ea8d917ca55d376ccfaf3592c,machsuite_xilinx_post_frontend,ss_sort,xczu9eg-ffvb1156-2-i,10.0,2023.1.1,,3.9170000000000004e-09,180657.0,0.0007076334690000001,180657.0,0.0007076334690000001,180657.0,0.0007076334690000001,20497,6659,0,0,0
sort_radix_opt_f45add67307f63a2251ecfa20896fe17,machsuite_xilinx_post_frontend,ss_sort,xczu9eg-ffvb1156-2-i,10.0,2023.1.1,,5.301000000000001e-09,132561.0,0.0007027058610000001,132561.0,0.0007027058610000001,132561.0,0.0007027058610000001,26799,10074,0,0,0
sort_radix_opt_f99b80f98e0d4986df2b0b4118925482,machsuite_xilinx_post_frontend,ss_sort,xczu9eg-ffvb1156-2-i,10.0,2023.1.1,,4.2889999999999996e-09,213361.0,0.0009151053289999999,213361.0,0.0009151053289999999,213361.0,0.0009151053289999999,17560,6018,0,0,0
sort_radix_opt_fb66ff1d1c2cf55dfc4a798267f30bbc,machsuite_xilinx_post_frontend,ss_sort,xczu9eg-ffvb1156-2-i,10.0,2023.1.1,,5.332e-09,201121.0,0.001072377172,201121.0,0.001072377172,201121.0,0.001072377172,8459,1526,0,0,0
spmv_crs_opt_0292fb60ad3bd1f8ba79381d0e0c8f11,machsuite_xilinx_post_frontend,spmv,xczu9eg-ffvb1156-2-i,10.0,2023.1.1,,7.357000000000001e-09,,,,,,,14782,11295,14,0,0
spmv_crs_opt_06a50a1a6c403f2dfa8f8acd119f9527,machsuite_xilinx_post_frontend,spmv,xczu9eg-ffvb1156-2-i,10.0,2023.1.1,,7.042e-09,,,,,,,1546,1638,14,0,0
spmv_crs_opt_06a8759c9e9b445470ae291300497c69,machsuite_xilinx_post_frontend,spmv,xczu9eg-ffvb1156-2-i,10.0,2023.1.1,,7.042e-09,,,,,,,3698,4210,14,0,0
spmv_crs_opt_0f003aef3943be1c1ca82a8c639106ae,machsuite_xilinx_post_frontend,spmv,xczu9eg-ffvb1156-2-i,10.0,2023.1.1,,7.042e-09,,,,,,,2157,2244,14,0,0
spmv_crs_opt_11e78b474cd6c1fefeb43fa01eb108e5,machsuite_xilinx_post_frontend,spmv,xczu9eg-ffvb1156-2-i,10.0,2023.1.1,,7.042e-09,,,,,,,2433,2488,14,0,0
spmv_crs_opt_12b80fc3a596eeda3be2e99d3b091aff,machsuite_xilinx_post_frontend,spmv,xczu9eg-ffvb1156-2-i,10.0,2023.1.1,,7.042e-09,,,,,,,3880,3587,14,0,0
spmv_crs_opt_2b6c12e9d4ead0f89d4847dd0b9c0d13,machsuite_xilinx_post_frontend,spmv,xczu9eg-ffvb1156-2-i,10.0,2023.1.1,,7.042e-09,,,,,,,1326,1229,14,0,0
spmv_crs_opt_2e758c7ca94d10abe0c03aa056b5d12f,machsuite_xilinx_post_frontend,spmv,xczu9eg-ffvb1156-2-i,10.0,2023.1.1,,7.042e-09,,,,,,,1344,1240,14,0,0
spmv_crs_opt_330b5688462f56d559457c9d08126038,machsuite_xilinx_post_frontend,spmv,xczu9eg-ffvb1156-2-i,10.0,2023.1.1,,7.357000000000001e-09,,,,,,,9941,9330,14,0,0
spmv_crs_opt_387c8a59bdcff3eaf93f18d854ac1f7f,machsuite_xilinx_post_frontend,spmv,xczu9eg-ffvb1156-2-i,10.0,2023.1.1,,7.042e-09,,,,,,,1818,1660,14,0,0
spmv_crs_opt_445164e8f8b7dce7bac59ff767fc8117,machsuite_xilinx_post_frontend,spmv,xczu9eg-ffvb1156-2-i,10.0,2023.1.1,,7.042e-09,,,,,,,3019,2496,14,0,0
spmv_crs_opt_4a302c56b8c95183cd7562f40a2bc9f3,machsuite_xilinx_post_frontend,spmv,xczu9eg-ffvb1156-2-i,10.0,2023.1.1,,7.042e-09,,,,,,,1612,1641,14,0,0
spmv_crs_opt_4a898682ae571f1639dc017271df58f1,machsuite_xilinx_post_frontend,spmv,xczu9eg-ffvb1156-2-i,10.0,2023.1.1,,7.475e-09,,,,,,,28567,19001,14,0,0
spmv_crs_opt_4bb482b0fca5593e273ba6a16e172500,machsuite_xilinx_post_frontend,spmv,xczu9eg-ffvb1156-2-i,10.0,2023.1.1,,7.042e-09,,,,,,,2952,2332,14,0,0
spmv_crs_opt_5024ce6f1fa75992a6798b81a568d97e,machsuite_xilinx_post_frontend,spmv,xczu9eg-ffvb1156-2-i,10.0,2023.1.1,,7.042e-09,,,,,,,1655,1535,14,0,0
spmv_crs_opt_581fabb8c96f8f5c4c62322babde12d9,machsuite_xilinx_post_frontend,spmv,xczu9eg-ffvb1156-2-i,10.0,2023.1.1,,7.042e-09,,,,,,,4009,4144,14,0,0
spmv_crs_opt_6debd9e9bafcca184c62c96783d32d38,machsuite_xilinx_post_frontend,spmv,xczu9eg-ffvb1156-2-i,10.0,2023.1.1,,7.357000000000001e-09,,,,,,,10594,11229,14,0,0
spmv_crs_opt_6f0ef864b711f2bb8716a49bc72bd6cc,machsuite_xilinx_post_frontend,spmv,xczu9eg-ffvb1156-2-i,10.0,2023.1.1,,7.042e-09,,,,,,,1388,1242,14,0,0
spmv_crs_opt_723bf44284c6c14f44bcbe9ee7c9412a,machsuite_xilinx_post_frontend,spmv,xczu9eg-ffvb1156-2-i,10.0,2023.1.1,,7.042e-09,,,,,,,3601,3264,14,0,0
spmv_crs_opt_73e65f89ec8b0bcb3adc1b9567a0378a,machsuite_xilinx_post_frontend,spmv,xczu9eg-ffvb1156-2-i,10.0,2023.1.1,,7.298e-09,,,,,,,6804,7488,14,0,0
spmv_crs_opt_781e9fe84d26e9b99b5009f16e5af724,machsuite_xilinx_post_frontend,spmv,xczu9eg-ffvb1156-2-i,10.0,2023.1.1,,7.475e-09,,,,,,,19208,10261,14,0,0
spmv_crs_opt_7987ec8b6e93f8dc1c5a8f9904000891,machsuite_xilinx_post_frontend,spmv,xczu9eg-ffvb1156-2-i,10.0,2023.1.1,,7.475e-09,,,,,,,20739,18997,14,0,0
spmv_crs_opt_8e4605a14241298cb95a0f1dd6284917,machsuite_xilinx_post_frontend,spmv,xczu9eg-ffvb1156-2-i,10.0,2023.1.1,,7.298e-09,,,,,,,6621,6103,14,0,0
spmv_crs_opt_900ce2b55c22d4c89ac249715d3dd022,machsuite_xilinx_post_frontend,spmv,xczu9eg-ffvb1156-2-i,10.0,2023.1.1,,7.298e-09,,,,,,,8175,7444,14,0,0
spmv_crs_opt_9255727e8b3b9518107f3edf365b5ac0,machsuite_xilinx_post_frontend,spmv,xczu9eg-ffvb1156-2-i,10.0,2023.1.1,,7.042e-09,,,,,,,1480,1244,14,0,0
spmv_crs_opt_9bd54b79f13bd6ee6c034a1f9dc10417,machsuite_xilinx_post_frontend,spmv,xczu9eg-ffvb1156-2-i,10.0,2023.1.1,,7.298e-09,,,,,,,8187,6120,14,0,0
spmv_crs_opt_a9069e7eed5989ecd1a8e1755988f928,machsuite_xilinx_post_frontend,spmv,xczu9eg-ffvb1156-2-i,10.0,2023.1.1,,7.042e-09,,,,,,,2498,2327,14,0,0
spmv_crs_opt_bb8c6eea2998a9e5149f50d7afe57eb6,machsuite_xilinx_post_frontend,spmv,xczu9eg-ffvb1156-2-i,10.0,2023.1.1,,7.042e-09,,,,,,,2287,2139,14,0,0
spmv_crs_opt_d9bec415b6697612c43cf37dccf76989,machsuite_xilinx_post_frontend,spmv,xczu9eg-ffvb1156-2-i,10.0,2023.1.1,,7.042e-09,,,,,,,4710,3596,14,0,0
spmv_crs_opt_e4ca141887ea378118f10e58854bbe0e,machsuite_xilinx_post_frontend,spmv,xczu9eg-ffvb1156-2-i,10.0,2023.1.1,,7.042e-09,,,,,,,3271,3240,14,0,0
spmv_crs_opt_e912c461b10d6a05fea05b16cfe9b2b8,machsuite_xilinx_post_frontend,spmv,xczu9eg-ffvb1156-2-i,10.0,2023.1.1,,7.475e-09,,,,,,,23305,18999,14,0,0
spmv_crs_opt_facdb98f711eab08927114732d6f57c7,machsuite_xilinx_post_frontend,spmv,xczu9eg-ffvb1156-2-i,10.0,2023.1.1,,7.042e-09,,,,,,,1513,1626,14,0,0
spmv_ellpack_opt_0243ec06e5b17d37b202280db73c75d0,machsuite_xilinx_post_frontend,ellpack,xczu9eg-ffvb1156-2-i,10.0,2023.1.1,,7.042e-09,31123.0,0.00021916816600000001,31123.0,0.00021916816600000001,31123.0,0.00021916816600000001,1724,1436,14,0,0
spmv_ellpack_opt_0c37d2f9d28aeaa5c4cc18cc984e5185,machsuite_xilinx_post_frontend,ellpack,xczu9eg-ffvb1156-2-i,10.0,2023.1.1,,7.042e-09,31123.0,0.00021916816600000001,31123.0,0.00021916816600000001,31123.0,0.00021916816600000001,1339,1383,14,0,0
spmv_ellpack_opt_0d7745beb1f06dfa9ddd9310b006a0a0,machsuite_xilinx_post_frontend,ellpack,xczu9eg-ffvb1156-2-i,10.0,2023.1.1,,7.298e-09,2523.0,1.8412854000000002e-05,2523.0,1.8412854000000002e-05,2523.0,1.8412854000000002e-05,4233,7573,28,0,0
spmv_ellpack_opt_0f645495cb4a56dee108d19f57d3b6f2,machsuite_xilinx_post_frontend,ellpack,xczu9eg-ffvb1156-2-i,10.0,2023.1.1,,7.386000000000001e-09,2528.0,1.8671808e-05,2528.0,1.8671808e-05,2528.0,1.8671808e-05,3151,4054,28,0,0
spmv_ellpack_opt_376f454c8adad9209c974f9fdd57a43f,machsuite_xilinx_post_frontend,ellpack,xczu9eg-ffvb1156-2-i,10.0,2023.1.1,,7.298e-09,2523.0,1.8412854000000002e-05,2523.0,1.8412854000000002e-05,2523.0,1.8412854000000002e-05,6757,8461,28,0,0
spmv_ellpack_opt_5742e673e87f742b86a95b53c0361ffb,machsuite_xilinx_post_frontend,ellpack,xczu9eg-ffvb1156-2-i,10.0,2023.1.1,,7.298e-09,28653.0,0.000209109594,28653.0,0.000209109594,28653.0,0.000209109594,2633,2355,14,0,0
spmv_ellpack_opt_5a2395a4d197ba9fe1587bdfb417cfbb,machsuite_xilinx_post_frontend,ellpack,xczu9eg-ffvb1156-2-i,10.0,2023.1.1,,7.298e-09,25202.0,0.000183924196,25202.0,0.000183924196,25202.0,0.000183924196,1984,2760,14,0,0
spmv_ellpack_opt_5e45573378086c251c6a48fc6587c6ae,machsuite_xilinx_post_frontend,ellpack,xczu9eg-ffvb1156-2-i,10.0,2023.1.1,,7.298e-09,25202.0,0.000183924196,25202.0,0.000183924196,25202.0,0.000183924196,3697,2909,14,0,0
spmv_ellpack_opt_6eabc9eb2eaa2a08f58321b81201447b,machsuite_xilinx_post_frontend,ellpack,xczu9eg-ffvb1156-2-i,10.0,2023.1.1,,7.298e-09,25202.0,0.000183924196,25202.0,0.000183924196,25202.0,0.000183924196,2883,2860,14,0,0
spmv_ellpack_opt_6ffd1aa1f32ac13e27849cf8d6d957b5,machsuite_xilinx_post_frontend,ellpack,xczu9eg-ffvb1156-2-i,10.0,2023.1.1,,7.042e-09,31123.0,0.00021916816600000001,31123.0,0.00021916816600000001,31123.0,0.00021916816600000001,2312,1912,14,0,0
spmv_ellpack_opt_873cd658c491eaf5243997cc0ab447dd,machsuite_xilinx_post_frontend,ellpack,xczu9eg-ffvb1156-2-i,10.0,2023.1.1,,7.298e-09,28653.0,0.000209109594,28653.0,0.000209109594,28653.0,0.000209109594,1787,1197,14,0,0
spmv_ellpack_opt_8df5385bdb22ff8d80096e58b65310d3,machsuite_xilinx_post_frontend,ellpack,xczu9eg-ffvb1156-2-i,10.0,2023.1.1,,7.386000000000001e-09,2528.0,1.8671808e-05,2528.0,1.8671808e-05,2528.0,1.8671808e-05,8211,7296,28,0,0
spmv_ellpack_opt_a060c371270618826c06d5b63a52e003,machsuite_xilinx_post_frontend,ellpack,xczu9eg-ffvb1156-2-i,10.0,2023.1.1,,7.298e-09,25202.0,0.000183924196,25202.0,0.000183924196,25202.0,0.000183924196,4217,2891,14,0,0
spmv_ellpack_opt_ab0f27baefd728c2e4956cba53463054,machsuite_xilinx_post_frontend,ellpack,xczu9eg-ffvb1156-2-i,10.0,2023.1.1,,7.042e-09,31123.0,0.00021916816600000001,31123.0,0.00021916816600000001,31123.0,0.00021916816600000001,1553,1781,14,0,0
spmv_ellpack_opt_bbde4053cc2112ee0b8566d27bc28b54,machsuite_xilinx_post_frontend,ellpack,xczu9eg-ffvb1156-2-i,10.0,2023.1.1,,7.298e-09,28653.0,0.000209109594,28653.0,0.000209109594,28653.0,0.000209109594,3887,2382,14,0,0
spmv_ellpack_opt_bde4cd855dbe52c8e2e40b072359ad86,machsuite_xilinx_post_frontend,ellpack,xczu9eg-ffvb1156-2-i,10.0,2023.1.1,,7.613000000000002e-09,2528.0,1.9245664000000006e-05,2528.0,1.9245664000000006e-05,2528.0,1.9245664000000006e-05,5636,7251,28,0,0
spmv_ellpack_opt_c7e0291e30338b1de47ac74b0fe2c36c,machsuite_xilinx_post_frontend,ellpack,xczu9eg-ffvb1156-2-i,10.0,2023.1.1,,7.485e-09,2580.0,1.9311300000000003e-05,2580.0,1.9311300000000003e-05,2580.0,1.9311300000000003e-05,25987,8930,28,0,0
spmv_ellpack_opt_d15b8e9a0c5f4a888b2bab748aeb6f43,machsuite_xilinx_post_frontend,ellpack,xczu9eg-ffvb1156-2-i,10.0,2023.1.1,,7.298e-09,2523.0,1.8412854000000002e-05,2523.0,1.8412854000000002e-05,2523.0,1.8412854000000002e-05,4365,5728,28,0,0
spmv_ellpack_opt_d96cc4927b3e1d27a66ba077231d569e,machsuite_xilinx_post_frontend,ellpack,xczu9eg-ffvb1156-2-i,10.0,2023.1.1,,7.042e-09,31123.0,0.00021916816600000001,31123.0,0.00021916816600000001,31123.0,0.00021916816600000001,1833,1896,14,0,0
spmv_ellpack_opt_f0ade323a8934170348a592b246e78cb,machsuite_xilinx_post_frontend,ellpack,xczu9eg-ffvb1156-2-i,10.0,2023.1.1,,7.298e-09,25202.0,0.000183924196,25202.0,0.000183924196,25202.0,0.000183924196,2712,2911,14,0,0
spmv_ellpack_opt_f5cbf8e0f817c4673c568b79214be8bc,machsuite_xilinx_post_frontend,ellpack,xczu9eg-ffvb1156-2-i,10.0,2023.1.1,,7.298e-09,25202.0,0.000183924196,25202.0,0.000183924196,25202.0,0.000183924196,2104,2796,14,0,0
spmv_ellpack_opt_f947700c0892a2465e2cdbe53b7dabaf,machsuite_xilinx_post_frontend,ellpack,xczu9eg-ffvb1156-2-i,10.0,2023.1.1,,7.386000000000001e-09,2528.0,1.8671808e-05,2528.0,1.8671808e-05,2528.0,1.8671808e-05,9079,16503,28,0,0
spmv_ellpack_opt_fecd56ea35e73f4c43e03e41fdf0bba8,machsuite_xilinx_post_frontend,ellpack,xczu9eg-ffvb1156-2-i,10.0,2023.1.1,,7.495e-09,2496.0,1.870752e-05,2496.0,1.870752e-05,2496.0,1.870752e-05,14110,6230,28,0,0
stencil2D_opt_0dd4fc56c460ee82b3e858a6456f2b21,machsuite_xilinx_post_frontend,stencil,xczu9eg-ffvb1156-2-i,10.0,2023.1.1,,6.84e-09,39069.0,0.00026723196,39069.0,0.00026723196,39069.0,0.00026723196,1625,643,6,0,0
stencil2D_opt_0e479577c50664bcc362c8f5a8c24f07,machsuite_xilinx_post_frontend,stencil,xczu9eg-ffvb1156-2-i,10.0,2023.1.1,,7.069e-09,11094.0,7.8423486e-05,11094.0,7.8423486e-05,11094.0,7.8423486e-05,3982,1144,24,0,0
stencil2D_opt_155decf1d2de01784d233b60330933c3,machsuite_xilinx_post_frontend,stencil,xczu9eg-ffvb1156-2-i,10.0,2023.1.1,,6.85e-09,18276.0,0.0001251906,18276.0,0.0001251906,18276.0,0.0001251906,3918,1465,12,0,0
stencil2D_opt_1aa4f97a3394dc09785b809285cca95a,machsuite_xilinx_post_frontend,stencil,xczu9eg-ffvb1156-2-i,10.0,2023.1.1,,6.119e-09,27726.0,0.000169655394,27726.0,0.000169655394,27726.0,0.000169655394,14964,3416,33,0,0
stencil2D_opt_2161d4b3d1628ad1b60de085ddea82fd,machsuite_xilinx_post_frontend,stencil,xczu9eg-ffvb1156-2-i,10.0,2023.1.1,,6.85e-09,10464.0,7.16784e-05,10464.0,7.16784e-05,10464.0,7.16784e-05,2291,1074,24,0,0
stencil2D_opt_2aef6202d511bd6c037540183bd6eea8,machsuite_xilinx_post_frontend,stencil,xczu9eg-ffvb1156-2-i,10.0,2023.1.1,,6.85e-09,54942.0,0.0003763527,54942.0,0.0003763527,54942.0,0.0003763527,753,553,6,0,0
stencil2D_opt_3077ad2be667c910ac0d10cc0650742e,machsuite_xilinx_post_frontend,stencil,xczu9eg-ffvb1156-2-i,10.0,2023.1.1,,6.119e-09,8700.0,5.32353e-05,8700.0,5.32353e-05,8700.0,5.32353e-05,12592,2526,60,0,0
stencil2D_opt_350352d87a67bd14964168cdbda53b6f,machsuite_xilinx_post_frontend,stencil,xczu9eg-ffvb1156-2-i,10.0,2023.1.1,,6.85e-09,35163.0,0.00024086655,35163.0,0.00024086655,35163.0,0.00024086655,1420,736,6,0,0
stencil2D_opt_384720b71623b3894cea137ee723f201,machsuite_xilinx_post_frontend,stencil,xczu9eg-ffvb1156-2-i,10.0,2023.1.1,,6.404000000000001e-09,86185.0,0.00055192874,86185.0,0.00055192874,86185.0,0.00055192874,434,124,6,0,0
stencil2D_opt_3f5f66e3117dc10121117bc3f48575c1,machsuite_xilinx_post_frontend,stencil,xczu9eg-ffvb1156-2-i,10.0,2023.1.1,,7.277e-09,54942.0,0.00039981293400000005,54942.0,0.00039981293400000005,54942.0,0.00039981293400000005,872,602,6,0,0
stencil2D_opt_43bfa28a7f1bb17b2f6184c85b96ad03,machsuite_xilinx_post_frontend,stencil,xczu9eg-ffvb1156-2-i,10.0,2023.1.1,,6.666000000000001e-09,11728.0,7.817884800000001e-05,11728.0,7.817884800000001e-05,11728.0,7.817884800000001e-05,2888,942,18,0,0
stencil2D_opt_4db586210b4d4a77df0adfa1ab2ac8d5,machsuite_xilinx_post_frontend,stencil,xczu9eg-ffvb1156-2-i,10.0,2023.1.1,,6.84e-09,15634.0,0.00010693656,15634.0,0.00010693656,15634.0,0.00010693656,1687,674,15,0,0
stencil2D_opt_518be3d1dff9fbabb5ed5a9c38525437,machsuite_xilinx_post_frontend,stencil,xczu9eg-ffvb1156-2-i,10.0,2023.1.1,,6.5950000000000005e-09,11728.0,7.734616000000001e-05,11728.0,7.734616000000001e-05,11728.0,7.734616000000001e-05,1805,942,18,0,0
stencil2D_opt_5d82f02cfdf9a4196082e4edb0cf658b,machsuite_xilinx_post_frontend,stencil,xczu9eg-ffvb1156-2-i,10.0,2023.1.1,,6.85e-09,9582.0,6.56367e-05,9582.0,6.56367e-05,9582.0,6.56367e-05,4945,1722,24,0,0
stencil2D_opt_618e7e02aa865ece844592742edda51f,machsuite_xilinx_post_frontend,stencil,xczu9eg-ffvb1156-2-i,10.0,2023.1.1,,6.608e-09,15634.0,0.00010330947200000001,15634.0,0.00010330947200000001,15634.0,0.00010330947200000001,2275,673,15,0,0
stencil2D_opt_726cff7db90b9e5393b41e5581bf46ce,machsuite_xilinx_post_frontend,stencil,xczu9eg-ffvb1156-2-i,10.0,2023.1.1,,6.84e-09,15634.0,0.00010693656,15634.0,0.00010693656,15634.0,0.00010693656,1700,674,15,0,0
stencil2D_opt_78c4b4f707e5ba01e5eeb0234b505322,machsuite_xilinx_post_frontend,stencil,xczu9eg-ffvb1156-2-i,10.0,2023.1.1,,6.85e-09,3156.0,2.16186e-05,3156.0,2.16186e-05,3156.0,2.16186e-05,8066,4787,87,0,0
stencil2D_opt_804dbf1d72a1ba8509aad39ecf90d73a,machsuite_xilinx_post_frontend,stencil,xczu9eg-ffvb1156-2-i,10.0,2023.1.1,,6.85e-09,39069.0,0.00026762265,39069.0,0.00026762265,39069.0,0.00026762265,889,627,6,0,0
stencil2D_opt_879622cc3ebda1bd2faf3463be7a92ec,machsuite_xilinx_post_frontend,stencil,xczu9eg-ffvb1156-2-i,10.0,2023.1.1,,6.85e-09,35790.0,0.0002451615,35790.0,0.0002451615,35790.0,0.0002451615,3884,1328,6,0,0
stencil2D_opt_8cf4e238c49b4c7e80a21bbdb6c87d38,machsuite_xilinx_post_frontend,stencil,xczu9eg-ffvb1156-2-i,10.0,2023.1.1,,6.608e-09,39069.0,0.000258167952,39069.0,0.000258167952,39069.0,0.000258167952,2217,642,6,0,0
stencil2D_opt_94d80940843012c32d2442077fa5278c,machsuite_xilinx_post_frontend,stencil,xczu9eg-ffvb1156-2-i,10.0,2023.1.1,,7.2990000000000005e-09,6306.0,4.6027494e-05,6306.0,4.6027494e-05,6306.0,4.6027494e-05,5916,2327,45,0,0
stencil2D_opt_9bb8788ce1a21f522a20128cd3013bb3,machsuite_xilinx_post_frontend,stencil,xczu9eg-ffvb1156-2-i,10.0,2023.1.1,,6.85e-09,39069.0,0.00026762265,39069.0,0.00026762265,39069.0,0.00026762265,902,633,6,0,0
stencil2D_opt_a2bbb7d820006f9798942401a364ed7a,machsuite_xilinx_post_frontend,stencil,xczu9eg-ffvb1156-2-i,10.0,2023.1.1,,6.84e-09,54942.0,0.00037580328000000004,54942.0,0.00037580328000000004,54942.0,0.00037580328000000004,1506,595,6,0,0
stencil2D_opt_a4332ab2cf66165e3185634ff9496efb,machsuite_xilinx_post_frontend,stencil,xczu9eg-ffvb1156-2-i,10.0,2023.1.1,,6.85e-09,5676.0,3.88806e-05,5676.0,3.88806e-05,5676.0,3.88806e-05,4234,2441,45,0,0
stencil2D_opt_abbd8484cf74479d0fb841f46bb48e80,machsuite_xilinx_post_frontend,stencil,xczu9eg-ffvb1156-2-i,10.0,2023.1.1,,6.608e-09,54942.0,0.00036305673600000004,54942.0,0.00036305673600000004,54942.0,0.00036305673600000004,2118,594,6,0,0
stencil2D_opt_b82a4b1abe206953738169f410937f80,machsuite_xilinx_post_frontend,stencil,xczu9eg-ffvb1156-2-i,10.0,2023.1.1,,7.277e-09,23446.0,0.000170616542,23446.0,0.000170616542,23446.0,0.000170616542,1023,636,9,0,0
stencil2D_opt_e4a15c39545b08edc158f4e4f729a1e5,machsuite_xilinx_post_frontend,stencil,xczu9eg-ffvb1156-2-i,10.0,2023.1.1,,6.404000000000001e-09,4164.0,2.6666256000000002e-05,4164.0,2.6666256000000002e-05,4164.0,2.6666256000000002e-05,20243,5297,141,0,0
stencil2D_opt_ec3914ac4ac21145bcb0f3c0195d638e,machsuite_xilinx_post_frontend,stencil,xczu9eg-ffvb1156-2-i,10.0,2023.1.1,,6.644000000000001e-09,15634.0,0.00010387229600000001,15634.0,0.00010387229600000001,15634.0,0.00010387229600000001,1334,662,15,0,0
stencil2D_opt_ef9118a744a947cc0c8f687bf91c0e2e,machsuite_xilinx_post_frontend,stencil,xczu9eg-ffvb1156-2-i,10.0,2023.1.1,,6.85e-09,35790.0,0.0002451615,35790.0,0.0002451615,35790.0,0.0002451615,1657,839,6,0,0
stencil2D_opt_f047d66f1c1669250cfdb5f3bfccf11d,machsuite_xilinx_post_frontend,stencil,xczu9eg-ffvb1156-2-i,10.0,2023.1.1,,6.929e-09,86185.0,0.000597175865,86185.0,0.000597175865,86185.0,0.000597175865,539,122,6,0,0
stencil2D_opt_f33dd8e871e8dd76744ccf519fd33f9b,machsuite_xilinx_post_frontend,stencil,xczu9eg-ffvb1156-2-i,10.0,2023.1.1,,6.85e-09,18276.0,0.0001251906,18276.0,0.0001251906,18276.0,0.0001251906,2835,1203,12,0,0
stencil2D_opt_fde89f26085d4e4739d0f635cb9afd93,machsuite_xilinx_post_frontend,stencil,xczu9eg-ffvb1156-2-i,10.0,2023.1.1,,6.85e-09,35790.0,0.0002451615,35790.0,0.0002451615,35790.0,0.0002451615,2331,1007,6,0,0
stencil3D_opt_0f4712d94bfefdade3161ea139f4be23,machsuite_xilinx_post_frontend,stencil3d,xczu9eg-ffvb1156-2-i,10.0,2023.1.1,,6.546e-09,38765.0,0.00025375569,38765.0,0.00025375569,38765.0,0.00025375569,7644,1531,3,0,0
stencil3D_opt_18bbc5cd481884ae0b9403f080c074d3,machsuite_xilinx_post_frontend,stencil3d,xczu9eg-ffvb1156-2-i,10.0,2023.1.1,,7.135e-09,16016.0,0.00011427416,16016.0,0.00011427416,16016.0,0.00011427416,24409,4912,9,0,0
stencil3D_opt_216a407c793677be5628521ec75deb8c,machsuite_xilinx_post_frontend,stencil3d,xczu9eg-ffvb1156-2-i,10.0,2023.1.1,,7.135e-09,28016.0,0.00019989416,28016.0,0.00019989416,28016.0,0.00019989416,21650,4979,3,0,0
stencil3D_opt_2b3bc4957f12844bd0f1623b27828ec5,machsuite_xilinx_post_frontend,stencil3d,xczu9eg-ffvb1156-2-i,10.0,2023.1.1,,7.135e-09,1199.0,8.554865e-06,1199.0,8.554865e-06,1199.0,8.554865e-06,74117,16957,96,0,0
stencil3D_opt_3c9377316336771a73edfa3c7a4515c9,machsuite_xilinx_post_frontend,stencil3d,xczu9eg-ffvb1156-2-i,10.0,2023.1.1,,7.135e-09,25230.0,0.00018001605,25230.0,0.00018001605,25230.0,0.00018001605,20857,6237,6,0,0
stencil3D_opt_535ef6bff8ef2e85bbb7986f3c682ec4,machsuite_xilinx_post_frontend,stencil3d,xczu9eg-ffvb1156-2-i,10.0,2023.1.1,,7.135e-09,3229.0,2.3038914999999998e-05,3229.0,2.3038914999999998e-05,3229.0,2.3038914999999998e-05,15046,2782,30,0,0
stencil3D_opt_5f11340c03266dc8aba513c82bb15f58,machsuite_xilinx_post_frontend,stencil3d,xczu9eg-ffvb1156-2-i,10.0,2023.1.1,,6.644000000000001e-09,38521.0,0.00025593352400000004,38521.0,0.00025593352400000004,38521.0,0.00025593352400000004,23985,4397,3,0,0
stencil3D_opt_61167d96bf076415434e29adf9caa335,machsuite_xilinx_post_frontend,stencil3d,xczu9eg-ffvb1156-2-i,10.0,2023.1.1,,6.831000000000001e-09,4221.0,2.8833651000000004e-05,4221.0,2.8833651000000004e-05,4221.0,2.8833651000000004e-05,12143,2559,42,0,0
stencil3D_opt_6c228bc739fa6abf9c76063e4df653c6,machsuite_xilinx_post_frontend,stencil3d,xczu9eg-ffvb1156-2-i,10.0,2023.1.1,,7.135e-09,3229.0,2.3038914999999998e-05,3229.0,2.3038914999999998e-05,3229.0,2.3038914999999998e-05,11521,2399,30,0,0
stencil3D_opt_723053869ded6ad91007a71954347178,machsuite_xilinx_post_frontend,stencil3d,xczu9eg-ffvb1156-2-i,10.0,2023.1.1,,7.135e-09,3466.0,2.472991e-05,3466.0,2.472991e-05,3466.0,2.472991e-05,21840,4718,84,0,0
stencil3D_opt_92e7f54938dcaa100181917dd7d2242b,machsuite_xilinx_post_frontend,stencil3d,xczu9eg-ffvb1156-2-i,10.0,2023.1.1,,7.135e-09,11900.0,8.49065e-05,11900.0,8.49065e-05,11900.0,8.49065e-05,4886,1587,9,0,0
stencil3D_opt_cfee41c3c7af95b3eb292018ed8d1095,machsuite_xilinx_post_frontend,stencil3d,xczu9eg-ffvb1156-2-i,10.0,2023.1.1,,7.135e-09,3229.0,2.3038914999999998e-05,3229.0,2.3038914999999998e-05,3229.0,2.3038914999999998e-05,23550,3514,30,0,0
stencil3D_opt_e85bbebbe35f53b5e775ce3c4ad860d6,machsuite_xilinx_post_frontend,stencil3d,xczu9eg-ffvb1156-2-i,10.0,2023.1.1,,7.135e-09,22568.0,0.00016102268,22568.0,0.00016102268,22568.0,0.00016102268,14772,3359,6,0,0
stencil3D_opt_f1b93dababe6b276d24ecd2cc7f610e6,machsuite_xilinx_post_frontend,stencil3d,xczu9eg-ffvb1156-2-i,10.0,2023.1.1,,7.135e-09,42016.0,0.00029978416,42016.0,0.00029978416,42016.0,0.00029978416,2340,861,3,0,0
stencil3D_opt_f2646877971cf06042f7d889eacc30e0,machsuite_xilinx_post_frontend,stencil3d,xczu9eg-ffvb1156-2-i,10.0,2023.1.1,,7.135e-09,36180.0,0.0002581443,36180.0,0.0002581443,36180.0,0.0002581443,9853,2319,9,0,0
stencil3D_opt_fbd75c0278af2b10f75df592883d4336,machsuite_xilinx_post_frontend,stencil3d,xczu9eg-ffvb1156-2-i,10.0,2023.1.1,,6.831000000000001e-09,2092.0,1.4290452000000002e-05,2092.0,1.4290452000000002e-05,2092.0,1.4290452000000002e-05,33273,8113,42,0,0
viterbi_opt_01bddf8da4a52a5ee3c93798090e0ad9,machsuite_xilinx_post_frontend,viterbi,xczu9eg-ffvb1156-2-i,10.0,2023.1.1,,7.745000000000001e-09,677601.0,0.0052480197450000005,677601.0,0.0052480197450000005,677601.0,0.0052480197450000005,53064,19508,9,64,0
viterbi_opt_02a9d18d36696f3350d21ac60014320c,machsuite_xilinx_post_frontend,viterbi,xczu9eg-ffvb1156-2-i,10.0,2023.1.1,,7.019000000000001e-09,810615.0,0.005689706685,810615.0,0.005689706685,810615.0,0.005689706685,41967,14491,9,44,0
viterbi_opt_132c4d3719ebc0cc05dc446a4aa67b52,machsuite_xilinx_post_frontend,viterbi,xczu9eg-ffvb1156-2-i,10.0,2023.1.1,,7.775e-09,679127.0,0.005280212425,679127.0,0.005280212425,679127.0,0.005280212425,31055,9888,9,44,0
viterbi_opt_156bc63125a228c00f07d7d9e653ce5c,machsuite_xilinx_post_frontend,viterbi,xczu9eg-ffvb1156-2-i,10.0,2023.1.1,,7.112e-09,677211.0,0.004816324632,677211.0,0.004816324632,677211.0,0.004816324632,56178,24660,6,128,0
viterbi_opt_1801f7fb3d99fa0cdda259f915c51cb3,machsuite_xilinx_post_frontend,viterbi,xczu9eg-ffvb1156-2-i,10.0,2023.1.1,,7.095e-09,838700.0,0.0059505765,838700.0,0.0059505765,838700.0,0.0059505765,16947,7630,6,128,0
viterbi_opt_18bfbc931ff9db09755e805f1a5269f6,machsuite_xilinx_post_frontend,viterbi,xczu9eg-ffvb1156-2-i,10.0,2023.1.1,,7.549e-09,686488.0,0.0051822979120000005,686488.0,0.0051822979120000005,686488.0,0.0051822979120000005,60566,19418,9,64,0
viterbi_opt_1a3228800b342b218b81f14f9e5ecc67,machsuite_xilinx_post_frontend,viterbi,xczu9eg-ffvb1156-2-i,10.0,2023.1.1,,7.3800000000000006e-09,820907.0,0.00605829366,820907.0,0.00605829366,820907.0,0.00605829366,19152,6945,9,128,0
viterbi_opt_1b6d96a6af7a61a7a3588379f5935f16,machsuite_xilinx_post_frontend,viterbi,xczu9eg-ffvb1156-2-i,10.0,2023.1.1,,6.795000000000001e-09,810347.0,0.005506307865000001,810347.0,0.005506307865000001,810347.0,0.005506307865000001,23146,12828,6,64,0
viterbi_opt_1d7c190d94f9fbff866dc32acecf5c3e,machsuite_xilinx_post_frontend,viterbi,xczu9eg-ffvb1156-2-i,10.0,2023.1.1,,6.739e-09,828408.0,0.005582641512,828408.0,0.005582641512,828408.0,0.005582641512,41838,15284,6,128,0
viterbi_opt_29a5a9afabb8e2f91c23613b08e99303,machsuite_xilinx_post_frontend,viterbi,xczu9eg-ffvb1156-2-i,10.0,2023.1.1,,7.371000000000001e-09,829804.0,0.006116485284000001,829804.0,0.006116485284000001,829804.0,0.006116485284000001,17039,8050,9,64,0
viterbi_opt_301177b8fc0bca8cac0e15385c75800d,machsuite_xilinx_post_frontend,viterbi,xczu9eg-ffvb1156-2-i,10.0,2023.1.1,,7.166000000000001e-09,837304.0,0.006000120464000001,837304.0,0.006000120464000001,837304.0,0.006000120464000001,40706,13702,6,128,0
viterbi_opt_3253123725b04e882bed9544de75db5d,machsuite_xilinx_post_frontend,viterbi,xczu9eg-ffvb1156-2-i,10.0,2023.1.1,,7.3420000000000005e-09,296121.0,0.002174120382,296121.0,0.002174120382,296121.0,0.002174120382,38812,21015,12,64,0
viterbi_opt_3d3ecefcbedd9a9ea5459020299eb707,machsuite_xilinx_post_frontend,viterbi,xczu9eg-ffvb1156-2-i,10.0,2023.1.1,,7.43e-09,819521.0,0.00608904103,819521.0,0.00608904103,819521.0,0.00608904103,31779,14460,9,56,0
viterbi_opt_401ab925bd6adf32e1102f38e77fa79f,machsuite_xilinx_post_frontend,viterbi,xczu9eg-ffvb1156-2-i,10.0,2023.1.1,,7.775e-09,679127.0,0.005280212425,679127.0,0.005280212425,679127.0,0.005280212425,32662,9892,9,64,0
viterbi_opt_4866a9542cec299403dd9f40eecbe6fa,machsuite_xilinx_post_frontend,viterbi,xczu9eg-ffvb1156-2-i,10.0,2023.1.1,,7.3420000000000005e-09,296121.0,0.002174120382,296121.0,0.002174120382,296121.0,0.002174120382,28760,15312,12,56,0
viterbi_opt_5054a2c70521231f5dc7840f06f17423,machsuite_xilinx_post_frontend,viterbi,xczu9eg-ffvb1156-2-i,10.0,2023.1.1,,7.46e-09,819512.0,0.00611355952,819512.0,0.00611355952,819512.0,0.00611355952,41910,11144,6,44,0
viterbi_opt_5dbf2e52305f61b4b87ad965635987f1,machsuite_xilinx_post_frontend,viterbi,xczu9eg-ffvb1156-2-i,10.0,2023.1.1,,7.166000000000001e-09,819512.0,0.005872622992000001,819512.0,0.005872622992000001,819512.0,0.005872622992000001,40293,13034,9,44,0
viterbi_opt_5eb08befb0466e0e82ad47a41a660b80,machsuite_xilinx_post_frontend,viterbi,xczu9eg-ffvb1156-2-i,10.0,2023.1.1,,7.43e-09,820908.0,0.00609934644,820908.0,0.00609934644,820908.0,0.00609934644,12132,5854,9,44,0
viterbi_opt_89e95fd09eff30aab0868315fdc62ea6,machsuite_xilinx_post_frontend,viterbi,xczu9eg-ffvb1156-2-i,10.0,2023.1.1,,7.2340000000000005e-09,820908.0,0.0059384484720000005,820908.0,0.0059384484720000005,820908.0,0.0059384484720000005,9083,5221,9,44,0
viterbi_opt_94eb4cd12d57775384a58ec3e95d97e0,machsuite_xilinx_post_frontend,viterbi,xczu9eg-ffvb1156-2-i,10.0,2023.1.1,,7.43e-09,820908.0,0.00609934644,820908.0,0.00609934644,820908.0,0.00609934644,10610,5218,9,44,0
viterbi_opt_9938cf9f6163cc807f25749a7459b355,machsuite_xilinx_post_frontend,viterbi,xczu9eg-ffvb1156-2-i,10.0,2023.1.1,,7.498e-09,819511.0,0.006144693478,819511.0,0.006144693478,819511.0,0.006144693478,42386,14824,9,128,0
viterbi_opt_9b3d00b59358f7268782e1f5d88df03f,machsuite_xilinx_post_frontend,viterbi,xczu9eg-ffvb1156-2-i,10.0,2023.1.1,,7.2340000000000005e-09,819521.0,0.005928414914000001,819521.0,0.005928414914000001,819521.0,0.005928414914000001,27597,10951,9,36,0
viterbi_opt_a1e02fd068ad3b093e94f754f72fcd69,machsuite_xilinx_post_frontend,viterbi,xczu9eg-ffvb1156-2-i,10.0,2023.1.1,,7.351000000000001e-09,838700.0,0.0061652837,838700.0,0.0061652837,838700.0,0.0061652837,23072,8219,6,128,0
viterbi_opt_a41ed87e41032195ca610481d0fff29f,machsuite_xilinx_post_frontend,viterbi,xczu9eg-ffvb1156-2-i,10.0,2023.1.1,,6.831000000000001e-09,820907.0,0.005607615717000001,820907.0,0.005607615717000001,820907.0,0.005607615717000001,6007,3570,6,56,0
viterbi_opt_c1c2214aa35497bd0f63571054bf855d,machsuite_xilinx_post_frontend,viterbi,xczu9eg-ffvb1156-2-i,10.0,2023.1.1,,6.650000000000001e-09,812011.0,0.005399873150000001,812011.0,0.005399873150000001,812011.0,0.005399873150000001,10456,5802,9,36,0
viterbi_opt_ce56f4ee12763f3ee90af2438d8286fd,machsuite_xilinx_post_frontend,viterbi,xczu9eg-ffvb1156-2-i,10.0,2023.1.1,,7.3800000000000006e-09,820907.0,0.00605829366,820907.0,0.00605829366,820907.0,0.00605829366,29269,10423,9,128,0
viterbi_opt_ce9104942f071a50ce7311cc14898787,machsuite_xilinx_post_frontend,viterbi,xczu9eg-ffvb1156-2-i,10.0,2023.1.1,,7.579e-09,678988.0,0.005146050052,678988.0,0.005146050052,678988.0,0.005146050052,35148,13488,9,128,0
viterbi_opt_de66f241e27fafe696b9fe7026d177e6,machsuite_xilinx_post_frontend,viterbi,xczu9eg-ffvb1156-2-i,10.0,2023.1.1,,7.136e-09,820907.0,0.0058579923520000006,820907.0,0.0058579923520000006,820907.0,0.0058579923520000006,8780,4821,9,64,0
viterbi_opt_eacec62dbcf0447141f127ae8aec2fc4,machsuite_xilinx_post_frontend,viterbi,xczu9eg-ffvb1156-2-i,10.0,2023.1.1,,7.451e-09,677601.0,0.005048805051,677601.0,0.005048805051,677601.0,0.005048805051,43293,18741,9,128,0
viterbi_opt_ec99a070320d655e2fe422503f72f235,machsuite_xilinx_post_frontend,viterbi,xczu9eg-ffvb1156-2-i,10.0,2023.1.1,,7.46e-09,828408.0,0.00617992368,828408.0,0.00617992368,828408.0,0.00617992368,44548,13134,6,128,0
viterbi_opt_ef3b6104feb69d184981532789b6400a,machsuite_xilinx_post_frontend,viterbi,xczu9eg-ffvb1156-2-i,10.0,2023.1.1,,6.831000000000001e-09,812011.0,0.0055468471410000005,812011.0,0.0055468471410000005,812011.0,0.0055468471410000005,8728,5222,6,56,0
viterbi_opt_fe8ccc7b84cf1fdf6872ddd4de6bcd8f,machsuite_xilinx_post_frontend,viterbi,xczu9eg-ffvb1156-2-i,10.0,2023.1.1,,7.027000000000001e-09,829804.0,0.0058310327080000005,829804.0,0.0058310327080000005,829804.0,0.0058310327080000005,9944,5412,6,64,0
