design_id,dataset_name,parallel_type,name,part,target_clock_period,version_vitis_hls,version_vivado,clock_period,latency_best_cycles,latency_best_seconds,latency_average_cycles,latency_average_seconds,latency_worst_cycles,latency_worst_seconds,resources_lut_used,resources_ff_used,resources_dsp_used,resources_bram_used,resources_uram_used,t_start,t_end,dt,core,timeout
aes_table_opt_4e97c4ec45461e153f8283862d3e3578,machsuite_xilinx,naive,aes256_encrypt_ecb,xczu9eg-ffvb1156-2-i,10.0,2023.1.1,,7.0290000000000004e-09,611.0,4.294719e-06,611.0,4.294719e-06,611.0,4.294719e-06,330469.0,83173.0,0.0,32.0,0.0,239607.789934709,239648.314040835,40.5241061259876,0,False
aes_table_opt_ab8ded9686249a892c7f6fe24da20e97,machsuite_xilinx,naive,aes256_encrypt_ecb,xczu9eg-ffvb1156-2-i,10.0,2023.1.1,,7.279e-09,681.0,4.956999e-06,681.0,4.956999e-06,681.0,4.956999e-06,325694.0,83625.0,0.0,4.0,0.0,239607.789973165,239642.074657206,34.284684040991124,1,False
aes_table_opt_eb868b80d752ab472992ad760d56ec8a,machsuite_xilinx,naive,aes256_encrypt_ecb,xczu9eg-ffvb1156-2-i,10.0,2023.1.1,,7.279e-09,675.0,4.913325e-06,675.0,4.913325e-06,675.0,4.913325e-06,329044.0,83492.0,0.0,16.0,0.0,239607.79011401,239644.702461855,36.91234784500557,2,False
aes_table_opt_8a3159a366752f8c339d58638516d152,machsuite_xilinx,naive,aes256_encrypt_ecb,xczu9eg-ffvb1156-2-i,10.0,2023.1.1,,7.0290000000000004e-09,611.0,4.294719e-06,611.0,4.294719e-06,611.0,4.294719e-06,330467.0,83197.0,0.0,32.0,0.0,239607.790146625,239648.461248591,40.671101965999696,3,False
aes_table_opt_ae0c036a27cbdac38e9f7652e60291d4,machsuite_xilinx,naive,aes256_encrypt_ecb,xczu9eg-ffvb1156-2-i,10.0,2023.1.1,,7.117e-09,952.0,6.775384e-06,952.0,6.775384e-06,952.0,6.775384e-06,394822.0,77792.0,0.0,2.0,0.0,239607.790137187,239648.180948103,40.39081091599655,4,False
aes_table_opt_7f09e675a6cebdaef9c714805d5e69eb,machsuite_xilinx,naive,aes256_encrypt_ecb,xczu9eg-ffvb1156-2-i,10.0,2023.1.1,,7.117e-09,804.0,5.722068e-06,804.0,5.722068e-06,804.0,5.722068e-06,395561.0,78767.0,0.0,4.0,0.0,239607.790165427,239647.727490528,39.93732510099653,5,False
aes_table_opt_ee825ed4146ae5d56bfc842d60d0c7ae,machsuite_xilinx,naive,aes256_encrypt_ecb,xczu9eg-ffvb1156-2-i,10.0,2023.1.1,,7.117e-09,1582.0,1.1259094e-05,1725.0,1.2276825e-05,1868.0,1.3294556000000001e-05,399394.0,78182.0,0.0,12.0,0.0,239607.790180234,239644.078793817,36.288613582990365,6,False
aes_table_opt_b2733e866f820d30cfce275bb14fa847,machsuite_xilinx,naive,aes256_encrypt_ecb,xczu9eg-ffvb1156-2-i,10.0,2023.1.1,,6.925e-09,1686.0,1.167555e-05,1855.0,1.2845875e-05,2024.0,1.40162e-05,329173.0,83921.0,0.0,6.0,0.0,239607.790221921,239643.483225158,35.693003237014636,7,False
aes_tableless_opt_48668a8d8254b27e431933143841f4f1,machsuite_xilinx,naive,aes256_encrypt_ecb,xczu9eg-ffvb1156-2-i,10.0,2023.1.1,,6.925e-09,1469.0,1.0172825e-05,16924.0,0.00011719869999999999,102058.0,0.00070675165,331945.0,60475.0,0.0,0.0,0.0,239607.790249436,239645.954577958,38.16432852201979,9,False
aes_tableless_opt_f64a26452d92e9c786d7935842beec1c,machsuite_xilinx,naive,aes256_encrypt_ecb,xczu9eg-ffvb1156-2-i,10.0,2023.1.1,,6.925e-09,1786.0,1.236805e-05,17344.0,0.0001201072,102582.0,0.00071038035,328398.0,60404.0,0.0,0.0,0.0,239607.794384842,239640.548723521,32.75433867899119,8,False
aes_tableless_opt_e4c1ea15e94f505396dd01a3a999135d,machsuite_xilinx,naive,aes256_encrypt_ecb,xczu9eg-ffvb1156-2-i,10.0,2023.1.1,,6.925e-09,1897.0,1.3136724999999999e-05,17364.0,0.00012024569999999999,102498.0,0.00070979865,329708.0,60341.0,0.0,0.0,0.0,239607.794391505,239643.56333186,35.768940354988445,10,False
aes_tableless_opt_b6e739c7c5e29191492e58590ff9e4e0,machsuite_xilinx,naive,aes256_encrypt_ecb,xczu9eg-ffvb1156-2-i,10.0,2023.1.1,,6.925e-09,1313.0,9.092525e-06,16859.0,0.000116748575,102097.0,0.000707021725,331148.0,60084.0,0.0,0.0,0.0,239607.794414419,239642.953284281,35.15886986197438,11,False
aes_tableless_opt_89f9068edf021178eaa856502707db82,machsuite_xilinx,naive,aes256_encrypt_ecb,xczu9eg-ffvb1156-2-i,10.0,2023.1.1,,7.042e-09,1916.0,1.3492472e-05,17474.0,0.000123051908,102712.0,0.000723297904,214294.0,22810.0,0.0,0.0,0.0,239607.794462909,239638.680424587,30.88596167799551,12,False
aes_tableless_opt_aa5e0fa4286ec3a18b42bd07f50c0c57,machsuite_xilinx,naive,aes256_encrypt_ecb,xczu9eg-ffvb1156-2-i,10.0,2023.1.1,,7.042e-09,1786.0,1.2577012000000001e-05,17344.0,0.000122136448,102582.0,0.000722382444,214541.0,23613.0,0.0,0.0,0.0,239607.794463206,239639.060824776,31.26636157001485,13,False
aes_tableless_opt_34154e2bd0cd397b1a0856d9968fe91e,machsuite_xilinx,naive,aes256_encrypt_ecb,xczu9eg-ffvb1156-2-i,10.0,2023.1.1,,7.042e-09,1717.0,1.2091114e-05,17275.0,0.00012165055,102513.0,0.0007218965460000001,214527.0,23520.0,0.0,0.0,0.0,239607.794535545,239637.114448515,29.319912970007863,14,False
aes_tableless_opt_2f634706742d788f5aab9c8b5bdb39a9,machsuite_xilinx,naive,aes256_encrypt_ecb,xczu9eg-ffvb1156-2-i,10.0,2023.1.1,,6.925e-09,1825.0,1.2638125e-05,17383.0,0.000120377275,102621.0,0.000710650425,328781.0,60446.0,0.0,0.0,0.0,239607.794581725,239639.894712901,32.10013117600465,15,False
backprop_opt_d13f86bb90be73765d4dbe9dffebeace,machsuite_xilinx,naive,,,,,,,,,,,,,,,,,,239607.794738496,239907.881160657,300.0864221609954,16,True
backprop_opt_4e8c63128c1c62d48cce9ac93499e608,machsuite_xilinx,naive,backprop,xczu9eg-ffvb1156-2-i,10.0,2023.1.1,,7.537e-09,5382424.0,0.040567329687999996,5382424.0,0.040567329687999996,5382424.0,0.040567329687999996,45698.0,78436.0,158.0,72.0,0.0,239607.794717722,239885.457777077,277.6630593550217,17,False
backprop_opt_4b2b92342f23ba65431667e2a0b5f508,machsuite_xilinx,naive,,,,,,,,,,,,,,,,,,239607.794831089,239907.871655923,300.0768248339882,18,True
backprop_opt_4cecfd4509659fbe123e4fb468bd21d2,machsuite_xilinx,naive,,,,,,,,,,,,,,,,,,239607.794855714,239907.8463317,300.05147598602343,20,True
backprop_opt_bc75a876ea3c76d3f60f6ccb7ff0c250,machsuite_xilinx,naive,backprop,xczu9eg-ffvb1156-2-i,10.0,2023.1.1,,7.357000000000001e-09,11985065.0,0.08817412320500001,11985065.0,0.08817412320500001,11985065.0,0.08817412320500001,102075.0,113719.0,720.0,64.0,0.0,239607.794850136,239834.204401011,226.40955087498878,21,False
backprop_opt_aea225282d06a1f3e32a55beabccf4c1,machsuite_xilinx,naive,,,,,,,,,,,,,,,,,,239607.794871291,239907.845890041,300.051018750004,22,True
backprop_opt_53a53c348a3bd63e0b611fed3ad29845,machsuite_xilinx,naive,backprop,xczu9eg-ffvb1156-2-i,10.0,2023.1.1,,7.386000000000001e-09,11743662.0,0.08673868753200001,11743662.0,0.08673868753200001,11743662.0,0.08673868753200001,24886.0,29848.0,147.0,54.0,0.0,239607.794909376,239708.764524225,100.9696148489893,23,False
backprop_opt_bb73cb58665ad8147eabbcd0255ed8bd,machsuite_xilinx,naive,,,,,,,,,,,,,,,,,,239607.794941638,239907.827068959,300.0321273209993,24,True
bfs_bulk_opt_ee592148aa8b94669fec2b1e4312b769,machsuite_xilinx,naive,bfs,xczu9eg-ffvb1156-2-i,10.0,2023.1.1,,6.936e-09,770.0,5.34072e-06,263690.0,0.00182895384,1044500.0,0.007244652,45244.0,70302.0,16.0,0.0,0.0,239607.794979712,239681.227681952,73.43270224001026,25,False
bfs_bulk_opt_5b227ae9456d8f93d814c258910dde91,machsuite_xilinx,naive,bfs,xczu9eg-ffvb1156-2-i,10.0,2023.1.1,,3.239e-09,770.0,2.49403e-06,373770.0,0.00121064103,1487380.0,0.00481762382,37726.0,19024.0,0.0,0.0,0.0,239607.795140269,239673.668727374,65.87358710498665,19,False
bfs_bulk_opt_4fac3c55de2c649c270ddf5e0f55ca07,machsuite_xilinx,naive,bfs,xczu9eg-ffvb1156-2-i,10.0,2023.1.1,,3.792e-09,770.0,2.9198400000000002e-06,209930.0,0.0007960545600000001,832020.0,0.00315501984,6406.0,33449.0,0.0,0.0,0.0,239607.795077645,239747.012263476,139.21718583101756,26,False
bfs_bulk_opt_98b6bec3322da7155b229a0beebc603f,machsuite_xilinx,naive,,,,,,,,,,,,,,,,,,239607.795118253,239907.862519236,300.0674009829818,27,True
bfs_bulk_opt_e0fc14298acba1a74adf8a2c0270e81d,machsuite_xilinx,naive,bfs,xczu9eg-ffvb1156-2-i,10.0,2023.1.1,,3.789e-09,770.0,2.91753e-06,216330.0,0.00081967437,855060.0,0.0032398223400000002,9205.0,1120.0,0.0,0.0,0.0,239607.795149573,239674.007906923,66.21275735000381,28,False
bfs_bulk_opt_ab9cd725994a79bcc8be9c4fb9beb706,machsuite_xilinx,naive,bfs,xczu9eg-ffvb1156-2-i,10.0,2023.1.1,,3.239e-09,770.0,2.49403e-06,208650.0,0.00067581735,826900.0,0.0026783291,665.0,463.0,0.0,0.0,0.0,239607.795272335,239629.235218016,21.439945680991514,29,False
bfs_bulk_opt_c66492efc3382fdf5eb7a30fe275b716,machsuite_xilinx,naive,bfs,xczu9eg-ffvb1156-2-i,10.0,2023.1.1,,3.239e-09,770.0,2.49403e-06,208650.0,0.00067581735,826900.0,0.0026783291,794.0,460.0,0.0,0.0,0.0,239607.795280676,239629.813968729,22.0186880530091,30,False
bfs_bulk_opt_bf92791b451e6c99826e846e19c237dc,machsuite_xilinx,naive,bfs,xczu9eg-ffvb1156-2-i,10.0,2023.1.1,,3.239e-09,770.0,2.49403e-06,209930.0,0.00067996327,832020.0,0.00269491278,1218.0,673.0,0.0,0.0,0.0,239607.795281235,239631.65608329,23.86080205498729,31,False
bfs_queue_opt_527b477977f505c4c7fcd4a28846ddf0,machsuite_xilinx,naive,,,,,,,,,,,,,,,,,,239629.235925324,239929.30293796,300.067012635991,29,True
bfs_queue_opt_0902da33fad7fd34c39395edd741ce64,machsuite_xilinx,naive,bfs,xczu9eg-ffvb1156-2-i,10.0,2023.1.1,,3.239e-09,1.0,3.239e-09,107137.0,0.000347016743,295169.0,0.000956052391,48967.0,13142.0,0.0,2.0,0.0,239629.814708719,239807.803979583,177.98927086399635,30,False
bfs_queue_opt_e14549afecbdd646fbb8fdcbaac0a4f2,machsuite_xilinx,naive,,,,,,,,,,,,,,,,,,239631.656846691,239931.719798946,300.06295225498616,31,True
bfs_queue_opt_50facba060af60a11f9e7e5b7aad171f,machsuite_xilinx,naive,,,,,,,,,,,,,,,,,,239637.115145281,239937.145083462,300.0299381810182,14,True
bfs_queue_opt_50ef906c1b71987064b0ac0379d3344e,machsuite_xilinx,naive,bfs,xczu9eg-ffvb1156-2-i,10.0,2023.1.1,,3.789e-09,1.0,3.789e-09,63361.0,0.000240074829,126721.0,0.000480145869,21859.0,2279.0,0.0,0.0,0.0,239638.681158606,239762.093824303,123.41266569701838,12,False
bfs_queue_opt_8e28e662ed58436c55ab068144936eaf,machsuite_xilinx,naive,bfs,xczu9eg-ffvb1156-2-i,10.0,2023.1.1,,3.239e-09,1.0,3.239e-09,61569.0,0.000199421991,123137.0,0.00039884074300000004,1018.0,341.0,0.0,1.0,0.0,239639.061501313,239657.047468418,17.985967104992596,13,False
bfs_queue_opt_b4ee26c68132d6f9889ead63a2a236e9,machsuite_xilinx,naive,bfs,xczu9eg-ffvb1156-2-i,10.0,2023.1.1,,3.239e-09,1.0,3.239e-09,61569.0,0.000199421991,123137.0,0.00039884074300000004,1481.0,422.0,0.0,0.0,0.0,239639.895420734,239658.456285718,18.560864983999636,15,False
bfs_queue_opt_3ca105cb502c4a7777b927f58799c6bf,machsuite_xilinx,naive,bfs,xczu9eg-ffvb1156-2-i,10.0,2023.1.1,,3.239e-09,1.0,3.239e-09,61697.0,0.000199836583,123393.0,0.000399669927,2709.0,842.0,0.0,0.0,0.0,239640.54943526,239663.483147501,22.933712241007015,8,False
fft_transpose_opt_e10e58d8e295e6114a5d80add746660f,machsuite_xilinx,naive,fft1D_512,xczu9eg-ffvb1156-2-i,10.0,2023.1.1,,7.266e-09,2732.0,1.9850712000000002e-05,2732.0,1.9850712000000002e-05,2732.0,1.9850712000000002e-05,445763.0,324017.0,4178.0,288.0,0.0,239642.075344481,239877.398576081,235.32323159999214,1,False
fft_transpose_opt_508faffb1792e07b5e36308c04f09bee,machsuite_xilinx,naive,,,,,,,,,,,,,,,,,,239642.954039564,239943.02358583,300.06954626599327,11,True
fft_transpose_opt_c1134149c5c1c5b7036ffc34effb7853,machsuite_xilinx,naive,fft1D_512,xczu9eg-ffvb1156-2-i,10.0,2023.1.1,,7.657e-09,13241.0,0.000101386337,13241.0,0.000101386337,13241.0,0.000101386337,116324.0,65494.0,466.0,208.0,0.0,239643.483953485,239729.228232603,85.74427911799285,7,False
fft_transpose_opt_2e0d417e6eed70555a55418ed62f2f43,machsuite_xilinx,naive,fft1D_512,xczu9eg-ffvb1156-2-i,10.0,2023.1.1,,7.445000000000001e-09,14309.0,0.00010653050500000001,14309.0,0.00010653050500000001,14309.0,0.00010653050500000001,56237.0,33290.0,400.0,128.0,0.0,239643.564130233,239706.583465308,63.019335075019626,10,False
fft_transpose_opt_44f559c79d650c3944e9af361ccfa52d,machsuite_xilinx,naive,fft1D_512,xczu9eg-ffvb1156-2-i,10.0,2023.1.1,,7.445000000000001e-09,4094.0,3.047983e-05,4094.0,3.047983e-05,4094.0,3.047983e-05,189781.0,135806.0,2023.0,180.0,0.0,239644.079526908,239782.207886792,138.12835988399456,6,False
fft_transpose_opt_72f23732230f0cf261e4aa10bf670396,machsuite_xilinx,naive,fft1D_512,xczu9eg-ffvb1156-2-i,10.0,2023.1.1,,7.461000000000001e-09,16066.0,0.00011986842600000002,16066.0,0.00011986842600000002,16066.0,0.00011986842600000002,72334.0,48694.0,449.0,92.0,0.0,239644.703178433,239715.69157628,70.98839784698794,2,False
fft_transpose_opt_30011cd2d1ccd189d3ecebcca131a6d1,machsuite_xilinx,naive,fft1D_512,xczu9eg-ffvb1156-2-i,10.0,2023.1.1,,7.445000000000001e-09,1947.0,1.4495415000000001e-05,1947.0,1.4495415000000001e-05,1947.0,1.4495415000000001e-05,202673.0,136943.0,1843.0,256.0,0.0,239645.955348245,239873.90159409,227.9462458449998,9,False
fft_transpose_opt_ff341eb90221a7e55b956d8cdecdd395,machsuite_xilinx,naive,fft1D_512,xczu9eg-ffvb1156-2-i,10.0,2023.1.1,,7.416000000000001e-09,13844.0,0.00010266710400000002,13844.0,0.00010266710400000002,13844.0,0.00010266710400000002,93208.0,55355.0,346.0,160.0,0.0,239647.72822034,239785.430118341,137.70189800098888,5,False
gemm_blocked_opt_df5e99c73b869644d1389b9a3e022b37,machsuite_xilinx,naive,,,,,,,,,,,,,,,,,,239648.181718123,239948.227946862,300.04622873899643,4,True
gemm_blocked_opt_909311b832da03ea54c4fc1dc699535e,machsuite_xilinx,naive,bbgemm,xczu9eg-ffvb1156-2-i,10.0,2023.1.1,,7.864e-09,199681.0,0.0015702913840000001,199681.0,0.0015702913840000001,199681.0,0.0015702913840000001,15319.0,21580.0,199.0,0.0,0.0,239648.314789736,239708.659365672,60.34457593600382,0,False
gemm_blocked_opt_60bb8e4d7d30bab541d545978c6c0616,machsuite_xilinx,naive,bbgemm,xczu9eg-ffvb1156-2-i,10.0,2023.1.1,,7.357000000000001e-09,163851.0,0.0012054518070000002,163851.0,0.0012054518070000002,163851.0,0.0012054518070000002,5987.0,10073.0,28.0,0.0,0.0,239648.462032748,239674.642178713,26.180145964986878,3,False
gemm_blocked_opt_e02054944426dc763c22189da225dce8,machsuite_xilinx,naive,bbgemm,xczu9eg-ffvb1156-2-i,10.0,2023.1.1,,7.042e-09,1572871.0,0.011076157582,1572871.0,0.011076157582,1572871.0,0.011076157582,1922.0,1494.0,14.0,0.0,0.0,239657.048131367,239676.024406546,18.97627517901128,13,False
gemm_blocked_opt_e3fd564598c9dc2071fa51d59cb8b76f,machsuite_xilinx,naive,,,,,,,,,,,,,,,,,,239658.456990953,239958.524634391,300.06764343800023,15,True
gemm_blocked_opt_6bb94355158af2e3cc354e234e03a44f,machsuite_xilinx,naive,bbgemm,xczu9eg-ffvb1156-2-i,10.0,2023.1.1,,7.042e-09,229385.0,0.0016153291700000002,229385.0,0.0016153291700000002,229385.0,0.0016153291700000002,4493.0,3542.0,34.0,0.0,0.0,239663.483752154,239681.793883942,18.310131788020954,8,False
gemm_blocked_opt_b189dee4b7da270b420da7eeba30441e,machsuite_xilinx,naive,,,,,,,,,,,,,,,,,,239673.669497435,239973.716491016,300.04699358099606,19,True
gemm_blocked_opt_e47ecb4f4c74588820ec55a3ba3af96c,machsuite_xilinx,naive,bbgemm,xczu9eg-ffvb1156-2-i,10.0,2023.1.1,,7.042e-09,225281.0,0.001586428802,225281.0,0.001586428802,225281.0,0.001586428802,2931.0,5862.0,28.0,0.0,0.0,239674.008621956,239694.943683229,20.935061273019528,28,False
gemm_ncubed_opt_8132e74ec3ba2aebe2114ce8b4a2b02a,machsuite_xilinx,naive,,,,,,,,,,,,,,,,,,239674.642787927,239974.675618428,300.03283050100436,3,True
gemm_ncubed_opt_2c74945a1e24f9630b297dbd4fd96619,machsuite_xilinx,naive,gemm,xczu9eg-ffvb1156-2-i,10.0,2023.1.1,,7.475e-09,131336.0,0.0009817366000000002,131336.0,0.0009817366000000002,131336.0,0.0009817366000000002,8275.0,19153.0,28.0,0.0,0.0,239676.024981392,239712.445738733,36.420757340994896,13,False
gemm_ncubed_opt_6476ed1f4fec3482fe4fde269fde4727,machsuite_xilinx,naive,gemm,xczu9eg-ffvb1156-2-i,10.0,2023.1.1,,7.298e-09,1355777.0,0.009894460546000001,1355777.0,0.009894460546000001,1355777.0,0.009894460546000001,3493.0,3920.0,14.0,0.0,0.0,239681.228439811,239704.867128591,23.638688779989025,25,False
gemm_ncubed_opt_bad2ba1f6b202284722b1d261d947f24,machsuite_xilinx,naive,gemm,xczu9eg-ffvb1156-2-i,10.0,2023.1.1,,7.042e-09,1355777.0,0.009547381634,1355777.0,0.009547381634,1355777.0,0.009547381634,2376.0,2472.0,14.0,0.0,0.0,239681.794512682,239701.465365712,19.67085302999476,8,False
gemm_ncubed_opt_8856e33cf4638eddd65764e897663af3,machsuite_xilinx,naive,gemm,xczu9eg-ffvb1156-2-i,10.0,2023.1.1,,7.042e-09,1355777.0,0.009547381634,1355777.0,0.009547381634,1355777.0,0.009547381634,1408.0,1350.0,14.0,0.0,0.0,239694.944257502,239714.037826805,19.093569302989636,28,False
gemm_ncubed_opt_9714e47535bf486a3b44dd8e85d62abe,machsuite_xilinx,naive,gemm,xczu9eg-ffvb1156-2-i,10.0,2023.1.1,,7.335000000000001e-09,33033.0,0.00024229705500000004,33033.0,0.00024229705500000004,33033.0,0.00024229705500000004,31342.0,95642.0,112.0,0.0,0.0,239701.465857526,239968.709059297,267.24320177099435,8,False
gemm_ncubed_opt_14871ab1d620f7d0e7f24afeeb94571f,machsuite_xilinx,naive,gemm,xczu9eg-ffvb1156-2-i,10.0,2023.1.1,,7.042e-09,1355777.0,0.009547381634,1355777.0,0.009547381634,1355777.0,0.009547381634,1348.0,1321.0,14.0,0.0,0.0,239704.867708365,239722.449496897,17.581788531999337,25,False
gemm_ncubed_opt_6bb9a674b083d49aab9e4d8c68754353,machsuite_xilinx,naive,gemm,xczu9eg-ffvb1156-2-i,10.0,2023.1.1,,7.042e-09,1355777.0,0.009547381634,1355777.0,0.009547381634,1355777.0,0.009547381634,1359.0,1348.0,14.0,0.0,0.0,239706.584161857,239724.376184522,17.79202266500215,10,False
md_grid_opt_31bbea8781713c3689e7a4aeff62b3f6,machsuite_xilinx,naive,,,,,,,,,,,,,,,,,,239708.65996376,240008.714223587,300.05425982701126,0,True
md_grid_opt_81fb9d232d686be93761610ac988fc8d,machsuite_xilinx,naive,md,xczu9eg-ffvb1156-2-i,10.0,2023.1.1,,7.357000000000001e-09,2049.0,1.5074493000000002e-05,5887745.0,0.04331613996500001,355803393.0,2.6176455623010004,9918.0,8539.0,86.0,0.0,0.0,239708.768292912,239735.150192067,26.381899155006977,23,False
md_grid_opt_56e4b2baf587e2338aeea0a98ac7872d,machsuite_xilinx,naive,md,xczu9eg-ffvb1156-2-i,10.0,2023.1.1,,7.357000000000001e-09,6721.0,4.944639700000001e-05,5916929.0,0.043530846653000006,356663553.0,2.623973759421,37680.0,23754.0,86.0,0.0,0.0,239712.446418367,239824.30471415,111.85829578299308,13,False
md_grid_opt_c13629ab2dc07d9bf47f9abaf99934f5,machsuite_xilinx,naive,md,xczu9eg-ffvb1156-2-i,10.0,2023.1.1,,7.475e-09,3649.0,2.7276275000000003e-05,5905153.0,0.044141018675000004,356344065.0,2.6636718858750004,23356.0,14258.0,86.0,0.0,0.0,239714.03845565,239772.233545189,58.19508953898912,28,False
md_grid_opt_7403f646f66ae27cbda9366056b9eaa2,machsuite_xilinx,naive,md,xczu9eg-ffvb1156-2-i,10.0,2023.1.1,,7.445000000000001e-09,7425.0,5.5279125000000006e-05,1468161.0,0.010930458645,33960193.0,0.25283363688500005,9965.0,12891.0,86.0,0.0,0.0,239715.69218328,239744.15970571,28.467522429971723,2,False
md_grid_opt_e7339a0c849b3d6605240a05c2615495,machsuite_xilinx,naive,md,xczu9eg-ffvb1156-2-i,10.0,2023.1.1,,7.298e-09,1281.0,9.348738e-06,5856001.0,0.042737095298,354771201.0,2.589120224898,10481.0,7133.0,86.0,0.0,0.0,239722.450148082,239754.296076805,31.845928723021643,25,False
md_grid_opt_45dc342d9adbe3911b2e9ef94412310c,machsuite_xilinx,naive,,,,,,,,,,,,,,,,,,239724.376810051,240024.411324717,300.034514665982,10,True
md_grid_opt_1a59146583a31a542d04a0794e2b1c83,machsuite_xilinx,naive,md,xczu9eg-ffvb1156-2-i,10.0,2023.1.1,,7.042e-09,6401.0,4.5075842e-05,1261953.0,0.008886673026,28574081.0,0.201218678402,7770.0,7820.0,110.0,0.0,0.0,239729.228874021,239749.497343997,20.268469975999324,7,False
md_knn_opt_c6af895903dc744076d4d56b85b3f70f,machsuite_xilinx,naive,,,,,,,,,,,,,,,,,,239735.150860936,240035.183183128,300.03232219201163,23,True
md_knn_opt_ea97a3404cf810d4c5eaa2ab7e9ea3ea,machsuite_xilinx,naive,md_kernel,xczu9eg-ffvb1156-2-i,10.0,2023.1.1,,7.848e-09,2330.0,1.828584e-05,2330.0,1.828584e-05,2330.0,1.828584e-05,41379.0,91674.0,282.0,0.0,0.0,239744.160290284,239924.240994894,180.08070461000898,2,False
md_knn_opt_0c68fd39f98be1608d3e85bec34c7ac7,machsuite_xilinx,naive,,,,,,,,,,,,,,,,,,239747.013309004,240047.076115708,300.0628067040234,26,True
md_knn_opt_dd6205404d659707b7fcb26d468deb03,machsuite_xilinx,naive,,,,,,,,,,,,,,,,,,239749.49786728,240049.560149486,300.06228220599587,7,True
md_knn_opt_84ebdbf133e9d0ec765b3c7c74c9bbd3,machsuite_xilinx,naive,md_kernel,xczu9eg-ffvb1156-2-i,10.0,2023.1.1,,7.701e-09,44033.0,0.00033909813300000004,44033.0,0.00033909813300000004,44033.0,0.00033909813300000004,9500.0,11820.0,62.0,0.0,0.0,239754.296699813,239779.841716248,25.54501643497497,25,False
md_knn_opt_6646246189f4da04954c0191ab4ef065,machsuite_xilinx,naive,md_kernel,xczu9eg-ffvb1156-2-i,10.0,2023.1.1,,7.43e-09,43777.0,0.00032526311,43777.0,0.00032526311,43777.0,0.00032526311,5410.0,6095.0,42.0,0.0,0.0,239762.094419778,239786.823589267,24.729169489000924,12,False
md_knn_opt_2b793528f1081b2a225b75789c666d65,machsuite_xilinx,naive,md_kernel,xczu9eg-ffvb1156-2-i,10.0,2023.1.1,,7.416000000000001e-09,43777.0,0.00032465023200000005,43777.0,0.00032465023200000005,43777.0,0.00032465023200000005,4176.0,6268.0,42.0,0.0,0.0,239772.234147117,239791.675726276,19.441579158999957,28,False
md_knn_opt_043e15d06e35f57ef93d947a060ac65f,machsuite_xilinx,naive,md_kernel,xczu9eg-ffvb1156-2-i,10.0,2023.1.1,,7.445000000000001e-09,43777.0,0.000325919765,43777.0,0.000325919765,43777.0,0.000325919765,5873.0,8341.0,45.0,0.0,0.0,239779.842363571,239800.762949427,20.92058585601626,25,False
nw_opt_65f627ce09668df312e49bb6c7c4d748,machsuite_xilinx,naive,needwun,xczu9eg-ffvb1156-2-i,10.0,2023.1.1,,7.011000000000001e-09,,,,,,,19766.0,2018.0,0.0,0.0,0.0,239782.208502365,239836.804483411,54.59598104597535,6,False
nw_opt_843ddc231b5dadc33489f41d937a24d5,machsuite_xilinx,naive,needwun,xczu9eg-ffvb1156-2-i,10.0,2023.1.1,,6.559e-09,,,,,,,10536.0,2126.0,0.0,0.0,0.0,239785.430701777,239822.070685622,36.63998384500155,5,False
nw_opt_68079e408604287125cc61e96e6c2bd6,machsuite_xilinx,naive,needwun,xczu9eg-ffvb1156-2-i,10.0,2023.1.1,,7.2070000000000004e-09,,,,,,,18841.0,889.0,0.0,0.0,0.0,239786.824145842,239848.052998215,61.22885237299488,12,False
nw_opt_1edd21caf60786f4d7d6af1a7d21e81a,machsuite_xilinx,naive,needwun,xczu9eg-ffvb1156-2-i,10.0,2023.1.1,,7.2070000000000004e-09,,,,,,,19662.0,1957.0,0.0,0.0,0.0,239791.676324913,239850.796280035,59.119955122005194,28,False
nw_opt_377f351b68596748e1e8505ce6a90314,machsuite_xilinx,naive,needwun,xczu9eg-ffvb1156-2-i,10.0,2023.1.1,,7.011000000000001e-09,,,,,,,22257.0,4347.0,0.0,0.0,0.0,239800.763551234,239903.647853959,102.88430272499681,25,False
nw_opt_b51e47d9f67ccf0e696569d33ed468f3,machsuite_xilinx,naive,needwun,xczu9eg-ffvb1156-2-i,10.0,2023.1.1,,7.2070000000000004e-09,,,,,,,18302.0,3033.0,0.0,0.0,0.0,239807.804621145,239926.951015334,119.1463941889815,30,False
nw_opt_b4f652091dee2e703f676bd11b08354e,machsuite_xilinx,naive,needwun,xczu9eg-ffvb1156-2-i,10.0,2023.1.1,,6.559e-09,,,,,,,9086.0,2070.0,0.0,0.0,0.0,239822.071302799,239851.058115766,28.986812966992147,5,False
nw_opt_be18acecbf0705a233b2dbe692f3ae33,machsuite_xilinx,naive,needwun,xczu9eg-ffvb1156-2-i,10.0,2023.1.1,,6.847000000000001e-09,,,,,,,6465.0,1146.0,0.0,0.0,0.0,239824.305286881,239849.411700698,25.106413817004068,13,False
sort_merge_opt_b545a9d60b62345ada89f7612311a25f,machsuite_xilinx,naive,ms_mergesort,xczu9eg-ffvb1156-2-i,10.0,2023.1.1,,6.111e-09,,,,,,,2398.0,945.0,0.0,4.0,0.0,239834.205096166,239853.468164909,19.26306874299189,21,False
sort_merge_opt_a9b270b786a758c27531e27a80f392a5,machsuite_xilinx,naive,ms_mergesort,xczu9eg-ffvb1156-2-i,10.0,2023.1.1,,3.923000000000001e-09,,,,,,,2800.0,1288.0,0.0,4.0,0.0,239836.805051029,239855.900653943,19.095602914021583,6,False
sort_merge_opt_91aaba51605a0aacd84c8f1a808d5367,machsuite_xilinx,naive,ms_mergesort,xczu9eg-ffvb1156-2-i,10.0,2023.1.1,,5.539e-09,,,,,,,1914.0,860.0,0.0,4.0,0.0,239848.053579994,239866.825849389,18.77226939497632,12,False
sort_merge_opt_8f37aeb3f19752e891d8020d616969b7,machsuite_xilinx,naive,ms_mergesort,xczu9eg-ffvb1156-2-i,10.0,2023.1.1,,6.404000000000001e-09,,,,,,,17135.0,7083.0,0.0,4.0,0.0,239849.412265209,239886.125580497,36.71331528801238,13,False
sort_merge_opt_3c53f8c18a1a89a93bdd55c1bbf5154c,machsuite_xilinx,naive,ms_mergesort,xczu9eg-ffvb1156-2-i,10.0,2023.1.1,,6.111e-09,,,,,,,1617.0,942.0,0.0,4.0,0.0,239850.796939912,239869.883929527,19.086989614996128,28,False
sort_merge_opt_750aa3aa7f33b182f908c10293046102,machsuite_xilinx,naive,ms_mergesort,xczu9eg-ffvb1156-2-i,10.0,2023.1.1,,6.367e-09,,,,,,,3196.0,1537.0,0.0,4.0,0.0,239851.058699543,239870.238768787,19.18006924400106,5,False
sort_merge_opt_1e212271c7f4597ef4bbae84aee72b91,machsuite_xilinx,naive,ms_mergesort,xczu9eg-ffvb1156-2-i,10.0,2023.1.1,,5.539e-09,,,,,,,2173.0,1049.0,0.0,4.0,0.0,239853.468747808,239874.886717469,21.4179696610081,21,False
sort_merge_opt_22626228db848cb9cb7f47c35ce6388c,machsuite_xilinx,naive,ms_mergesort,xczu9eg-ffvb1156-2-i,10.0,2023.1.1,,6.367e-09,,,,,,,3196.0,1537.0,0.0,4.0,0.0,239855.90127541,239875.267351389,19.36607597899274,6,False
sort_radix_opt_55e7d777589d8f5fe857cf370c83bb59,machsuite_xilinx,naive,ss_sort,xczu9eg-ffvb1156-2-i,10.0,2023.1.1,,4.2110000000000005e-09,168369.0,0.000709001859,168369.0,0.000709001859,168369.0,0.000709001859,13118.0,2568.0,0.0,0.0,0.0,239866.826396406,239901.399693432,34.57329702601419,12,False
sort_radix_opt_196be84b23eeece67a207bc559824a1a,machsuite_xilinx,naive,ss_sort,xczu9eg-ffvb1156-2-i,10.0,2023.1.1,,3.862e-09,231793.0,0.0008951845660000001,231793.0,0.0008951845660000001,231793.0,0.0008951845660000001,20073.0,7513.0,0.0,0.0,0.0,239869.884561372,239921.461626806,51.57706543401582,28,False
sort_radix_opt_1e8d05393d9b881d6b2f6f7742b356e9,machsuite_xilinx,naive,,,,,,,,,,,,,,,,,,239870.239383583,240170.296790311,300.0574067280104,5,True
sort_radix_opt_a4cd3a342e090d8b96469ab8dd8bcdd2,machsuite_xilinx,naive,ss_sort,xczu9eg-ffvb1156-2-i,10.0,2023.1.1,,7.112e-09,116113.0,0.000825795656,116113.0,0.000825795656,116113.0,0.000825795656,25759.0,12424.0,0.0,0.0,0.0,239873.902241761,239909.130664175,35.22842241398757,9,False
sort_radix_opt_84bbe852b927cbed11648809897bba38,machsuite_xilinx,naive,,,,,,,,,,,,,,,,,,239874.887552085,240174.934107889,300.0465558040014,21,True
sort_radix_opt_45df591a4bac8bd66cb869ae83b213e8,machsuite_xilinx,naive,ss_sort,xczu9eg-ffvb1156-2-i,10.0,2023.1.1,,6.538e-09,132577.0,0.0008667884260000001,132577.0,0.0008667884260000001,132577.0,0.0008667884260000001,19837.0,11657.0,0.0,0.0,0.0,239875.275841543,239918.130450895,42.85460935198353,6,False
sort_radix_opt_f45add67307f63a2251ecfa20896fe17,machsuite_xilinx,naive,ss_sort,xczu9eg-ffvb1156-2-i,10.0,2023.1.1,,5.301000000000001e-09,132561.0,0.0007027058610000001,132561.0,0.0007027058610000001,132561.0,0.0007027058610000001,26799.0,10074.0,0.0,0.0,0.0,239877.399183422,239920.213403211,42.814219788997434,1,False
sort_radix_opt_63f378b39375eca8e49d951c22754d4e,machsuite_xilinx,naive,ss_sort,xczu9eg-ffvb1156-2-i,10.0,2023.1.1,,6.538e-09,132561.0,0.000866683818,132561.0,0.000866683818,132561.0,0.000866683818,18293.0,8649.0,0.0,0.0,0.0,239885.458607383,239922.338294643,36.87968725999235,17,False
spmv_crs_opt_e912c461b10d6a05fea05b16cfe9b2b8,machsuite_xilinx,naive,spmv,xczu9eg-ffvb1156-2-i,10.0,2023.1.1,,7.475e-09,,,,,,,23305.0,18999.0,14.0,0.0,0.0,239886.126568181,239945.540278208,59.4137100270018,13,False
spmv_crs_opt_5024ce6f1fa75992a6798b81a568d97e,machsuite_xilinx,naive,spmv,xczu9eg-ffvb1156-2-i,10.0,2023.1.1,,7.042e-09,,,,,,,1655.0,1535.0,14.0,0.0,0.0,239901.400350852,239919.368839003,17.96848815100384,12,False
spmv_crs_opt_9bd54b79f13bd6ee6c034a1f9dc10417,machsuite_xilinx,naive,spmv,xczu9eg-ffvb1156-2-i,10.0,2023.1.1,,7.298e-09,,,,,,,8187.0,6120.0,14.0,0.0,0.0,239903.64844738,239929.074057175,25.42560979499831,25,False
spmv_crs_opt_d9bec415b6697612c43cf37dccf76989,machsuite_xilinx,naive,spmv,xczu9eg-ffvb1156-2-i,10.0,2023.1.1,,7.042e-09,,,,,,,4710.0,3596.0,14.0,0.0,0.0,239907.828112045,239930.54189193,22.713779885001713,24,False
spmv_crs_opt_4a302c56b8c95183cd7562f40a2bc9f3,machsuite_xilinx,naive,spmv,xczu9eg-ffvb1156-2-i,10.0,2023.1.1,,7.042e-09,,,,,,,1612.0,1641.0,14.0,0.0,0.0,239907.846877541,239926.968074794,19.12119725299999,22,False
spmv_crs_opt_73e65f89ec8b0bcb3adc1b9567a0378a,machsuite_xilinx,naive,spmv,xczu9eg-ffvb1156-2-i,10.0,2023.1.1,,7.298e-09,,,,,,,6804.0,7488.0,14.0,0.0,0.0,239907.847209815,239934.147899027,26.30068921201746,20,False
spmv_crs_opt_facdb98f711eab08927114732d6f57c7,machsuite_xilinx,naive,spmv,xczu9eg-ffvb1156-2-i,10.0,2023.1.1,,7.042e-09,,,,,,,1513.0,1626.0,14.0,0.0,0.0,239907.863492975,239925.746097147,17.882604171987623,27,False
spmv_crs_opt_06a50a1a6c403f2dfa8f8acd119f9527,machsuite_xilinx,naive,spmv,xczu9eg-ffvb1156-2-i,10.0,2023.1.1,,7.042e-09,,,,,,,1546.0,1638.0,14.0,0.0,0.0,239907.872620531,239926.844381261,18.971760729997186,18,False
spmv_ellpack_opt_f0ade323a8934170348a592b246e78cb,machsuite_xilinx,naive,ellpack,xczu9eg-ffvb1156-2-i,10.0,2023.1.1,,7.298e-09,25202.0,0.000183924196,25202.0,0.000183924196,25202.0,0.000183924196,2712.0,2911.0,14.0,0.0,0.0,239907.882076421,239929.791069946,21.908993524994003,16,False
spmv_ellpack_opt_8df5385bdb22ff8d80096e58b65310d3,machsuite_xilinx,naive,ellpack,xczu9eg-ffvb1156-2-i,10.0,2023.1.1,,7.386000000000001e-09,2528.0,1.8671808e-05,2528.0,1.8671808e-05,2528.0,1.8671808e-05,8211.0,7296.0,28.0,0.0,0.0,239909.131301336,239937.660576925,28.529275589011377,9,False
spmv_ellpack_opt_0243ec06e5b17d37b202280db73c75d0,machsuite_xilinx,naive,ellpack,xczu9eg-ffvb1156-2-i,10.0,2023.1.1,,7.042e-09,31123.0,0.00021916816600000001,31123.0,0.00021916816600000001,31123.0,0.00021916816600000001,1724.0,1436.0,14.0,0.0,0.0,239918.131046465,239937.764348784,19.63330231900909,6,False
spmv_ellpack_opt_a060c371270618826c06d5b63a52e003,machsuite_xilinx,naive,ellpack,xczu9eg-ffvb1156-2-i,10.0,2023.1.1,,7.298e-09,25202.0,0.000183924196,25202.0,0.000183924196,25202.0,0.000183924196,4217.0,2891.0,14.0,0.0,0.0,239919.369516277,239941.048141887,21.678625610016752,12,False
spmv_ellpack_opt_087a494a0bc991a1621bf8fbeaffb745,machsuite_xilinx,naive,,,,,,,,,,,,,,,,,,239920.213963159,240220.241416359,300.0274531999894,1,True
spmv_ellpack_opt_211c4c27921b7ede1f7805dd553d8046,machsuite_xilinx,naive,,,,,,,,,,,,,,,,,,239921.462196059,240221.494944245,300.0327481860004,28,True
spmv_ellpack_opt_5e45573378086c251c6a48fc6587c6ae,machsuite_xilinx,naive,ellpack,xczu9eg-ffvb1156-2-i,10.0,2023.1.1,,7.298e-09,25202.0,0.000183924196,25202.0,0.000183924196,25202.0,0.000183924196,3697.0,2909.0,14.0,0.0,0.0,239922.338854923,239944.362526507,22.023671584000112,17,False
spmv_ellpack_opt_0c37d2f9d28aeaa5c4cc18cc984e5185,machsuite_xilinx,naive,ellpack,xczu9eg-ffvb1156-2-i,10.0,2023.1.1,,7.042e-09,31123.0,0.00021916816600000001,31123.0,0.00021916816600000001,31123.0,0.00021916816600000001,1339.0,1383.0,14.0,0.0,0.0,239924.241604977,239941.851353852,17.609748874994693,2,False
stencil2D_opt_0dd4fc56c460ee82b3e858a6456f2b21,machsuite_xilinx,naive,stencil,xczu9eg-ffvb1156-2-i,10.0,2023.1.1,,6.84e-09,39069.0,0.00026723196,39069.0,0.00026723196,39069.0,0.00026723196,1625.0,643.0,6.0,0.0,0.0,239925.746722389,239945.151468854,19.404746464977507,27,False
stencil2D_opt_fde89f26085d4e4739d0f635cb9afd93,machsuite_xilinx,naive,stencil,xczu9eg-ffvb1156-2-i,10.0,2023.1.1,,6.85e-09,35790.0,0.0002451615,35790.0,0.0002451615,35790.0,0.0002451615,2331.0,1007.0,6.0,0.0,0.0,239926.845031881,239949.310683508,22.46565162698971,18,False
stencil2D_opt_8cf4e238c49b4c7e80a21bbdb6c87d38,machsuite_xilinx,naive,stencil,xczu9eg-ffvb1156-2-i,10.0,2023.1.1,,6.608e-09,39069.0,0.000258167952,39069.0,0.000258167952,39069.0,0.000258167952,2217.0,642.0,6.0,0.0,0.0,239926.951638953,239949.923380012,22.97174105900922,30,False
stencil2D_opt_e4a15c39545b08edc158f4e4f729a1e5,machsuite_xilinx,naive,stencil,xczu9eg-ffvb1156-2-i,10.0,2023.1.1,,6.404000000000001e-09,4164.0,2.6666256000000002e-05,4164.0,2.6666256000000002e-05,4164.0,2.6666256000000002e-05,20243.0,5297.0,141.0,0.0,0.0,239926.968751372,239975.562671163,48.593919790990185,22,False
stencil2D_opt_518be3d1dff9fbabb5ed5a9c38525437,machsuite_xilinx,naive,stencil,xczu9eg-ffvb1156-2-i,10.0,2023.1.1,,6.5950000000000005e-09,11728.0,7.734616000000001e-05,11728.0,7.734616000000001e-05,11728.0,7.734616000000001e-05,1805.0,942.0,18.0,0.0,0.0,239929.074710245,239948.684882531,19.610172285989393,25,False
stencil2D_opt_726cff7db90b9e5393b41e5581bf46ce,machsuite_xilinx,naive,stencil,xczu9eg-ffvb1156-2-i,10.0,2023.1.1,,6.84e-09,15634.0,0.00010693656,15634.0,0.00010693656,15634.0,0.00010693656,1700.0,674.0,15.0,0.0,0.0,239929.303683199,239948.276859824,18.97317662500427,29,False
stencil2D_opt_abbd8484cf74479d0fb841f46bb48e80,machsuite_xilinx,naive,stencil,xczu9eg-ffvb1156-2-i,10.0,2023.1.1,,6.608e-09,54942.0,0.00036305673600000004,54942.0,0.00036305673600000004,54942.0,0.00036305673600000004,2118.0,594.0,6.0,0.0,0.0,239929.791758167,239950.013518239,20.221760071988683,16,False
stencil2D_opt_384720b71623b3894cea137ee723f201,machsuite_xilinx,naive,stencil,xczu9eg-ffvb1156-2-i,10.0,2023.1.1,,6.404000000000001e-09,86185.0,0.00055192874,86185.0,0.00055192874,86185.0,0.00055192874,434.0,124.0,6.0,0.0,0.0,239930.542584886,239947.642869699,17.100284813001053,24,False
stencil3D_opt_cfee41c3c7af95b3eb292018ed8d1095,machsuite_xilinx,naive,stencil3d,xczu9eg-ffvb1156-2-i,10.0,2023.1.1,,7.135e-09,3229.0,2.3038914999999998e-05,3229.0,2.3038914999999998e-05,3229.0,2.3038914999999998e-05,23550.0,3514.0,30.0,0.0,0.0,239931.720566632,240011.190270581,79.46970394899836,31,False
stencil3D_opt_0f4712d94bfefdade3161ea139f4be23,machsuite_xilinx,naive,stencil3d,xczu9eg-ffvb1156-2-i,10.0,2023.1.1,,6.546e-09,38765.0,0.00025375569,38765.0,0.00025375569,38765.0,0.00025375569,7644.0,1531.0,3.0,0.0,0.0,239934.148558763,239960.528699516,26.38014075299725,20,False
stencil3D_opt_5d9ca878e13fae93b76e94511c0e7021,machsuite_xilinx,naive,stencil3d,xczu9eg-ffvb1156-2-i,10.0,2023.1.1,,7.135e-09,1187.0,8.469245e-06,1187.0,8.469245e-06,1187.0,8.469245e-06,71790.0,11017.0,96.0,0.0,0.0,239937.145839607,240118.496891144,181.35105153699988,14,False
stencil3D_opt_2b3bc4957f12844bd0f1623b27828ec5,machsuite_xilinx,naive,stencil3d,xczu9eg-ffvb1156-2-i,10.0,2023.1.1,,7.135e-09,1199.0,8.554865e-06,1199.0,8.554865e-06,1199.0,8.554865e-06,74117.0,16957.0,96.0,0.0,0.0,239937.661150698,240115.576592372,177.9154416740057,9,False
stencil3D_opt_5716fe3b6b2974e3cb9f35bc4c137cda,machsuite_xilinx,naive,,,,,,,,,,,,,,,,,,239937.76494201,240237.825227223,300.06028521299595,6,True
stencil3D_opt_61167d96bf076415434e29adf9caa335,machsuite_xilinx,naive,stencil3d,xczu9eg-ffvb1156-2-i,10.0,2023.1.1,,6.831000000000001e-09,4221.0,2.8833651000000004e-05,4221.0,2.8833651000000004e-05,4221.0,2.8833651000000004e-05,12143.0,2559.0,42.0,0.0,0.0,239941.048734464,239969.239126823,28.190392358985264,12,False
stencil3D_opt_15a4bef77e97aea72ec77a43d1f24b07,machsuite_xilinx,naive,stencil3d,xczu9eg-ffvb1156-2-i,10.0,2023.1.1,,7.135e-09,22696.0,0.00016193596,22696.0,0.00016193596,22696.0,0.00016193596,45523.0,5004.0,9.0,0.0,0.0,239941.851963433,240203.614352897,261.7623894640128,2,False
stencil3D_opt_54f58f9379a4e23095efb5cc67fc6148,machsuite_xilinx,naive,stencil3d,xczu9eg-ffvb1156-2-i,10.0,2023.1.1,,7.135e-09,14001.0,9.9897135e-05,14001.0,9.9897135e-05,14001.0,9.9897135e-05,31033.0,4237.0,6.0,0.0,0.0,239943.024318686,240182.102376594,239.0780579080165,11,False
viterbi_opt_89e95fd09eff30aab0868315fdc62ea6,machsuite_xilinx,naive,viterbi,xczu9eg-ffvb1156-2-i,10.0,2023.1.1,,7.2340000000000005e-09,820908.0,0.0059384484720000005,820908.0,0.0059384484720000005,820908.0,0.0059384484720000005,9083.0,5221.0,9.0,44.0,0.0,239944.36312855,239969.572942171,25.209813621011563,17,False
viterbi_opt_de66f241e27fafe696b9fe7026d177e6,machsuite_xilinx,naive,viterbi,xczu9eg-ffvb1156-2-i,10.0,2023.1.1,,7.136e-09,820907.0,0.0058579923520000006,820907.0,0.0058579923520000006,820907.0,0.0058579923520000006,8780.0,4821.0,9.0,64.0,0.0,239945.152076734,239968.510284568,23.35820783401141,27,False
viterbi_opt_ce9104942f071a50ce7311cc14898787,machsuite_xilinx,naive,viterbi,xczu9eg-ffvb1156-2-i,10.0,2023.1.1,,7.579e-09,678988.0,0.005146050052,678988.0,0.005146050052,678988.0,0.005146050052,35148.0,13488.0,9.0,128.0,0.0,239945.540878656,239988.280037464,42.73915880799177,13,False
viterbi_opt_1801f7fb3d99fa0cdda259f915c51cb3,machsuite_xilinx,naive,viterbi,xczu9eg-ffvb1156-2-i,10.0,2023.1.1,,7.095e-09,838700.0,0.0059505765,838700.0,0.0059505765,838700.0,0.0059505765,16947.0,7630.0,6.0,128.0,0.0,239947.643502865,239974.666423324,27.02292045901413,24,False
viterbi_opt_301177b8fc0bca8cac0e15385c75800d,machsuite_xilinx,naive,viterbi,xczu9eg-ffvb1156-2-i,10.0,2023.1.1,,7.166000000000001e-09,837304.0,0.006000120464000001,837304.0,0.006000120464000001,837304.0,0.006000120464000001,40706.0,13702.0,6.0,128.0,0.0,239948.228659033,239987.906341698,39.67768266500207,4,False
viterbi_opt_fe8ccc7b84cf1fdf6872ddd4de6bcd8f,machsuite_xilinx,naive,viterbi,xczu9eg-ffvb1156-2-i,10.0,2023.1.1,,7.027000000000001e-09,829804.0,0.0058310327080000005,829804.0,0.0058310327080000005,829804.0,0.0058310327080000005,9944.0,5412.0,6.0,64.0,0.0,239948.277480574,239972.671951483,24.39447090899921,29,False
viterbi_opt_94eb4cd12d57775384a58ec3e95d97e0,machsuite_xilinx,naive,viterbi,xczu9eg-ffvb1156-2-i,10.0,2023.1.1,,7.43e-09,820908.0,0.00609934644,820908.0,0.00609934644,820908.0,0.00609934644,10610.0,5218.0,9.0,44.0,0.0,239948.685639792,239976.54050406,27.85486426798161,25,False
viterbi_opt_1d7c190d94f9fbff866dc32acecf5c3e,machsuite_xilinx,naive,viterbi,xczu9eg-ffvb1156-2-i,10.0,2023.1.1,,6.739e-09,828408.0,0.005582641512,828408.0,0.005582641512,828408.0,0.005582641512,41838.0,15284.0,6.0,128.0,0.0,239949.311376228,239988.907014629,39.59563840099145,18,False
gsm_opt_21690a955914018aa275971f2f423857,chstone_xilinx,naive,Gsm_LPC_Analysis,xczu9eg-ffvb1156-2-i,10.0,2023.1.1,,7.26e-09,108.0,7.8408e-07,440.0,3.1944000000000003e-06,990.0,7.1874e-06,51977.0,17138.0,87.0,4.0,0.0,240237.896191515,240300.30269399,62.406502475001616,0,False
gsm_opt_27c4dc8848daaa91366fd06e8511c808,chstone_xilinx,naive,Gsm_LPC_Analysis,xczu9eg-ffvb1156-2-i,10.0,2023.1.1,,7.1670000000000006e-09,376.0,2.6947920000000002e-06,758.0,5.432586e-06,1279.0,9.166593e-06,36826.0,15428.0,45.0,4.0,0.0,240237.896522476,240303.272285013,65.37576253700536,1,False
gsm_opt_27863689f8abfb23e9d96304bae8f117,chstone_xilinx,naive,Gsm_LPC_Analysis,xczu9eg-ffvb1156-2-i,10.0,2023.1.1,,7.26e-09,103.0,7.4778e-07,428.0,3.10728e-06,970.0,7.0422e-06,100594.0,21675.0,222.0,4.0,0.0,240237.896465,240304.230233221,66.33376822099672,2,False
gsm_opt_fc0fcb3053f2eeb9e1c660093414c4db,chstone_xilinx,naive,Gsm_LPC_Analysis,xczu9eg-ffvb1156-2-i,10.0,2023.1.1,,7.2960000000000004e-09,108.0,7.879680000000001e-07,422.0,3.078912e-06,900.0,6.5664e-06,73442.0,19636.0,139.0,4.0,0.0,240237.896505721,240302.873124516,64.97661879498628,3,False
gsm_opt_0825d38964e1f45ee6f4b4e5a77df443,chstone_xilinx,naive,Gsm_LPC_Analysis,xczu9eg-ffvb1156-2-i,10.0,2023.1.1,,7.26e-09,108.0,7.8408e-07,420.0,3.0492e-06,871.0,6.32346e-06,51464.0,17157.0,87.0,4.0,0.0,240237.896567098,240297.913222445,60.016655346989864,4,False
gsm_opt_d7f2c78f25dad857db9d4aad849fc992,chstone_xilinx,naive,Gsm_LPC_Analysis,xczu9eg-ffvb1156-2-i,10.0,2023.1.1,,7.26e-09,108.0,7.8408e-07,435.0,3.1581e-06,980.0,7.1148e-06,71402.0,19447.0,139.0,4.0,0.0,240237.89660055,240301.183624213,63.287023662996944,5,False
gsm_opt_ea12b54bf509c1a86145135d646cfeba,chstone_xilinx,naive,Gsm_LPC_Analysis,xczu9eg-ffvb1156-2-i,10.0,2023.1.1,,7.26e-09,103.0,7.4778e-07,408.0,2.9620800000000003e-06,851.0,6.17826e-06,101941.0,21820.0,222.0,4.0,0.0,240237.897934146,240305.097802149,67.19986800299375,6,False
gsm_opt_5a12f066ea792355b337b19a500fb595,chstone_xilinx,naive,Gsm_LPC_Analysis,xczu9eg-ffvb1156-2-i,10.0,2023.1.1,,7.2960000000000004e-09,376.0,2.7432960000000004e-06,765.0,5.581440000000001e-06,1318.0,9.616128000000001e-06,34871.0,15224.0,45.0,4.0,0.0,240237.897986696,240301.096991938,63.19900524197146,7,False
sha_opt_c082be4b9f0887806c9015da0f86d818,chstone_xilinx,naive,sha_stream,xczu9eg-ffvb1156-2-i,10.0,2023.1.1,,7.273e-09,28764.0,0.000209200572,,,28875.0,0.000210007875,38244.0,16312.0,0.0,14.0,0.0,240237.898242316,240268.603750396,30.705508079990977,8,False
sha_opt_16efd9a6cca583f8b989d4536f288234,chstone_xilinx,naive,sha_stream,xczu9eg-ffvb1156-2-i,10.0,2023.1.1,,7.13e-09,38016.0,0.00027105408,,,38163.0,0.00027210219,15912.0,5252.0,0.0,22.0,0.0,240237.89829446,240265.246224053,27.347929593001027,9,False
sha_opt_416a4acdfdac0caa20610ddb0b3b2e25,chstone_xilinx,naive,sha_stream,xczu9eg-ffvb1156-2-i,10.0,2023.1.1,,7.2560000000000006e-09,27993.0,0.000203117208,,,28101.0,0.00020390085600000002,37146.0,9238.0,0.0,14.0,0.0,240237.898318274,240270.054238119,32.155919844983146,10,False
sha_opt_5fba582532a14b65a28656182042c0e3,chstone_xilinx,naive,sha_stream,xczu9eg-ffvb1156-2-i,10.0,2023.1.1,,7.099e-09,31334.0,0.00022244006600000003,,,31455.0,0.000223299045,30570.0,8982.0,0.0,14.0,0.0,240237.898365674,240266.362114706,28.463749032001942,11,False
sha_opt_94fbb3aae6ccd3df9a48ceadcabd32d0,chstone_xilinx,naive,sha_stream,xczu9eg-ffvb1156-2-i,10.0,2023.1.1,,7.085e-09,40335.0,0.000285773475,40335.0,0.000285773475,40335.0,0.000285773475,13194.0,3071.0,0.0,18.0,0.0,240237.89843015,240265.57657558,27.678145429992583,12,False
sha_opt_4b2cd584b5552263e55054d7aa5a61aa,chstone_xilinx,naive,sha_stream,xczu9eg-ffvb1156-2-i,10.0,2023.1.1,,7.281e-09,21825.0,0.000158907825,,,21909.0,0.000159519429,43838.0,11356.0,0.0,14.0,0.0,240237.898482258,240271.836957175,33.93847491699853,13,False
sha_opt_2a9c535c14a0c99448cd9231ce9e0bbf,chstone_xilinx,naive,sha_stream,xczu9eg-ffvb1156-2-i,10.0,2023.1.1,,7.273e-09,22082.0,0.000160602386,,,22167.0,0.000161220591,31864.0,9260.0,0.0,14.0,0.0,240237.898549688,240269.366639711,31.468090023001423,14,False
sha_opt_5530271808271dc4542eaf5e86ecdc1a,chstone_xilinx,naive,sha_stream,xczu9eg-ffvb1156-2-i,10.0,2023.1.1,,7.273e-09,24138.0,0.000175555674,,,24231.0,0.000176232063,30404.0,8444.0,0.0,14.0,0.0,240237.898596776,240268.293260266,30.394663489976665,15,False
atax_opt_652b8d2085461a5b55c7ab5e944cafe3,polybench_xilinx,naive,atax,xczu9eg-ffvb1156-2-i,10.0,2023.1.1,,7.114e-09,30732.0,0.000218627448,30732.0,0.000218627448,30732.0,0.000218627448,2389.0,1880.0,5.0,8.0,0.0,240305.160651265,240331.437372021,26.276720755995484,0,False
atax_opt_d05a00db8adda49bfea1c05de45c49fc,polybench_xilinx,naive,atax,xczu9eg-ffvb1156-2-i,10.0,2023.1.1,,7.016000000000001e-09,21586.0,0.00015144737600000002,21586.0,0.00015144737600000002,21586.0,0.00015144737600000002,1563.0,1263.0,5.0,12.0,0.0,240305.160662902,240328.374308526,23.213645623996854,1,False
atax_opt_d4bc95179cc225fcb6064586a131ff45,polybench_xilinx,naive,atax,xczu9eg-ffvb1156-2-i,10.0,2023.1.1,,7.114e-09,18512.0,0.000131694368,18512.0,0.000131694368,18512.0,0.000131694368,6025.0,5977.0,40.0,8.0,0.0,240305.160669095,240331.914841843,26.754172748012934,2,False
atax_opt_cd53ec28cbe21869cb5bd96ea640ad55,polybench_xilinx,naive,atax,xczu9eg-ffvb1156-2-i,10.0,2023.1.1,,7.2720000000000005e-09,14296.0,0.000103960512,14296.0,0.000103960512,14296.0,0.000103960512,14732.0,21749.0,80.0,32.0,0.0,240305.160807875,240370.071908568,64.91110069298884,3,False
atax_opt_16e8f88f590fe5d45c730afd973de098,polybench_xilinx,naive,atax,xczu9eg-ffvb1156-2-i,10.0,2023.1.1,,7.114e-09,26700.0,0.0001899438,26700.0,0.0001899438,26700.0,0.0001899438,2291.0,1552.0,5.0,8.0,0.0,240305.160783927,240330.543168749,25.382384822005406,4,False
atax_opt_3e575d5a1904331bcb191220d155dcff,polybench_xilinx,naive,atax,xczu9eg-ffvb1156-2-i,10.0,2023.1.1,,7.2720000000000005e-09,1518.0,1.1038896000000001e-05,1518.0,1.1038896000000001e-05,1518.0,1.1038896000000001e-05,110854.0,151240.0,1280.0,480.0,0.0,240305.160822296,240391.241605746,86.08078345001559,5,False
atax_opt_4fad2325864ddbe70516b9256f49103d,polybench_xilinx,naive,atax,xczu9eg-ffvb1156-2-i,10.0,2023.1.1,,7.331000000000001e-09,5142.0,3.7696002000000005e-05,5142.0,3.7696002000000005e-05,5142.0,3.7696002000000005e-05,61332.0,75120.0,320.0,4.0,0.0,240305.160870304,240456.188400233,151.02752992897877,6,False
atax_opt_8121b6d23ca3425f1fd0115a04fc62dc,polybench_xilinx,naive,atax,xczu9eg-ffvb1156-2-i,10.0,2023.1.1,,7.2720000000000005e-09,4833.0,3.5145576000000006e-05,4833.0,3.5145576000000006e-05,4833.0,3.5145576000000006e-05,44740.0,69385.0,320.0,132.0,0.0,240305.160936789,240377.777871021,72.61693423200632,7,False
bicg_opt_40095e42d87d8883d0cf5083251b9caf,polybench_xilinx,naive,bicg,xczu9eg-ffvb1156-2-i,10.0,2023.1.1,,7.114e-09,19471.0,0.000138516694,19471.0,0.000138516694,19471.0,0.000138516694,3612.0,3478.0,20.0,8.0,0.0,240305.160983163,240330.293149439,25.132166276016505,8,False
bicg_opt_ba24811d4dcfa1b6b10e966873dc18b3,polybench_xilinx,naive,bicg,xczu9eg-ffvb1156-2-i,10.0,2023.1.1,,7.016000000000001e-09,25552.0,0.00017927283200000002,25552.0,0.00017927283200000002,25552.0,0.00017927283200000002,1442.0,1028.0,5.0,14.0,0.0,240305.161117685,240329.350551498,24.18943381300778,9,False
bicg_opt_55f1fc008f5189a375b50b075abad086,polybench_xilinx,naive,bicg,xczu9eg-ffvb1156-2-i,10.0,2023.1.1,,7.114e-09,30283.0,0.000215433262,30283.0,0.000215433262,30283.0,0.000215433262,3906.0,3391.0,5.0,8.0,0.0,240305.161078881,240333.411251759,28.250172878004378,10,False
bicg_opt_94c81d84290196b63d1fa294794eb12b,polybench_xilinx,naive,bicg,xczu9eg-ffvb1156-2-i,10.0,2023.1.1,,7.114e-09,25827.0,0.000183733278,25827.0,0.000183733278,25827.0,0.000183733278,104181.0,137441.0,1280.0,480.0,0.0,240305.161223823,240364.708548068,59.547324245009804,11,False
bicg_opt_5334546da9e231f1c47cd6e7e43c5ab5,polybench_xilinx,naive,bicg,xczu9eg-ffvb1156-2-i,10.0,2023.1.1,,7.114e-09,43018.0,0.000306030052,43018.0,0.000306030052,43018.0,0.000306030052,2539.0,1810.0,5.0,8.0,0.0,240305.16119101,240330.144740928,24.983549917989876,12,False
bicg_opt_9dde8a5377a14bb7bdf20b185a7bd656,polybench_xilinx,naive,bicg,xczu9eg-ffvb1156-2-i,10.0,2023.1.1,,7.2720000000000005e-09,1516.0,1.1024352000000001e-05,1516.0,1.1024352000000001e-05,1516.0,1.1024352000000001e-05,111163.0,151718.0,1280.0,480.0,0.0,240305.162136414,240394.213500423,89.05136400900665,13,False
bicg_opt_88fc7f0d4beede47b7f9ed258def3e1a,polybench_xilinx,naive,bicg,xczu9eg-ffvb1156-2-i,10.0,2023.1.1,,7.114e-09,5084.0,3.6167576000000004e-05,5084.0,3.6167576000000004e-05,5084.0,3.6167576000000004e-05,232253.0,293677.0,2560.0,5.0,0.0,240305.162196367,240445.311984714,140.1497883470147,14,False
bicg_opt_545a3e9fcfb12dea3e859e933cbaf863,polybench_xilinx,naive,bicg,xczu9eg-ffvb1156-2-i,10.0,2023.1.1,,7.2720000000000005e-09,19508.0,0.000141862176,19508.0,0.000141862176,19508.0,0.000141862176,20875.0,26079.0,134.0,142.0,0.0,240305.162551564,240365.95396363,60.791412065998884,15,False
gemm_opt_51fc7fb48a3381cfe66e2709e6125930,polybench_xilinx,naive,gemm,xczu9eg-ffvb1156-2-i,10.0,2023.1.1,,7.016000000000001e-09,28958.0,0.00020316932800000002,28958.0,0.00020316932800000002,28958.0,0.00020316932800000002,16366.0,22844.0,128.0,256.0,0.0,240305.16341939,240350.235658422,45.0722390319861,16,False
gemm_opt_5221d480c434e2e36e79e2823a8a357b,polybench_xilinx,naive,gemm,xczu9eg-ffvb1156-2-i,10.0,2023.1.1,,7.016000000000001e-09,28958.0,0.00020316932800000002,28958.0,0.00020316932800000002,28958.0,0.00020316932800000002,16366.0,22844.0,128.0,256.0,0.0,240305.163511085,240346.366907623,41.203396538010566,17,False
gemm_opt_64b43800695a6e3cb0b61248be5ac204,polybench_xilinx,naive,gemm,xczu9eg-ffvb1156-2-i,10.0,2023.1.1,,7.016000000000001e-09,28958.0,0.00020316932800000002,28958.0,0.00020316932800000002,28958.0,0.00020316932800000002,16366.0,22844.0,128.0,256.0,0.0,240305.164399239,240349.047918479,43.88351923998562,18,False
gemm_opt_005cf8bb045a4fb3c76a388b9dd58a67,polybench_xilinx,naive,gemm,xczu9eg-ffvb1156-2-i,10.0,2023.1.1,,7.016000000000001e-09,28958.0,0.00020316932800000002,28958.0,0.00020316932800000002,28958.0,0.00020316932800000002,16366.0,22844.0,128.0,256.0,0.0,240305.1643886,240348.735385619,43.57099701897823,19,False
gemm_opt_150fca79959f0434ec99af23839efdb8,polybench_xilinx,naive,gemm,xczu9eg-ffvb1156-2-i,10.0,2023.1.1,,7.016000000000001e-09,28958.0,0.00020316932800000002,28958.0,0.00020316932800000002,28958.0,0.00020316932800000002,16366.0,22844.0,128.0,256.0,0.0,240305.16444109,240349.597133587,44.43269249700825,20,False
gemm_opt_ac4d026df24a55625bdb482ee3c2debf,polybench_xilinx,naive,gemm,xczu9eg-ffvb1156-2-i,10.0,2023.1.1,,7.016000000000001e-09,28958.0,0.00020316932800000002,28958.0,0.00020316932800000002,28958.0,0.00020316932800000002,16366.0,22844.0,128.0,256.0,0.0,240305.164554787,240348.896336489,43.731781701993896,21,False
gemm_opt_9e4db76ce30803d5554fe31d7bc363ae,polybench_xilinx,naive,gemm,xczu9eg-ffvb1156-2-i,10.0,2023.1.1,,7.016000000000001e-09,28958.0,0.00020316932800000002,28958.0,0.00020316932800000002,28958.0,0.00020316932800000002,16366.0,22844.0,128.0,256.0,0.0,240305.165497049,240349.307124588,44.14162753900746,22,False
gemm_opt_ac139bcfefc71f7366683503e6faa76f,polybench_xilinx,naive,gemm,xczu9eg-ffvb1156-2-i,10.0,2023.1.1,,7.016000000000001e-09,28958.0,0.00020316932800000002,28958.0,0.00020316932800000002,28958.0,0.00020316932800000002,16366.0,22844.0,128.0,256.0,0.0,240305.165566491,240350.056386583,44.89082009199774,23,False
gesummv_opt_a04c012f9ebef589dbd9c78fc16cdddb,polybench_xilinx,naive,gesummv,xczu9eg-ffvb1156-2-i,10.0,2023.1.1,,7.114e-09,35918.0,0.000255520652,35918.0,0.000255520652,35918.0,0.000255520652,2952.0,2388.0,5.0,16.0,0.0,240305.165633288,240334.786799647,29.621166358992923,24,False
gesummv_opt_ef2b96ca155ff5b21533356b7a1006b1,polybench_xilinx,naive,gesummv,xczu9eg-ffvb1156-2-i,10.0,2023.1.1,,7.016000000000001e-09,35023.0,0.000245721368,35023.0,0.000245721368,35023.0,0.000245721368,1756.0,1446.0,5.0,21.0,0.0,240305.167350076,240332.586695831,27.419345755013637,26,False
gesummv_opt_526515fffb892c79dd0143b3183ccc75,polybench_xilinx,naive,gesummv,xczu9eg-ffvb1156-2-i,10.0,2023.1.1,,7.2720000000000005e-09,35534.0,0.000258403248,35534.0,0.000258403248,35534.0,0.000258403248,4609.0,3653.0,5.0,16.0,0.0,240305.168811659,240336.870793998,31.701982339000097,25,False
gesummv_opt_779340b31087b7d01e6d6921a89230a6,polybench_xilinx,naive,gesummv,xczu9eg-ffvb1156-2-i,10.0,2023.1.1,,7.114e-09,14635.0,0.00010411339,14635.0,0.00010411339,14635.0,0.00010411339,139324.0,178728.0,2048.0,488.0,0.0,240305.168963502,240407.007965764,101.83900226201513,27,False
gesummv_opt_183602602d5d3239e0eee67d4cbf11a2,polybench_xilinx,naive,gesummv,xczu9eg-ffvb1156-2-i,10.0,2023.1.1,,7.114e-09,31950.0,0.0002272923,31950.0,0.0002272923,31950.0,0.0002272923,2922.0,2165.0,5.0,16.0,0.0,240305.168867007,240333.939993536,28.77112652899814,28,False
gesummv_opt_833972467702263da32443872feee72b,polybench_xilinx,naive,gesummv,xczu9eg-ffvb1156-2-i,10.0,2023.1.1,,7.114e-09,1322.0,9.404708e-06,1322.0,9.404708e-06,1322.0,9.404708e-06,273970.0,352449.0,4096.0,960.0,0.0,240305.170433723,240497.661472092,192.49103836901486,29,False
gesummv_opt_9e47a71ad5293c826b2bb218795e4461,polybench_xilinx,naive,,,,,,,,,,,,,,,,,,240305.174115885,240605.205485774,300.0313698890095,30,True
gesummv_opt_0f82fc51275e9992dcb61a85d28b0255,polybench_xilinx,naive,gesummv,xczu9eg-ffvb1156-2-i,10.0,2023.1.1,,7.016000000000001e-09,19504.0,0.000136840064,19504.0,0.000136840064,19504.0,0.000136840064,61823.0,93851.0,616.0,260.0,0.0,240305.17636804,240421.460183021,116.2838149809977,31,False
k2mm_opt_4fce37b0a8e5f8d78704fbc835966996,polybench_xilinx,naive,k2mm,xczu9eg-ffvb1156-2-i,10.0,2023.1.1,,7.764000000000001e-09,2179094.0,0.016918485816,2179094.0,0.016918485816,2179094.0,0.016918485816,7521.0,3310.0,13.0,64.0,0.0,240328.375007895,240387.468007748,59.09299985299003,1,False
k2mm_opt_1e4d3024979f6688e034bfe07c5bc4ff,polybench_xilinx,naive,k2mm,xczu9eg-ffvb1156-2-i,10.0,2023.1.1,,7.016000000000001e-09,878875.0,0.006166187000000001,878875.0,0.006166187000000001,878875.0,0.006166187000000001,14994.0,19426.0,80.0,280.0,0.0,240329.351245495,240372.12132608,42.7700805850036,9,False
k2mm_opt_26c507bafef1683016b090c2e1370146,polybench_xilinx,naive,k2mm,xczu9eg-ffvb1156-2-i,10.0,2023.1.1,,7.675000000000001e-09,2180630.0,0.01673633525,2180630.0,0.01673633525,2180630.0,0.01673633525,12102.0,5585.0,40.0,88.0,0.0,240330.145497791,240402.219494986,72.07399719499517,12,False
k2mm_opt_9dba5a4512f14ecca4ab1731e86d120e,polybench_xilinx,naive,k2mm,xczu9eg-ffvb1156-2-i,10.0,2023.1.1,,7.675000000000001e-09,1926294.0,0.014784306450000001,1926294.0,0.014784306450000001,1926294.0,0.014784306450000001,30717.0,31585.0,160.0,152.0,0.0,240330.29391172,240463.655196605,133.36128488500253,8,False
k2mm_opt_7d215b8c1e1543f974fbf24b8ff940d4,polybench_xilinx,naive,k2mm,xczu9eg-ffvb1156-2-i,10.0,2023.1.1,,7.764000000000001e-09,1925142.0,0.014946802488000002,1925142.0,0.014946802488000002,1925142.0,0.014946802488000002,7285.0,3081.0,13.0,64.0,0.0,240330.543878424,240384.56288038,54.019001955981366,4,False
k2mm_opt_17b5dd70d0b34ae099a743aa7de3a718,polybench_xilinx,naive,,,,,,,,,,,,,,,,,,240331.438057439,240631.509290235,300.07123279600637,0,True
k2mm_opt_2bd4cd72bf0fd3f8c0dcbfe3931fbd97,polybench_xilinx,naive,,,,,,,,,,,,,,,,,,240331.915565709,240631.947860519,300.0322948099929,2,True
k2mm_opt_86f1f01a41e6dcc0b4218e28c4480719,polybench_xilinx,naive,k2mm,xczu9eg-ffvb1156-2-i,10.0,2023.1.1,,7.764000000000001e-09,1083939.0,0.008415702396,1083939.0,0.008415702396,1083939.0,0.008415702396,77489.0,96882.0,736.0,416.0,0.0,240332.58759737,240472.196242201,139.6086448309943,26,False
k3mm_opt_9a7fd202aaf559d3bdb179ce1535b10a,polybench_xilinx,naive,k3mm,xczu9eg-ffvb1156-2-i,10.0,2023.1.1,,7.764000000000001e-09,2162962.0,0.016793236968000003,2162962.0,0.016793236968000003,2162962.0,0.016793236968000003,79903.0,75903.0,640.0,168.0,0.0,240333.411979111,240408.064155836,74.65217672500876,10,False
k3mm_opt_3c83707c589dee2216a3242f0abd8345,polybench_xilinx,naive,k3mm,xczu9eg-ffvb1156-2-i,10.0,2023.1.1,,7.016000000000001e-09,877076.0,0.006153565216000001,877076.0,0.006153565216000001,877076.0,0.006153565216000001,25819.0,37484.0,80.0,440.0,0.0,240333.940773902,240393.160533864,59.219759961997624,28,False
k3mm_opt_d0e92e50a908a61a21ef9d1f8384e426,polybench_xilinx,naive,k3mm,xczu9eg-ffvb1156-2-i,10.0,2023.1.1,,7.675000000000001e-09,2164498.0,0.016612522150000003,2164498.0,0.016612522150000003,2164498.0,0.016612522150000003,250863.0,286538.0,2560.0,192.0,0.0,240334.787541434,240513.452301167,178.66475973301567,24,False
k3mm_opt_84441d39d8b70e07b58436c7ddf63274,polybench_xilinx,naive,,,,,,,,,,,,,,,,,,240336.871523472,240636.90495623,300.0334327580058,25,True
k3mm_opt_f5fa63631c43db9d71242ae28f63db6e,polybench_xilinx,naive,k3mm,xczu9eg-ffvb1156-2-i,10.0,2023.1.1,,7.764000000000001e-09,2977805.0,0.023119678020000003,2977805.0,0.023119678020000003,2977805.0,0.023119678020000003,15222.0,10956.0,53.0,124.0,0.0,240346.367625038,240407.591046075,61.223421036993386,17,False
k3mm_opt_9d2976174966ccf174d6f36e5e9ce46b,polybench_xilinx,naive,,,,,,,,,,,,,,,,,,240348.736165139,240648.770859346,300.0346942069882,19,True
k3mm_opt_1184947c1617ed5fbffb7bb9fde69e7c,polybench_xilinx,naive,,,,,,,,,,,,,,,,,,240348.897615716,240648.95026707,300.0526513539953,21,True
k3mm_opt_37e06e7f75c75d006877d34974f9ce61,polybench_xilinx,naive,k3mm,xczu9eg-ffvb1156-2-i,10.0,2023.1.1,,7.793e-09,2150413.0,0.016758168509000002,2150413.0,0.016758168509000002,2150413.0,0.016758168509000002,75803.0,91461.0,648.0,416.0,0.0,240349.048895886,240448.51308784,99.46419195400085,18,False
mvt_opt_bf5b0988d877f9bf20b76a495c04e8cc,polybench_xilinx,naive,mvt,xczu9eg-ffvb1156-2-i,10.0,2023.1.1,,7.016000000000001e-09,35462.0,0.000248801392,35462.0,0.000248801392,35462.0,0.000248801392,2431.0,2027.0,5.0,8.0,0.0,240349.307860081,240370.459217235,21.151357154012658,22,False
mvt_opt_3cbc64464227f3737198bc267e1e18d3,polybench_xilinx,naive,mvt,xczu9eg-ffvb1156-2-i,10.0,2023.1.1,,7.016000000000001e-09,34502.0,0.00024206603200000002,34502.0,0.00024206603200000002,34502.0,0.00024206603200000002,1496.0,1114.0,5.0,13.0,0.0,240349.597881225,240369.882233431,20.284352206013864,20,False
mvt_opt_1749843673e74854395aeb9d59813c93,polybench_xilinx,naive,mvt,xczu9eg-ffvb1156-2-i,10.0,2023.1.1,,7.016000000000001e-09,35078.0,0.000246107248,35078.0,0.000246107248,35078.0,0.000246107248,5542.0,3188.0,5.0,64.0,0.0,240350.060568296,240374.467615454,24.407047157990746,23,False
mvt_opt_c00c6a74b57ca9e1595a877645a13474,polybench_xilinx,naive,mvt,xczu9eg-ffvb1156-2-i,10.0,2023.1.1,,7.114e-09,14304.0,0.000101758656,14304.0,0.000101758656,14304.0,0.000101758656,130078.0,137439.0,1280.0,0.0,0.0,240350.236444483,240429.590788766,79.35434428302688,16,False
mvt_opt_8514549d8ee84209f2a8191fbabe2bb9,polybench_xilinx,naive,mvt,xczu9eg-ffvb1156-2-i,10.0,2023.1.1,,7.016000000000001e-09,31430.0,0.00022051288000000003,31430.0,0.00022051288000000003,31430.0,0.00022051288000000003,2333.0,1699.0,5.0,8.0,0.0,240364.709211046,240385.088030066,20.378819019999355,11,False
mvt_opt_f99e4ebdff4ce9032725a5e39be9deb5,polybench_xilinx,naive,,,,,,,,,,,,,,,,,,240365.954633663,240665.998327018,300.0436933549936,15,True
mvt_opt_5882f16cc8370daf7c481ca66d854f98,polybench_xilinx,naive,,,,,,,,,,,,,,,,,,240369.882860076,240669.945062858,300.0622027819918,20,True
mvt_opt_1fff85c3ac3d3ab8b68fc6112532c897,polybench_xilinx,naive,mvt,xczu9eg-ffvb1156-2-i,10.0,2023.1.1,,7.016000000000001e-09,19552.0,0.000137176832,19552.0,0.000137176832,19552.0,0.000137176832,47999.0,72564.0,320.0,134.0,0.0,240370.07262872,240432.210286037,62.13765731701278,3,False
syr2k_opt_472b18d624332d45f858e125ca9eba9e,polybench_xilinx,naive,syr2k,xczu9eg-ffvb1156-2-i,10.0,2023.1.1,,7.331000000000001e-09,2191383.0,0.016065028773000003,2191383.0,0.016065028773000003,2191383.0,0.016065028773000003,7248.0,3800.0,20.0,56.0,0.0,240370.459841999,240424.962117825,54.502275826002005,22,False
syr2k_opt_7e9f0d52c6274d0319c596af04510c6f,polybench_xilinx,naive,syr2k,xczu9eg-ffvb1156-2-i,10.0,2023.1.1,,7.016000000000001e-09,878879.0,0.006166215064000001,878879.0,0.006166215064000001,878879.0,0.006166215064000001,17721.0,23513.0,128.0,280.0,0.0,240372.121971861,240419.330477716,47.20850585500011,9,False
syr2k_opt_e6231e15be6d3db7ffcfacd4c72d43bf,polybench_xilinx,naive,syr2k,xczu9eg-ffvb1156-2-i,10.0,2023.1.1,,7.852000000000001e-09,2192919.0,0.017218799988000005,2192919.0,0.017218799988000005,2192919.0,0.017218799988000005,12178.0,8182.0,56.0,56.0,0.0,240374.468266144,240437.549942783,63.08167663900531,23,False
syr2k_opt_e548207634c38c2d4dc670b4b76d05c9,polybench_xilinx,naive,syr2k,xczu9eg-ffvb1156-2-i,10.0,2023.1.1,,7.852000000000001e-09,1938583.0,0.015221753716000003,1938583.0,0.015221753716000003,1938583.0,0.015221753716000003,42747.0,50496.0,224.0,152.0,0.0,240377.778597437,240571.01180275,193.2332053130085,7,False
syr2k_opt_d479f4b3206e55fe43e8285264aad7cb,polybench_xilinx,naive,syr2k,xczu9eg-ffvb1156-2-i,10.0,2023.1.1,,7.331000000000001e-09,1937431.0,0.014203306661000002,1937431.0,0.014203306661000002,1937431.0,0.014203306661000002,7250.0,3635.0,20.0,56.0,0.0,240384.563539421,240436.242131274,51.67859185297857,4,False
syr2k_opt_e9bfacc3f0f2e68a4bd04fdb46c4e24a,polybench_xilinx,naive,syr2k,xczu9eg-ffvb1156-2-i,10.0,2023.1.1,,7.852000000000001e-09,1087906.0,0.008542237912000001,1087906.0,0.008542237912000001,1087906.0,0.008542237912000001,147301.0,193803.0,1472.0,728.0,0.0,240385.088634263,240679.522640914,294.43400665099034,11,False
syr2k_opt_44541f1c5f49ca06afbc6f71cdfc3931,polybench_xilinx,naive,,,,,,,,,,,,,,,,,,240387.468573375,240687.524354192,300.05578081699787,1,True
syr2k_opt_8faf274a92a19431283836ffe58af781,polybench_xilinx,naive,syr2k,xczu9eg-ffvb1156-2-i,10.0,2023.1.1,,7.449e-09,1098278.0,0.008181072822,1098278.0,0.008181072822,1098278.0,0.008181072822,49314.0,74757.0,368.0,216.0,0.0,240391.242349258,240525.924234428,134.68188516999362,5,False
syrk_opt_706fe8fd11b9f4d989bb535d52aa0bd3,polybench_xilinx,naive,syrk,xczu9eg-ffvb1156-2-i,10.0,2023.1.1,,7.016000000000001e-09,1105939.0,0.0077592680240000005,1105939.0,0.0077592680240000005,1105939.0,0.0077592680240000005,3055.0,2126.0,10.0,32.0,0.0,240393.161121087,240414.180830277,21.019709190004505,28,False
syrk_opt_7eb1a21e13a210fae2d84241a5063d3a,polybench_xilinx,naive,syrk,xczu9eg-ffvb1156-2-i,10.0,2023.1.1,,7.016000000000001e-09,864276.0,0.006063760416000001,864276.0,0.006063760416000001,864276.0,0.006063760416000001,1969.0,1406.0,5.0,32.0,0.0,240394.214280791,240413.609101762,19.394820971006993,13,False
syrk_opt_7bee2a5e85cf865bc460763215146206,polybench_xilinx,naive,syrk,xczu9eg-ffvb1156-2-i,10.0,2023.1.1,,7.016000000000001e-09,1103379.0,0.007741307064000001,1103379.0,0.007741307064000001,1103379.0,0.007741307064000001,6332.0,5122.0,40.0,40.0,0.0,240402.220109498,240424.838171067,22.618061568995472,12,False
syrk_opt_dc41088253e977352d94ef7b6424a347,polybench_xilinx,naive,syrk,xczu9eg-ffvb1156-2-i,10.0,2023.1.1,,7.2720000000000005e-09,849191.0,0.006175316952000001,849191.0,0.006175316952000001,849191.0,0.006175316952000001,18509.0,29924.0,80.0,80.0,0.0,240407.008724173,240479.815265935,72.8065417619946,27,False
syrk_opt_f11a1e1bb0a1c630e240b824710c1cd1,polybench_xilinx,naive,syrk,xczu9eg-ffvb1156-2-i,10.0,2023.1.1,,7.016000000000001e-09,864270.0,0.0060637183200000005,864270.0,0.0060637183200000005,864270.0,0.0060637183200000005,2607.0,1172.0,5.0,32.0,0.0,240407.59168374,240427.377630687,19.785946946998592,17,False
syrk_opt_a447ac10b0839f4bedba29b8ca393ce5,polybench_xilinx,naive,syrk,xczu9eg-ffvb1156-2-i,10.0,2023.1.1,,7.2720000000000005e-09,2610.0,1.8979920000000002e-05,2610.0,1.8979920000000002e-05,2610.0,1.8979920000000002e-05,132365.0,186190.0,1472.0,656.0,0.0,240408.064739491,240535.139679298,127.07493980700383,10,False
syrk_opt_e3e6a9889f7735609fd486fbea89e844,polybench_xilinx,naive,,,,,,,,,,,,,,,,,,240413.609647897,240713.640457749,300.0308098519745,13,True
syrk_opt_0f12cb68a1ffb2a3ddad0f31bd4fd16a,polybench_xilinx,naive,syrk,xczu9eg-ffvb1156-2-i,10.0,2023.1.1,,7.016000000000001e-09,37404.0,0.000262426464,37404.0,0.000262426464,37404.0,0.000262426464,45498.0,73837.0,368.0,192.0,0.0,240414.181467226,240474.431736558,60.250269331998425,28,False
aes_table_opt_4e97c4ec45461e153f8283862d3e3578,machsuite_xilinx,fine_grained,aes256_encrypt_ecb,xczu9eg-ffvb1156-2-i,10.0,2023.1.1,,7.0290000000000004e-09,611.0,4.294719e-06,611.0,4.294719e-06,611.0,4.294719e-06,330469.0,83173.0,0.0,32.0,0.0,240713.713301923,240755.582315061,41.86901313799899,0,False
aes_table_opt_ab8ded9686249a892c7f6fe24da20e97,machsuite_xilinx,fine_grained,aes256_encrypt_ecb,xczu9eg-ffvb1156-2-i,10.0,2023.1.1,,7.279e-09,681.0,4.956999e-06,681.0,4.956999e-06,681.0,4.956999e-06,325694.0,83625.0,0.0,4.0,0.0,240713.713360015,240746.459120079,32.74576006399002,1,False
aes_table_opt_eb868b80d752ab472992ad760d56ec8a,machsuite_xilinx,fine_grained,aes256_encrypt_ecb,xczu9eg-ffvb1156-2-i,10.0,2023.1.1,,7.279e-09,675.0,4.913325e-06,675.0,4.913325e-06,675.0,4.913325e-06,329044.0,83492.0,0.0,16.0,0.0,240713.71340406,240751.684972065,37.97156800501398,2,False
aes_table_opt_8a3159a366752f8c339d58638516d152,machsuite_xilinx,fine_grained,aes256_encrypt_ecb,xczu9eg-ffvb1156-2-i,10.0,2023.1.1,,7.0290000000000004e-09,611.0,4.294719e-06,611.0,4.294719e-06,611.0,4.294719e-06,330467.0,83197.0,0.0,32.0,0.0,240713.71341589,240755.831856895,42.11844100500457,3,False
aes_table_opt_ae0c036a27cbdac38e9f7652e60291d4,machsuite_xilinx,fine_grained,aes256_encrypt_ecb,xczu9eg-ffvb1156-2-i,10.0,2023.1.1,,7.117e-09,952.0,6.775384e-06,952.0,6.775384e-06,952.0,6.775384e-06,394822.0,77792.0,0.0,2.0,0.0,240713.713469112,240754.509329553,40.79586044099415,4,False
aes_table_opt_7f09e675a6cebdaef9c714805d5e69eb,machsuite_xilinx,fine_grained,aes256_encrypt_ecb,xczu9eg-ffvb1156-2-i,10.0,2023.1.1,,7.117e-09,804.0,5.722068e-06,804.0,5.722068e-06,804.0,5.722068e-06,395561.0,78767.0,0.0,4.0,0.0,240713.713609293,240747.6768923,33.963283007004065,5,False
aes_table_opt_ee825ed4146ae5d56bfc842d60d0c7ae,machsuite_xilinx,fine_grained,aes256_encrypt_ecb,xczu9eg-ffvb1156-2-i,10.0,2023.1.1,,7.117e-09,1582.0,1.1259094e-05,1725.0,1.2276825e-05,1868.0,1.3294556000000001e-05,399394.0,78182.0,0.0,12.0,0.0,240713.713584943,240746.831295142,33.11771019900334,6,False
aes_table_opt_b2733e866f820d30cfce275bb14fa847,machsuite_xilinx,fine_grained,aes256_encrypt_ecb,xczu9eg-ffvb1156-2-i,10.0,2023.1.1,,6.925e-09,1686.0,1.167555e-05,1855.0,1.2845875e-05,2024.0,1.40162e-05,329173.0,83921.0,0.0,6.0,0.0,240713.713624255,240747.772710016,34.059085760993185,7,False
aes_tableless_opt_48668a8d8254b27e431933143841f4f1,machsuite_xilinx,fine_grained,aes256_encrypt_ecb,xczu9eg-ffvb1156-2-i,10.0,2023.1.1,,6.925e-09,1469.0,1.0172825e-05,16924.0,0.00011719869999999999,102058.0,0.00070675165,331945.0,60475.0,0.0,0.0,0.0,240713.713647847,240748.719172572,35.00552472498384,8,False
aes_tableless_opt_f64a26452d92e9c786d7935842beec1c,machsuite_xilinx,fine_grained,aes256_encrypt_ecb,xczu9eg-ffvb1156-2-i,10.0,2023.1.1,,6.925e-09,1786.0,1.236805e-05,17344.0,0.0001201072,102582.0,0.00071038035,328398.0,60404.0,0.0,0.0,0.0,240713.713689604,240747.631018202,33.91732859800686,9,False
aes_tableless_opt_e4c1ea15e94f505396dd01a3a999135d,machsuite_xilinx,fine_grained,aes256_encrypt_ecb,xczu9eg-ffvb1156-2-i,10.0,2023.1.1,,6.925e-09,1897.0,1.3136724999999999e-05,17364.0,0.00012024569999999999,102498.0,0.00070979865,329708.0,60341.0,0.0,0.0,0.0,240713.713720498,240748.038408323,34.324687824992,10,False
aes_tableless_opt_b6e739c7c5e29191492e58590ff9e4e0,machsuite_xilinx,fine_grained,aes256_encrypt_ecb,xczu9eg-ffvb1156-2-i,10.0,2023.1.1,,6.925e-09,1313.0,9.092525e-06,16859.0,0.000116748575,102097.0,0.000707021725,331148.0,60084.0,0.0,0.0,0.0,240713.713758239,240751.815423917,38.10166567799752,11,False
aes_tableless_opt_89f9068edf021178eaa856502707db82,machsuite_xilinx,fine_grained,aes256_encrypt_ecb,xczu9eg-ffvb1156-2-i,10.0,2023.1.1,,7.042e-09,1916.0,1.3492472e-05,17474.0,0.000123051908,102712.0,0.000723297904,214294.0,22810.0,0.0,0.0,0.0,240713.713827521,240743.47273926,29.758911739016185,12,False
aes_tableless_opt_aa5e0fa4286ec3a18b42bd07f50c0c57,machsuite_xilinx,fine_grained,aes256_encrypt_ecb,xczu9eg-ffvb1156-2-i,10.0,2023.1.1,,7.042e-09,1786.0,1.2577012000000001e-05,17344.0,0.000122136448,102582.0,0.000722382444,214541.0,23613.0,0.0,0.0,0.0,240713.713874511,240747.713379693,33.999505182000576,14,False
aes_tableless_opt_34154e2bd0cd397b1a0856d9968fe91e,machsuite_xilinx,fine_grained,aes256_encrypt_ecb,xczu9eg-ffvb1156-2-i,10.0,2023.1.1,,7.042e-09,1717.0,1.2091114e-05,17275.0,0.00012165055,102513.0,0.0007218965460000001,214527.0,23520.0,0.0,0.0,0.0,240713.713914634,240746.422921321,32.70900668701506,15,False
aes_tableless_opt_2f634706742d788f5aab9c8b5bdb39a9,machsuite_xilinx,fine_grained,aes256_encrypt_ecb,xczu9eg-ffvb1156-2-i,10.0,2023.1.1,,6.925e-09,1825.0,1.2638125e-05,17383.0,0.000120377275,102621.0,0.000710650425,328781.0,60446.0,0.0,0.0,0.0,240713.715413478,240746.94441163,33.22899815198616,16,False
backprop_opt_d13f86bb90be73765d4dbe9dffebeace,machsuite_xilinx,fine_grained,,,,,,,,,,,,,,,,,,240713.715398701,241013.780174237,300.06477553601144,17,True
backprop_opt_4e8c63128c1c62d48cce9ac93499e608,machsuite_xilinx,fine_grained,backprop,xczu9eg-ffvb1156-2-i,10.0,2023.1.1,,7.537e-09,5382424.0,0.040567329687999996,5382424.0,0.040567329687999996,5382424.0,0.040567329687999996,45698.0,78436.0,158.0,72.0,0.0,240713.715503391,241010.414672444,296.6991690529976,18,False
backprop_opt_4b2b92342f23ba65431667e2a0b5f508,machsuite_xilinx,fine_grained,,,,,,,,,,,,,,,,,,240713.715455579,241013.786835876,300.0713802970131,19,True
backprop_opt_4cecfd4509659fbe123e4fb468bd21d2,machsuite_xilinx,fine_grained,,,,,,,,,,,,,,,,,,240713.715494714,241013.778633607,300.06313889299054,20,True
backprop_opt_bc75a876ea3c76d3f60f6ccb7ff0c250,machsuite_xilinx,fine_grained,backprop,xczu9eg-ffvb1156-2-i,10.0,2023.1.1,,7.357000000000001e-09,11985065.0,0.08817412320500001,11985065.0,0.08817412320500001,11985065.0,0.08817412320500001,102075.0,113719.0,720.0,64.0,0.0,240713.715531187,240946.78488751,233.0693563230161,21,False
backprop_opt_aea225282d06a1f3e32a55beabccf4c1,machsuite_xilinx,fine_grained,,,,,,,,,,,,,,,,,,240713.715610114,241013.784553776,300.06894366198685,22,True
backprop_opt_53a53c348a3bd63e0b611fed3ad29845,machsuite_xilinx,fine_grained,backprop,xczu9eg-ffvb1156-2-i,10.0,2023.1.1,,7.386000000000001e-09,11743662.0,0.08673868753200001,11743662.0,0.08673868753200001,11743662.0,0.08673868753200001,24886.0,29848.0,147.0,54.0,0.0,240713.715624445,240814.918080617,101.20245617200271,23,False
backprop_opt_bb73cb58665ad8147eabbcd0255ed8bd,machsuite_xilinx,fine_grained,,,,,,,,,,,,,,,,,,240713.715712614,241013.785402677,300.0696900629846,24,True
bfs_bulk_opt_ee592148aa8b94669fec2b1e4312b769,machsuite_xilinx,fine_grained,bfs,xczu9eg-ffvb1156-2-i,10.0,2023.1.1,,6.936e-09,770.0,5.34072e-06,263690.0,0.00182895384,1044500.0,0.007244652,45244.0,70302.0,16.0,0.0,0.0,240713.728102637,240790.768869222,77.04076658500708,13,False
bfs_bulk_opt_5b227ae9456d8f93d814c258910dde91,machsuite_xilinx,fine_grained,bfs,xczu9eg-ffvb1156-2-i,10.0,2023.1.1,,3.239e-09,770.0,2.49403e-06,373770.0,0.00121064103,1487380.0,0.00481762382,37726.0,19024.0,0.0,0.0,0.0,240713.728129757,240782.466267904,68.73813814701862,25,False
bfs_bulk_opt_4fac3c55de2c649c270ddf5e0f55ca07,machsuite_xilinx,fine_grained,bfs,xczu9eg-ffvb1156-2-i,10.0,2023.1.1,,3.792e-09,770.0,2.9198400000000002e-06,209930.0,0.0007960545600000001,832020.0,0.00315501984,6406.0,33449.0,0.0,0.0,0.0,240713.728129878,240867.076996596,153.34886671800632,26,False
bfs_bulk_opt_98b6bec3322da7155b229a0beebc603f,machsuite_xilinx,fine_grained,,,,,,,,,,,,,,,,,,240713.728173015,241013.763542381,300.03536936599994,27,True
bfs_bulk_opt_e0fc14298acba1a74adf8a2c0270e81d,machsuite_xilinx,fine_grained,bfs,xczu9eg-ffvb1156-2-i,10.0,2023.1.1,,3.789e-09,770.0,2.91753e-06,216330.0,0.00081967437,855060.0,0.0032398223400000002,9205.0,1120.0,0.0,0.0,0.0,240713.728207,240783.050061745,69.32185474497965,28,False
bfs_bulk_opt_ab9cd725994a79bcc8be9c4fb9beb706,machsuite_xilinx,fine_grained,bfs,xczu9eg-ffvb1156-2-i,10.0,2023.1.1,,3.239e-09,770.0,2.49403e-06,208650.0,0.00067581735,826900.0,0.0026783291,665.0,463.0,0.0,0.0,0.0,240713.728241407,240735.441454528,21.713213120994624,29,False
bfs_bulk_opt_c66492efc3382fdf5eb7a30fe275b716,machsuite_xilinx,fine_grained,bfs,xczu9eg-ffvb1156-2-i,10.0,2023.1.1,,3.239e-09,770.0,2.49403e-06,208650.0,0.00067581735,826900.0,0.0026783291,794.0,460.0,0.0,0.0,0.0,240713.728365494,240738.627008869,24.898643374996027,30,False
bfs_bulk_opt_bf92791b451e6c99826e846e19c237dc,machsuite_xilinx,fine_grained,bfs,xczu9eg-ffvb1156-2-i,10.0,2023.1.1,,3.239e-09,770.0,2.49403e-06,209930.0,0.00067996327,832020.0,0.00269491278,1218.0,673.0,0.0,0.0,0.0,240713.728339862,240741.322114453,27.59377459101961,31,False
bfs_queue_opt_527b477977f505c4c7fcd4a28846ddf0,machsuite_xilinx,fine_grained,,,,,,,,,,,,,,,,,,240735.442187714,241035.513648462,300.0714607479749,29,True
bfs_queue_opt_0902da33fad7fd34c39395edd741ce64,machsuite_xilinx,fine_grained,bfs,xczu9eg-ffvb1156-2-i,10.0,2023.1.1,,3.239e-09,1.0,3.239e-09,107137.0,0.000347016743,295169.0,0.000956052391,48967.0,13142.0,0.0,2.0,0.0,240738.628044245,240918.287281981,179.65923773599206,30,False
bfs_queue_opt_e14549afecbdd646fbb8fdcbaac0a4f2,machsuite_xilinx,fine_grained,,,,,,,,,,,,,,,,,,240741.323097332,241041.369039556,300.0459422240092,31,True
bfs_queue_opt_50facba060af60a11f9e7e5b7aad171f,machsuite_xilinx,fine_grained,,,,,,,,,,,,,,,,,,240743.473486408,241043.508192758,300.0347063499794,12,True
bfs_queue_opt_50ef906c1b71987064b0ac0379d3344e,machsuite_xilinx,fine_grained,bfs,xczu9eg-ffvb1156-2-i,10.0,2023.1.1,,3.789e-09,1.0,3.789e-09,63361.0,0.000240074829,126721.0,0.000480145869,21859.0,2279.0,0.0,0.0,0.0,240746.423929735,240861.023504705,114.59957496999414,15,False
bfs_queue_opt_8e28e662ed58436c55ab068144936eaf,machsuite_xilinx,fine_grained,bfs,xczu9eg-ffvb1156-2-i,10.0,2023.1.1,,3.239e-09,1.0,3.239e-09,61569.0,0.000199421991,123137.0,0.00039884074300000004,1018.0,341.0,0.0,1.0,0.0,240746.459961322,240764.760206779,18.300245457008714,1,False
bfs_queue_opt_b4ee26c68132d6f9889ead63a2a236e9,machsuite_xilinx,fine_grained,bfs,xczu9eg-ffvb1156-2-i,10.0,2023.1.1,,3.239e-09,1.0,3.239e-09,61569.0,0.000199421991,123137.0,0.00039884074300000004,1481.0,422.0,0.0,0.0,0.0,240746.832092268,240765.731267326,18.89917505797348,6,False
bfs_queue_opt_3ca105cb502c4a7777b927f58799c6bf,machsuite_xilinx,fine_grained,bfs,xczu9eg-ffvb1156-2-i,10.0,2023.1.1,,3.239e-09,1.0,3.239e-09,61697.0,0.000199836583,123393.0,0.000399669927,2709.0,842.0,0.0,0.0,0.0,240746.945241292,240769.936973791,22.991732498980127,16,False
fft_transpose_opt_e10e58d8e295e6114a5d80add746660f,machsuite_xilinx,fine_grained,fft1D_512,xczu9eg-ffvb1156-2-i,10.0,2023.1.1,,7.266e-09,2732.0,1.9850712000000002e-05,2732.0,1.9850712000000002e-05,2732.0,1.9850712000000002e-05,445763.0,324017.0,4178.0,288.0,0.0,240747.631746871,240978.979241117,231.3474942460016,9,False
fft_transpose_opt_508faffb1792e07b5e36308c04f09bee,machsuite_xilinx,fine_grained,,,,,,,,,,,,,,,,,,240747.677760708,241047.726699043,300.0489383350068,5,True
fft_transpose_opt_c1134149c5c1c5b7036ffc34effb7853,machsuite_xilinx,fine_grained,fft1D_512,xczu9eg-ffvb1156-2-i,10.0,2023.1.1,,7.657e-09,13241.0,0.000101386337,13241.0,0.000101386337,13241.0,0.000101386337,116324.0,65494.0,466.0,208.0,0.0,240747.714130051,240835.106295187,87.39216513599968,14,False
fft_transpose_opt_2e0d417e6eed70555a55418ed62f2f43,machsuite_xilinx,fine_grained,fft1D_512,xczu9eg-ffvb1156-2-i,10.0,2023.1.1,,7.445000000000001e-09,14309.0,0.00010653050500000001,14309.0,0.00010653050500000001,14309.0,0.00010653050500000001,56237.0,33290.0,400.0,128.0,0.0,240747.773944768,240814.188750637,66.41480586898979,7,False
fft_transpose_opt_44f559c79d650c3944e9af361ccfa52d,machsuite_xilinx,fine_grained,fft1D_512,xczu9eg-ffvb1156-2-i,10.0,2023.1.1,,7.445000000000001e-09,4094.0,3.047983e-05,4094.0,3.047983e-05,4094.0,3.047983e-05,189781.0,135806.0,2023.0,180.0,0.0,240748.039119302,240884.098742402,136.05962310000905,10,False
fft_transpose_opt_72f23732230f0cf261e4aa10bf670396,machsuite_xilinx,fine_grained,fft1D_512,xczu9eg-ffvb1156-2-i,10.0,2023.1.1,,7.461000000000001e-09,16066.0,0.00011986842600000002,16066.0,0.00011986842600000002,16066.0,0.00011986842600000002,72334.0,48694.0,449.0,92.0,0.0,240748.719906554,240819.628975156,70.90906860199175,8,False
fft_transpose_opt_30011cd2d1ccd189d3ecebcca131a6d1,machsuite_xilinx,fine_grained,fft1D_512,xczu9eg-ffvb1156-2-i,10.0,2023.1.1,,7.445000000000001e-09,1947.0,1.4495415000000001e-05,1947.0,1.4495415000000001e-05,1947.0,1.4495415000000001e-05,202673.0,136943.0,1843.0,256.0,0.0,240751.685751166,240977.301808011,225.61605684499955,2,False
fft_transpose_opt_ff341eb90221a7e55b956d8cdecdd395,machsuite_xilinx,fine_grained,fft1D_512,xczu9eg-ffvb1156-2-i,10.0,2023.1.1,,7.416000000000001e-09,13844.0,0.00010266710400000002,13844.0,0.00010266710400000002,13844.0,0.00010266710400000002,93208.0,55355.0,346.0,160.0,0.0,240751.816211415,240885.271238048,133.45502663301886,11,False
gemm_blocked_opt_df5e99c73b869644d1389b9a3e022b37,machsuite_xilinx,fine_grained,,,,,,,,,,,,,,,,,,240754.510153804,241054.558052611,300.0478988070099,4,True
gemm_blocked_opt_909311b832da03ea54c4fc1dc699535e,machsuite_xilinx,fine_grained,bbgemm,xczu9eg-ffvb1156-2-i,10.0,2023.1.1,,7.864e-09,199681.0,0.0015702913840000001,199681.0,0.0015702913840000001,199681.0,0.0015702913840000001,15319.0,21580.0,199.0,0.0,0.0,240755.583087772,240816.785079941,61.201992168993456,0,False
gemm_blocked_opt_60bb8e4d7d30bab541d545978c6c0616,machsuite_xilinx,fine_grained,bbgemm,xczu9eg-ffvb1156-2-i,10.0,2023.1.1,,7.357000000000001e-09,163851.0,0.0012054518070000002,163851.0,0.0012054518070000002,163851.0,0.0012054518070000002,5987.0,10073.0,28.0,0.0,0.0,240755.832704568,240780.16908807,24.33638350199908,3,False
gemm_blocked_opt_e02054944426dc763c22189da225dce8,machsuite_xilinx,fine_grained,bbgemm,xczu9eg-ffvb1156-2-i,10.0,2023.1.1,,7.042e-09,1572871.0,0.011076157582,1572871.0,0.011076157582,1572871.0,0.011076157582,1922.0,1494.0,14.0,0.0,0.0,240764.761049474,240783.579958731,18.818909256980987,1,False
gemm_blocked_opt_e3fd564598c9dc2071fa51d59cb8b76f,machsuite_xilinx,fine_grained,,,,,,,,,,,,,,,,,,240765.731937356,241065.799547644,300.06761028800975,6,True
gemm_blocked_opt_6bb94355158af2e3cc354e234e03a44f,machsuite_xilinx,fine_grained,bbgemm,xczu9eg-ffvb1156-2-i,10.0,2023.1.1,,7.042e-09,229385.0,0.0016153291700000002,229385.0,0.0016153291700000002,229385.0,0.0016153291700000002,4493.0,3542.0,34.0,0.0,0.0,240769.937692845,240788.626046603,18.68835375798517,16,False
gemm_blocked_opt_b189dee4b7da270b420da7eeba30441e,machsuite_xilinx,fine_grained,,,,,,,,,,,,,,,,,,240780.169728335,241080.23445053,300.06472219500574,3,True
gemm_blocked_opt_e47ecb4f4c74588820ec55a3ba3af96c,machsuite_xilinx,fine_grained,bbgemm,xczu9eg-ffvb1156-2-i,10.0,2023.1.1,,7.042e-09,225281.0,0.001586428802,225281.0,0.001586428802,225281.0,0.001586428802,2931.0,5862.0,28.0,0.0,0.0,240782.467126836,240802.228314878,19.761188042000867,25,False
gemm_ncubed_opt_8132e74ec3ba2aebe2114ce8b4a2b02a,machsuite_xilinx,fine_grained,,,,,,,,,,,,,,,,,,240783.050769589,241083.101475852,300.0507062629913,28,True
gemm_ncubed_opt_2c74945a1e24f9630b297dbd4fd96619,machsuite_xilinx,fine_grained,gemm,xczu9eg-ffvb1156-2-i,10.0,2023.1.1,,7.475e-09,131336.0,0.0009817366000000002,131336.0,0.0009817366000000002,131336.0,0.0009817366000000002,8275.0,19153.0,28.0,0.0,0.0,240783.580592942,240818.67376369,35.09317074800492,1,False
gemm_ncubed_opt_6476ed1f4fec3482fe4fde269fde4727,machsuite_xilinx,fine_grained,gemm,xczu9eg-ffvb1156-2-i,10.0,2023.1.1,,7.298e-09,1355777.0,0.009894460546000001,1355777.0,0.009894460546000001,1355777.0,0.009894460546000001,3493.0,3920.0,14.0,0.0,0.0,240788.626930761,240812.843704837,24.216774075990543,16,False
gemm_ncubed_opt_bad2ba1f6b202284722b1d261d947f24,machsuite_xilinx,fine_grained,gemm,xczu9eg-ffvb1156-2-i,10.0,2023.1.1,,7.042e-09,1355777.0,0.009547381634,1355777.0,0.009547381634,1355777.0,0.009547381634,2376.0,2472.0,14.0,0.0,0.0,240790.76951875,240810.868111823,20.098593072994845,13,False
gemm_ncubed_opt_8856e33cf4638eddd65764e897663af3,machsuite_xilinx,fine_grained,gemm,xczu9eg-ffvb1156-2-i,10.0,2023.1.1,,7.042e-09,1355777.0,0.009547381634,1355777.0,0.009547381634,1355777.0,0.009547381634,1408.0,1350.0,14.0,0.0,0.0,240802.228995823,240821.173477778,18.944481954997173,25,False
gemm_ncubed_opt_9714e47535bf486a3b44dd8e85d62abe,machsuite_xilinx,fine_grained,gemm,xczu9eg-ffvb1156-2-i,10.0,2023.1.1,,7.335000000000001e-09,33033.0,0.00024229705500000004,33033.0,0.00024229705500000004,33033.0,0.00024229705500000004,31342.0,95642.0,112.0,0.0,0.0,240810.868690909,241079.296725883,268.4280349740002,13,False
gemm_ncubed_opt_14871ab1d620f7d0e7f24afeeb94571f,machsuite_xilinx,fine_grained,gemm,xczu9eg-ffvb1156-2-i,10.0,2023.1.1,,7.042e-09,1355777.0,0.009547381634,1355777.0,0.009547381634,1355777.0,0.009547381634,1348.0,1321.0,14.0,0.0,0.0,240812.844357571,240831.689485034,18.845127462991513,16,False
gemm_ncubed_opt_6bb9a674b083d49aab9e4d8c68754353,machsuite_xilinx,fine_grained,gemm,xczu9eg-ffvb1156-2-i,10.0,2023.1.1,,7.042e-09,1355777.0,0.009547381634,1355777.0,0.009547381634,1355777.0,0.009547381634,1359.0,1348.0,14.0,0.0,0.0,240814.189415541,240831.770253136,17.580837594985496,7,False
md_grid_opt_31bbea8781713c3689e7a4aeff62b3f6,machsuite_xilinx,fine_grained,,,,,,,,,,,,,,,,,,240814.918985683,241114.955079025,300.03609334200155,23,True
md_grid_opt_81fb9d232d686be93761610ac988fc8d,machsuite_xilinx,fine_grained,md,xczu9eg-ffvb1156-2-i,10.0,2023.1.1,,7.357000000000001e-09,2049.0,1.5074493000000002e-05,5887745.0,0.04331613996500001,355803393.0,2.6176455623010004,9918.0,8539.0,86.0,0.0,0.0,240816.785733798,240843.737644336,26.95191053801682,0,False
md_grid_opt_56e4b2baf587e2338aeea0a98ac7872d,machsuite_xilinx,fine_grained,md,xczu9eg-ffvb1156-2-i,10.0,2023.1.1,,7.357000000000001e-09,6721.0,4.944639700000001e-05,5916929.0,0.043530846653000006,356663553.0,2.623973759421,37680.0,23754.0,86.0,0.0,0.0,240818.674408512,240935.498354119,116.8239456070005,1,False
md_grid_opt_c13629ab2dc07d9bf47f9abaf99934f5,machsuite_xilinx,fine_grained,md,xczu9eg-ffvb1156-2-i,10.0,2023.1.1,,7.475e-09,3649.0,2.7276275000000003e-05,5905153.0,0.044141018675000004,356344065.0,2.6636718858750004,23356.0,14258.0,86.0,0.0,0.0,240819.629618462,240872.241575604,52.611957142013125,8,False
md_grid_opt_7403f646f66ae27cbda9366056b9eaa2,machsuite_xilinx,fine_grained,md,xczu9eg-ffvb1156-2-i,10.0,2023.1.1,,7.445000000000001e-09,7425.0,5.5279125000000006e-05,1468161.0,0.010930458645,33960193.0,0.25283363688500005,9965.0,12891.0,86.0,0.0,0.0,240821.174154905,240846.062811716,24.888656811002875,25,False
md_grid_opt_e7339a0c849b3d6605240a05c2615495,machsuite_xilinx,fine_grained,md,xczu9eg-ffvb1156-2-i,10.0,2023.1.1,,7.298e-09,1281.0,9.348738e-06,5856001.0,0.042737095298,354771201.0,2.589120224898,10481.0,7133.0,86.0,0.0,0.0,240831.690287447,240860.346942325,28.656654877995607,16,False
md_grid_opt_45dc342d9adbe3911b2e9ef94412310c,machsuite_xilinx,fine_grained,,,,,,,,,,,,,,,,,,240831.770870088,241131.835390088,300.06452000001445,7,True
md_grid_opt_1a59146583a31a542d04a0794e2b1c83,machsuite_xilinx,fine_grained,md,xczu9eg-ffvb1156-2-i,10.0,2023.1.1,,7.042e-09,6401.0,4.5075842e-05,1261953.0,0.008886673026,28574081.0,0.201218678402,7770.0,7820.0,110.0,0.0,0.0,240835.106884022,240855.698985657,20.592101635003928,14,False
md_knn_opt_c6af895903dc744076d4d56b85b3f70f,machsuite_xilinx,fine_grained,,,,,,,,,,,,,,,,,,240843.7382792,241143.785929396,300.04765019597835,0,True
md_knn_opt_ea97a3404cf810d4c5eaa2ab7e9ea3ea,machsuite_xilinx,fine_grained,md_kernel,xczu9eg-ffvb1156-2-i,10.0,2023.1.1,,7.848e-09,2330.0,1.828584e-05,2330.0,1.828584e-05,2330.0,1.828584e-05,41379.0,91674.0,282.0,0.0,0.0,240846.063485645,241030.792446378,184.72896073301672,25,False
md_knn_opt_0c68fd39f98be1608d3e85bec34c7ac7,machsuite_xilinx,fine_grained,,,,,,,,,,,,,,,,,,240855.699606701,241155.735766945,300.03616024399525,14,True
md_knn_opt_dd6205404d659707b7fcb26d468deb03,machsuite_xilinx,fine_grained,,,,,,,,,,,,,,,,,,240860.347601978,241160.397034307,300.0494323290186,16,True
md_knn_opt_84ebdbf133e9d0ec765b3c7c74c9bbd3,machsuite_xilinx,fine_grained,md_kernel,xczu9eg-ffvb1156-2-i,10.0,2023.1.1,,7.701e-09,44033.0,0.00033909813300000004,44033.0,0.00033909813300000004,44033.0,0.00033909813300000004,9500.0,11820.0,62.0,0.0,0.0,240861.024153069,240886.678709927,25.654556857974967,15,False
md_knn_opt_6646246189f4da04954c0191ab4ef065,machsuite_xilinx,fine_grained,md_kernel,xczu9eg-ffvb1156-2-i,10.0,2023.1.1,,7.43e-09,43777.0,0.00032526311,43777.0,0.00032526311,43777.0,0.00032526311,5410.0,6095.0,42.0,0.0,0.0,240867.077718112,240890.64024498,23.56252686798689,26,False
md_knn_opt_2b793528f1081b2a225b75789c666d65,machsuite_xilinx,fine_grained,md_kernel,xczu9eg-ffvb1156-2-i,10.0,2023.1.1,,7.416000000000001e-09,43777.0,0.00032465023200000005,43777.0,0.00032465023200000005,43777.0,0.00032465023200000005,4176.0,6268.0,42.0,0.0,0.0,240872.242206257,240892.931852593,20.689646335988073,8,False
md_knn_opt_043e15d06e35f57ef93d947a060ac65f,machsuite_xilinx,fine_grained,md_kernel,xczu9eg-ffvb1156-2-i,10.0,2023.1.1,,7.445000000000001e-09,43777.0,0.000325919765,43777.0,0.000325919765,43777.0,0.000325919765,5873.0,8341.0,45.0,0.0,0.0,240884.102427618,240906.840321017,22.737893398996675,10,False
nw_opt_65f627ce09668df312e49bb6c7c4d748,machsuite_xilinx,fine_grained,needwun,xczu9eg-ffvb1156-2-i,10.0,2023.1.1,,7.011000000000001e-09,,,,,,,19766.0,2018.0,0.0,0.0,0.0,240885.271863479,240940.909116622,55.63725314300973,11,False
nw_opt_843ddc231b5dadc33489f41d937a24d5,machsuite_xilinx,fine_grained,needwun,xczu9eg-ffvb1156-2-i,10.0,2023.1.1,,6.559e-09,,,,,,,10536.0,2126.0,0.0,0.0,0.0,240886.679305249,240922.420599053,35.74129380399245,15,False
nw_opt_68079e408604287125cc61e96e6c2bd6,machsuite_xilinx,fine_grained,needwun,xczu9eg-ffvb1156-2-i,10.0,2023.1.1,,7.2070000000000004e-09,,,,,,,18841.0,889.0,0.0,0.0,0.0,240890.640831475,240943.372968943,52.7321374680032,26,False
nw_opt_1edd21caf60786f4d7d6af1a7d21e81a,machsuite_xilinx,fine_grained,needwun,xczu9eg-ffvb1156-2-i,10.0,2023.1.1,,7.2070000000000004e-09,,,,,,,19662.0,1957.0,0.0,0.0,0.0,240892.932496391,240952.523414361,59.590917969995644,8,False
nw_opt_377f351b68596748e1e8505ce6a90314,machsuite_xilinx,fine_grained,needwun,xczu9eg-ffvb1156-2-i,10.0,2023.1.1,,7.011000000000001e-09,,,,,,,22257.0,4347.0,0.0,0.0,0.0,240906.840930411,241020.175709531,113.33477911999216,10,False
nw_opt_b51e47d9f67ccf0e696569d33ed468f3,machsuite_xilinx,fine_grained,needwun,xczu9eg-ffvb1156-2-i,10.0,2023.1.1,,7.2070000000000004e-09,,,,,,,18302.0,3033.0,0.0,0.0,0.0,240918.287933942,241026.307396128,108.01946218599915,30,False
nw_opt_b4f652091dee2e703f676bd11b08354e,machsuite_xilinx,fine_grained,needwun,xczu9eg-ffvb1156-2-i,10.0,2023.1.1,,6.559e-09,,,,,,,9086.0,2070.0,0.0,0.0,0.0,240922.421234664,240949.755835038,27.334600373986177,15,False
nw_opt_be18acecbf0705a233b2dbe692f3ae33,machsuite_xilinx,fine_grained,needwun,xczu9eg-ffvb1156-2-i,10.0,2023.1.1,,6.847000000000001e-09,,,,,,,6465.0,1146.0,0.0,0.0,0.0,240935.498965151,240960.557112874,25.05814772300073,1,False
sort_merge_opt_b545a9d60b62345ada89f7612311a25f,machsuite_xilinx,fine_grained,ms_mergesort,xczu9eg-ffvb1156-2-i,10.0,2023.1.1,,6.111e-09,,,,,,,2398.0,945.0,0.0,4.0,0.0,240940.909726145,240961.470255681,20.56052953598555,11,False
sort_merge_opt_a9b270b786a758c27531e27a80f392a5,machsuite_xilinx,fine_grained,ms_mergesort,xczu9eg-ffvb1156-2-i,10.0,2023.1.1,,3.923000000000001e-09,,,,,,,2800.0,1288.0,0.0,4.0,0.0,240943.373597564,240961.771806072,18.398208508006064,26,False
sort_merge_opt_91aaba51605a0aacd84c8f1a808d5367,machsuite_xilinx,fine_grained,ms_mergesort,xczu9eg-ffvb1156-2-i,10.0,2023.1.1,,5.539e-09,,,,,,,1914.0,860.0,0.0,4.0,0.0,240946.785634629,240966.834599518,20.04896488902159,21,False
sort_merge_opt_8f37aeb3f19752e891d8020d616969b7,machsuite_xilinx,fine_grained,ms_mergesort,xczu9eg-ffvb1156-2-i,10.0,2023.1.1,,6.404000000000001e-09,,,,,,,17135.0,7083.0,0.0,4.0,0.0,240949.756492904,240981.919486166,32.162993261998054,15,False
sort_merge_opt_3c53f8c18a1a89a93bdd55c1bbf5154c,machsuite_xilinx,fine_grained,ms_mergesort,xczu9eg-ffvb1156-2-i,10.0,2023.1.1,,6.111e-09,,,,,,,1617.0,942.0,0.0,4.0,0.0,240952.524051977,240971.434148228,18.910096250998322,8,False
sort_merge_opt_750aa3aa7f33b182f908c10293046102,machsuite_xilinx,fine_grained,ms_mergesort,xczu9eg-ffvb1156-2-i,10.0,2023.1.1,,6.367e-09,,,,,,,3196.0,1537.0,0.0,4.0,0.0,240960.559465611,240983.18612975,22.626664139010245,1,False
sort_merge_opt_1e212271c7f4597ef4bbae84aee72b91,machsuite_xilinx,fine_grained,ms_mergesort,xczu9eg-ffvb1156-2-i,10.0,2023.1.1,,5.539e-09,,,,,,,2173.0,1049.0,0.0,4.0,0.0,240961.470864142,240980.962492917,19.49162877499475,11,False
sort_merge_opt_22626228db848cb9cb7f47c35ce6388c,machsuite_xilinx,fine_grained,ms_mergesort,xczu9eg-ffvb1156-2-i,10.0,2023.1.1,,6.367e-09,,,,,,,3196.0,1537.0,0.0,4.0,0.0,240961.772370432,240981.921753482,20.149383049982134,26,False
sort_radix_opt_55e7d777589d8f5fe857cf370c83bb59,machsuite_xilinx,fine_grained,ss_sort,xczu9eg-ffvb1156-2-i,10.0,2023.1.1,,4.2110000000000005e-09,168369.0,0.000709001859,168369.0,0.000709001859,168369.0,0.000709001859,13118.0,2568.0,0.0,0.0,0.0,240966.835222789,241001.315329488,34.4801066989894,21,False
sort_radix_opt_196be84b23eeece67a207bc559824a1a,machsuite_xilinx,fine_grained,ss_sort,xczu9eg-ffvb1156-2-i,10.0,2023.1.1,,3.862e-09,231793.0,0.0008951845660000001,231793.0,0.0008951845660000001,231793.0,0.0008951845660000001,20073.0,7513.0,0.0,0.0,0.0,240971.434805424,241019.097204563,47.66239913899335,8,False
sort_radix_opt_1e8d05393d9b881d6b2f6f7742b356e9,machsuite_xilinx,fine_grained,,,,,,,,,,,,,,,,,,240977.302471441,241277.339392202,300.03692076099105,2,True
sort_radix_opt_a4cd3a342e090d8b96469ab8dd8bcdd2,machsuite_xilinx,fine_grained,ss_sort,xczu9eg-ffvb1156-2-i,10.0,2023.1.1,,7.112e-09,116113.0,0.000825795656,116113.0,0.000825795656,116113.0,0.000825795656,25759.0,12424.0,0.0,0.0,0.0,240978.979824491,241015.889842309,36.91001781800878,9,False
sort_radix_opt_84bbe852b927cbed11648809897bba38,machsuite_xilinx,fine_grained,,,,,,,,,,,,,,,,,,240980.963087429,241281.04152516,300.0784377309901,11,True
sort_radix_opt_45df591a4bac8bd66cb869ae83b213e8,machsuite_xilinx,fine_grained,ss_sort,xczu9eg-ffvb1156-2-i,10.0,2023.1.1,,6.538e-09,132577.0,0.0008667884260000001,132577.0,0.0008667884260000001,132577.0,0.0008667884260000001,19837.0,11657.0,0.0,0.0,0.0,240981.920142875,241024.850162147,42.93001927199657,15,False
sort_radix_opt_f45add67307f63a2251ecfa20896fe17,machsuite_xilinx,fine_grained,ss_sort,xczu9eg-ffvb1156-2-i,10.0,2023.1.1,,5.301000000000001e-09,132561.0,0.0007027058610000001,132561.0,0.0007027058610000001,132561.0,0.0007027058610000001,26799.0,10074.0,0.0,0.0,0.0,240981.922347658,241027.583644898,45.66129724000348,26,False
sort_radix_opt_63f378b39375eca8e49d951c22754d4e,machsuite_xilinx,fine_grained,ss_sort,xczu9eg-ffvb1156-2-i,10.0,2023.1.1,,6.538e-09,132561.0,0.000866683818,132561.0,0.000866683818,132561.0,0.000866683818,18293.0,8649.0,0.0,0.0,0.0,240983.186743681,241020.035364514,36.84862083301414,1,False
spmv_crs_opt_e912c461b10d6a05fea05b16cfe9b2b8,machsuite_xilinx,fine_grained,spmv,xczu9eg-ffvb1156-2-i,10.0,2023.1.1,,7.475e-09,,,,,,,23305.0,18999.0,14.0,0.0,0.0,241001.316390347,241061.635722231,60.319331884005805,21,False
spmv_crs_opt_5024ce6f1fa75992a6798b81a568d97e,machsuite_xilinx,fine_grained,spmv,xczu9eg-ffvb1156-2-i,10.0,2023.1.1,,7.042e-09,,,,,,,1655.0,1535.0,14.0,0.0,0.0,241010.41548159,241028.885381254,18.469899663992692,18,False
spmv_crs_opt_9bd54b79f13bd6ee6c034a1f9dc10417,machsuite_xilinx,fine_grained,spmv,xczu9eg-ffvb1156-2-i,10.0,2023.1.1,,7.298e-09,,,,,,,8187.0,6120.0,14.0,0.0,0.0,241013.779585858,241040.38604434,26.606458482012386,20,False
spmv_crs_opt_d9bec415b6697612c43cf37dccf76989,machsuite_xilinx,fine_grained,spmv,xczu9eg-ffvb1156-2-i,10.0,2023.1.1,,7.042e-09,,,,,,,4710.0,3596.0,14.0,0.0,0.0,241013.780956833,241036.188052399,22.40709556598449,17,False
spmv_crs_opt_4a302c56b8c95183cd7562f40a2bc9f3,machsuite_xilinx,fine_grained,spmv,xczu9eg-ffvb1156-2-i,10.0,2023.1.1,,7.042e-09,,,,,,,1612.0,1641.0,14.0,0.0,0.0,241013.781233763,241033.2923767,19.51114293700084,27,False
spmv_crs_opt_73e65f89ec8b0bcb3adc1b9567a0378a,machsuite_xilinx,fine_grained,spmv,xczu9eg-ffvb1156-2-i,10.0,2023.1.1,,7.298e-09,,,,,,,6804.0,7488.0,14.0,0.0,0.0,241013.785385049,241038.76373994,24.978354891005438,22,False
spmv_crs_opt_facdb98f711eab08927114732d6f57c7,machsuite_xilinx,fine_grained,spmv,xczu9eg-ffvb1156-2-i,10.0,2023.1.1,,7.042e-09,,,,,,,1513.0,1626.0,14.0,0.0,0.0,241013.786159504,241033.163333917,19.377174413006287,24,False
spmv_crs_opt_06a50a1a6c403f2dfa8f8acd119f9527,machsuite_xilinx,fine_grained,spmv,xczu9eg-ffvb1156-2-i,10.0,2023.1.1,,7.042e-09,,,,,,,1546.0,1638.0,14.0,0.0,0.0,241013.787567048,241033.909583873,20.12201682498562,19,False
spmv_ellpack_opt_f0ade323a8934170348a592b246e78cb,machsuite_xilinx,fine_grained,ellpack,xczu9eg-ffvb1156-2-i,10.0,2023.1.1,,7.298e-09,25202.0,0.000183924196,25202.0,0.000183924196,25202.0,0.000183924196,2712.0,2911.0,14.0,0.0,0.0,241015.890459744,241037.915856441,22.025396696990356,9,False
spmv_ellpack_opt_8df5385bdb22ff8d80096e58b65310d3,machsuite_xilinx,fine_grained,ellpack,xczu9eg-ffvb1156-2-i,10.0,2023.1.1,,7.386000000000001e-09,2528.0,1.8671808e-05,2528.0,1.8671808e-05,2528.0,1.8671808e-05,8211.0,7296.0,28.0,0.0,0.0,241019.097787979,241047.852642498,28.754854519007495,8,False
spmv_ellpack_opt_0243ec06e5b17d37b202280db73c75d0,machsuite_xilinx,fine_grained,ellpack,xczu9eg-ffvb1156-2-i,10.0,2023.1.1,,7.042e-09,31123.0,0.00021916816600000001,31123.0,0.00021916816600000001,31123.0,0.00021916816600000001,1724.0,1436.0,14.0,0.0,0.0,241020.035992909,241040.133062283,20.097069374023704,1,False
spmv_ellpack_opt_a060c371270618826c06d5b63a52e003,machsuite_xilinx,fine_grained,ellpack,xczu9eg-ffvb1156-2-i,10.0,2023.1.1,,7.298e-09,25202.0,0.000183924196,25202.0,0.000183924196,25202.0,0.000183924196,4217.0,2891.0,14.0,0.0,0.0,241020.176321315,241042.65284504,22.476523724995786,10,False
spmv_ellpack_opt_087a494a0bc991a1621bf8fbeaffb745,machsuite_xilinx,fine_grained,,,,,,,,,,,,,,,,,,241024.850822651,241324.899298858,300.04847620701184,15,True
spmv_ellpack_opt_211c4c27921b7ede1f7805dd553d8046,machsuite_xilinx,fine_grained,,,,,,,,,,,,,,,,,,241026.308027031,241326.355059006,300.047031975002,30,True
spmv_ellpack_opt_5e45573378086c251c6a48fc6587c6ae,machsuite_xilinx,fine_grained,ellpack,xczu9eg-ffvb1156-2-i,10.0,2023.1.1,,7.298e-09,25202.0,0.000183924196,25202.0,0.000183924196,25202.0,0.000183924196,3697.0,2909.0,14.0,0.0,0.0,241027.584250915,241050.250245096,22.665994180977577,26,False
spmv_ellpack_opt_0c37d2f9d28aeaa5c4cc18cc984e5185,machsuite_xilinx,fine_grained,ellpack,xczu9eg-ffvb1156-2-i,10.0,2023.1.1,,7.042e-09,31123.0,0.00021916816600000001,31123.0,0.00021916816600000001,31123.0,0.00021916816600000001,1339.0,1383.0,14.0,0.0,0.0,241028.885982676,241047.386430295,18.5004476190079,18,False
stencil2D_opt_0dd4fc56c460ee82b3e858a6456f2b21,machsuite_xilinx,fine_grained,stencil,xczu9eg-ffvb1156-2-i,10.0,2023.1.1,,6.84e-09,39069.0,0.00026723196,39069.0,0.00026723196,39069.0,0.00026723196,1625.0,643.0,6.0,0.0,0.0,241030.79315396,241051.072611184,20.279457224009093,25,False
stencil2D_opt_fde89f26085d4e4739d0f635cb9afd93,machsuite_xilinx,fine_grained,stencil,xczu9eg-ffvb1156-2-i,10.0,2023.1.1,,6.85e-09,35790.0,0.0002451615,35790.0,0.0002451615,35790.0,0.0002451615,2331.0,1007.0,6.0,0.0,0.0,241033.164239835,241055.411840286,22.247600450995378,24,False
stencil2D_opt_8cf4e238c49b4c7e80a21bbdb6c87d38,machsuite_xilinx,fine_grained,stencil,xczu9eg-ffvb1156-2-i,10.0,2023.1.1,,6.608e-09,39069.0,0.000258167952,39069.0,0.000258167952,39069.0,0.000258167952,2217.0,642.0,6.0,0.0,0.0,241033.293062042,241055.256714434,21.963652392005315,27,False
stencil2D_opt_e4a15c39545b08edc158f4e4f729a1e5,machsuite_xilinx,fine_grained,stencil,xczu9eg-ffvb1156-2-i,10.0,2023.1.1,,6.404000000000001e-09,4164.0,2.6666256000000002e-05,4164.0,2.6666256000000002e-05,4164.0,2.6666256000000002e-05,20243.0,5297.0,141.0,0.0,0.0,241033.910233185,241083.221796056,49.31156287100748,19,False
stencil2D_opt_518be3d1dff9fbabb5ed5a9c38525437,machsuite_xilinx,fine_grained,stencil,xczu9eg-ffvb1156-2-i,10.0,2023.1.1,,6.5950000000000005e-09,11728.0,7.734616000000001e-05,11728.0,7.734616000000001e-05,11728.0,7.734616000000001e-05,1805.0,942.0,18.0,0.0,0.0,241035.514411997,241055.222815081,19.708403084019665,29,False
stencil2D_opt_726cff7db90b9e5393b41e5581bf46ce,machsuite_xilinx,fine_grained,stencil,xczu9eg-ffvb1156-2-i,10.0,2023.1.1,,6.84e-09,15634.0,0.00010693656,15634.0,0.00010693656,15634.0,0.00010693656,1700.0,674.0,15.0,0.0,0.0,241036.188738107,241055.395704025,19.206965917983325,17,False
stencil2D_opt_abbd8484cf74479d0fb841f46bb48e80,machsuite_xilinx,fine_grained,stencil,xczu9eg-ffvb1156-2-i,10.0,2023.1.1,,6.608e-09,54942.0,0.00036305673600000004,54942.0,0.00036305673600000004,54942.0,0.00036305673600000004,2118.0,594.0,6.0,0.0,0.0,241037.916842417,241059.331585989,21.414743572007865,9,False
stencil2D_opt_384720b71623b3894cea137ee723f201,machsuite_xilinx,fine_grained,stencil,xczu9eg-ffvb1156-2-i,10.0,2023.1.1,,6.404000000000001e-09,86185.0,0.00055192874,86185.0,0.00055192874,86185.0,0.00055192874,434.0,124.0,6.0,0.0,0.0,241038.764457327,241056.010832012,17.246374684997136,22,False
stencil3D_opt_cfee41c3c7af95b3eb292018ed8d1095,machsuite_xilinx,fine_grained,stencil3d,xczu9eg-ffvb1156-2-i,10.0,2023.1.1,,7.135e-09,3229.0,2.3038914999999998e-05,3229.0,2.3038914999999998e-05,3229.0,2.3038914999999998e-05,23550.0,3514.0,30.0,0.0,0.0,241040.133701705,241122.043868963,81.910167258,1,False
stencil3D_opt_0f4712d94bfefdade3161ea139f4be23,machsuite_xilinx,fine_grained,stencil3d,xczu9eg-ffvb1156-2-i,10.0,2023.1.1,,6.546e-09,38765.0,0.00025375569,38765.0,0.00025375569,38765.0,0.00025375569,7644.0,1531.0,3.0,0.0,0.0,241040.386709398,241068.005865362,27.61915596399922,20,False
stencil3D_opt_5d9ca878e13fae93b76e94511c0e7021,machsuite_xilinx,fine_grained,stencil3d,xczu9eg-ffvb1156-2-i,10.0,2023.1.1,,7.135e-09,1187.0,8.469245e-06,1187.0,8.469245e-06,1187.0,8.469245e-06,71790.0,11017.0,96.0,0.0,0.0,241041.369799962,241238.424749555,197.05494959300268,31,False
stencil3D_opt_2b3bc4957f12844bd0f1623b27828ec5,machsuite_xilinx,fine_grained,stencil3d,xczu9eg-ffvb1156-2-i,10.0,2023.1.1,,7.135e-09,1199.0,8.554865e-06,1199.0,8.554865e-06,1199.0,8.554865e-06,74117.0,16957.0,96.0,0.0,0.0,241042.653479791,241245.507342833,202.85386304199346,10,False
stencil3D_opt_5716fe3b6b2974e3cb9f35bc4c137cda,machsuite_xilinx,fine_grained,,,,,,,,,,,,,,,,,,241043.52195884,241343.614930301,300.09297146101017,12,True
stencil3D_opt_61167d96bf076415434e29adf9caa335,machsuite_xilinx,fine_grained,stencil3d,xczu9eg-ffvb1156-2-i,10.0,2023.1.1,,6.831000000000001e-09,4221.0,2.8833651000000004e-05,4221.0,2.8833651000000004e-05,4221.0,2.8833651000000004e-05,12143.0,2559.0,42.0,0.0,0.0,241047.387094594,241075.180018568,27.792923973989673,18,False
stencil3D_opt_15a4bef77e97aea72ec77a43d1f24b07,machsuite_xilinx,fine_grained,stencil3d,xczu9eg-ffvb1156-2-i,10.0,2023.1.1,,7.135e-09,22696.0,0.00016193596,22696.0,0.00016193596,22696.0,0.00016193596,45523.0,5004.0,9.0,0.0,0.0,241047.739280986,241335.944625237,288.2053442510078,5,False
stencil3D_opt_54f58f9379a4e23095efb5cc67fc6148,machsuite_xilinx,fine_grained,stencil3d,xczu9eg-ffvb1156-2-i,10.0,2023.1.1,,7.135e-09,14001.0,9.9897135e-05,14001.0,9.9897135e-05,14001.0,9.9897135e-05,31033.0,4237.0,6.0,0.0,0.0,241047.853261512,241344.271683342,296.41842182999244,8,False
viterbi_opt_89e95fd09eff30aab0868315fdc62ea6,machsuite_xilinx,fine_grained,viterbi,xczu9eg-ffvb1156-2-i,10.0,2023.1.1,,7.2340000000000005e-09,820908.0,0.0059384484720000005,820908.0,0.0059384484720000005,820908.0,0.0059384484720000005,9083.0,5221.0,9.0,44.0,0.0,241050.250885942,241075.121765614,24.870879672002047,26,False
viterbi_opt_de66f241e27fafe696b9fe7026d177e6,machsuite_xilinx,fine_grained,viterbi,xczu9eg-ffvb1156-2-i,10.0,2023.1.1,,7.136e-09,820907.0,0.0058579923520000006,820907.0,0.0058579923520000006,820907.0,0.0058579923520000006,8780.0,4821.0,9.0,64.0,0.0,241051.073214169,241074.885024341,23.811810171988327,25,False
viterbi_opt_ce9104942f071a50ce7311cc14898787,machsuite_xilinx,fine_grained,viterbi,xczu9eg-ffvb1156-2-i,10.0,2023.1.1,,7.579e-09,678988.0,0.005146050052,678988.0,0.005146050052,678988.0,0.005146050052,35148.0,13488.0,9.0,128.0,0.0,241054.558760213,241098.164367598,43.605607384990435,4,False
viterbi_opt_1801f7fb3d99fa0cdda259f915c51cb3,machsuite_xilinx,fine_grained,viterbi,xczu9eg-ffvb1156-2-i,10.0,2023.1.1,,7.095e-09,838700.0,0.0059505765,838700.0,0.0059505765,838700.0,0.0059505765,16947.0,7630.0,6.0,128.0,0.0,241055.223517706,241085.140337996,29.91682029000367,29,False
viterbi_opt_301177b8fc0bca8cac0e15385c75800d,machsuite_xilinx,fine_grained,viterbi,xczu9eg-ffvb1156-2-i,10.0,2023.1.1,,7.166000000000001e-09,837304.0,0.006000120464000001,837304.0,0.006000120464000001,837304.0,0.006000120464000001,40706.0,13702.0,6.0,128.0,0.0,241055.257399223,241097.274109903,42.016710680007236,27,False
viterbi_opt_fe8ccc7b84cf1fdf6872ddd4de6bcd8f,machsuite_xilinx,fine_grained,viterbi,xczu9eg-ffvb1156-2-i,10.0,2023.1.1,,7.027000000000001e-09,829804.0,0.0058310327080000005,829804.0,0.0058310327080000005,829804.0,0.0058310327080000005,9944.0,5412.0,6.0,64.0,0.0,241055.396338187,241080.38045466,24.984116472973255,17,False
viterbi_opt_94eb4cd12d57775384a58ec3e95d97e0,machsuite_xilinx,fine_grained,viterbi,xczu9eg-ffvb1156-2-i,10.0,2023.1.1,,7.43e-09,820908.0,0.00609934644,820908.0,0.00609934644,820908.0,0.00609934644,10610.0,5218.0,9.0,44.0,0.0,241055.412432739,241083.155798606,27.743365867005195,24,False
viterbi_opt_1d7c190d94f9fbff866dc32acecf5c3e,machsuite_xilinx,fine_grained,viterbi,xczu9eg-ffvb1156-2-i,10.0,2023.1.1,,6.739e-09,828408.0,0.005582641512,828408.0,0.005582641512,828408.0,0.005582641512,41838.0,15284.0,6.0,128.0,0.0,241056.011618125,241098.665431522,42.653813397017075,22,False
atax_opt_652b8d2085461a5b55c7ab5e944cafe3,polybench_xilinx,fine_grained,atax,xczu9eg-ffvb1156-2-i,10.0,2023.1.1,,7.114e-09,30732.0,0.000218627448,30732.0,0.000218627448,30732.0,0.000218627448,2389.0,1880.0,5.0,8.0,0.0,241059.332198532,241079.799928397,20.46772986499127,9,False
atax_opt_d05a00db8adda49bfea1c05de45c49fc,polybench_xilinx,fine_grained,atax,xczu9eg-ffvb1156-2-i,10.0,2023.1.1,,7.016000000000001e-09,21586.0,0.00015144737600000002,21586.0,0.00015144737600000002,21586.0,0.00015144737600000002,1563.0,1263.0,5.0,12.0,0.0,241061.636408229,241080.537082774,18.900674545002403,21,False
atax_opt_d4bc95179cc225fcb6064586a131ff45,polybench_xilinx,fine_grained,atax,xczu9eg-ffvb1156-2-i,10.0,2023.1.1,,7.114e-09,18512.0,0.000131694368,18512.0,0.000131694368,18512.0,0.000131694368,6025.0,5977.0,40.0,8.0,0.0,241065.800315407,241087.320915645,21.520600238000043,6,False
atax_opt_cd53ec28cbe21869cb5bd96ea640ad55,polybench_xilinx,fine_grained,atax,xczu9eg-ffvb1156-2-i,10.0,2023.1.1,,7.2720000000000005e-09,14296.0,0.000103960512,14296.0,0.000103960512,14296.0,0.000103960512,14732.0,21749.0,80.0,32.0,0.0,241068.006410013,241113.999175137,45.99276512398501,20,False
atax_opt_16e8f88f590fe5d45c730afd973de098,polybench_xilinx,fine_grained,atax,xczu9eg-ffvb1156-2-i,10.0,2023.1.1,,7.114e-09,26700.0,0.0001899438,26700.0,0.0001899438,26700.0,0.0001899438,2291.0,1552.0,5.0,8.0,0.0,241074.885621732,241094.627430823,19.741809090977767,25,False
atax_opt_3e575d5a1904331bcb191220d155dcff,polybench_xilinx,fine_grained,atax,xczu9eg-ffvb1156-2-i,10.0,2023.1.1,,7.2720000000000005e-09,1518.0,1.1038896000000001e-05,1518.0,1.1038896000000001e-05,1518.0,1.1038896000000001e-05,110854.0,151240.0,1280.0,480.0,0.0,241075.122353246,241159.564535401,84.44218215500587,26,False
atax_opt_4fad2325864ddbe70516b9256f49103d,polybench_xilinx,fine_grained,atax,xczu9eg-ffvb1156-2-i,10.0,2023.1.1,,7.331000000000001e-09,5142.0,3.7696002000000005e-05,5142.0,3.7696002000000005e-05,5142.0,3.7696002000000005e-05,61332.0,75120.0,320.0,4.0,0.0,241075.180629416,241226.991007855,151.81037843899685,18,False
atax_opt_8121b6d23ca3425f1fd0115a04fc62dc,polybench_xilinx,fine_grained,atax,xczu9eg-ffvb1156-2-i,10.0,2023.1.1,,7.2720000000000005e-09,4833.0,3.5145576000000006e-05,4833.0,3.5145576000000006e-05,4833.0,3.5145576000000006e-05,44740.0,69385.0,320.0,132.0,0.0,241079.297380013,241144.491644826,65.19426481297705,13,False
bicg_opt_40095e42d87d8883d0cf5083251b9caf,polybench_xilinx,fine_grained,bicg,xczu9eg-ffvb1156-2-i,10.0,2023.1.1,,7.114e-09,19471.0,0.000138516694,19471.0,0.000138516694,19471.0,0.000138516694,3612.0,3478.0,20.0,8.0,0.0,241079.800517671,241100.831406411,21.030888739973307,9,False
bicg_opt_ba24811d4dcfa1b6b10e966873dc18b3,polybench_xilinx,fine_grained,bicg,xczu9eg-ffvb1156-2-i,10.0,2023.1.1,,7.016000000000001e-09,25552.0,0.00017927283200000002,25552.0,0.00017927283200000002,25552.0,0.00017927283200000002,1442.0,1028.0,5.0,14.0,0.0,241080.235166453,241099.745678445,19.510511992004467,3,False
bicg_opt_55f1fc008f5189a375b50b075abad086,polybench_xilinx,fine_grained,bicg,xczu9eg-ffvb1156-2-i,10.0,2023.1.1,,7.114e-09,30283.0,0.000215433262,30283.0,0.000215433262,30283.0,0.000215433262,3906.0,3391.0,5.0,8.0,0.0,241080.381053147,241101.944460347,21.56340720001026,17,False
bicg_opt_94c81d84290196b63d1fa294794eb12b,polybench_xilinx,fine_grained,bicg,xczu9eg-ffvb1156-2-i,10.0,2023.1.1,,7.114e-09,25827.0,0.000183733278,25827.0,0.000183733278,25827.0,0.000183733278,104181.0,137441.0,1280.0,480.0,0.0,241080.537681389,241140.858177609,60.320496220025234,21,False
bicg_opt_5334546da9e231f1c47cd6e7e43c5ab5,polybench_xilinx,fine_grained,bicg,xczu9eg-ffvb1156-2-i,10.0,2023.1.1,,7.114e-09,43018.0,0.000306030052,43018.0,0.000306030052,43018.0,0.000306030052,2539.0,1810.0,5.0,8.0,0.0,241083.102188583,241103.738154579,20.63596599601442,28,False
bicg_opt_9dde8a5377a14bb7bdf20b185a7bd656,polybench_xilinx,fine_grained,bicg,xczu9eg-ffvb1156-2-i,10.0,2023.1.1,,7.2720000000000005e-09,1516.0,1.1024352000000001e-05,1516.0,1.1024352000000001e-05,1516.0,1.1024352000000001e-05,111163.0,151718.0,1280.0,480.0,0.0,241083.156439835,241172.250866598,89.09442676301114,24,False
bicg_opt_88fc7f0d4beede47b7f9ed258def3e1a,polybench_xilinx,fine_grained,bicg,xczu9eg-ffvb1156-2-i,10.0,2023.1.1,,7.114e-09,5084.0,3.6167576000000004e-05,5084.0,3.6167576000000004e-05,5084.0,3.6167576000000004e-05,232253.0,293677.0,2560.0,5.0,0.0,241083.222513625,241228.019176735,144.79666310999892,19,False
bicg_opt_545a3e9fcfb12dea3e859e933cbaf863,polybench_xilinx,fine_grained,bicg,xczu9eg-ffvb1156-2-i,10.0,2023.1.1,,7.2720000000000005e-09,19508.0,0.000141862176,19508.0,0.000141862176,19508.0,0.000141862176,20875.0,26079.0,134.0,142.0,0.0,241085.141045399,241140.057327339,54.916281939978944,29,False
gemm_opt_51fc7fb48a3381cfe66e2709e6125930,polybench_xilinx,fine_grained,gemm,xczu9eg-ffvb1156-2-i,10.0,2023.1.1,,7.016000000000001e-09,28958.0,0.00020316932800000002,28958.0,0.00020316932800000002,28958.0,0.00020316932800000002,16366.0,22844.0,128.0,256.0,0.0,241087.321829179,241122.590809839,35.268980659981025,6,False
gemm_opt_5221d480c434e2e36e79e2823a8a357b,polybench_xilinx,fine_grained,gemm,xczu9eg-ffvb1156-2-i,10.0,2023.1.1,,7.016000000000001e-09,28958.0,0.00020316932800000002,28958.0,0.00020316932800000002,28958.0,0.00020316932800000002,16366.0,22844.0,128.0,256.0,0.0,241094.628069554,241129.698718445,35.070648891007295,25,False
gemm_opt_64b43800695a6e3cb0b61248be5ac204,polybench_xilinx,fine_grained,gemm,xczu9eg-ffvb1156-2-i,10.0,2023.1.1,,7.016000000000001e-09,28958.0,0.00020316932800000002,28958.0,0.00020316932800000002,28958.0,0.00020316932800000002,16366.0,22844.0,128.0,256.0,0.0,241097.274727526,241131.127976758,33.853249231993686,27,False
gemm_opt_005cf8bb045a4fb3c76a388b9dd58a67,polybench_xilinx,fine_grained,gemm,xczu9eg-ffvb1156-2-i,10.0,2023.1.1,,7.016000000000001e-09,28958.0,0.00020316932800000002,28958.0,0.00020316932800000002,28958.0,0.00020316932800000002,16366.0,22844.0,128.0,256.0,0.0,241098.164962789,241132.512444864,34.34748207501252,4,False
gemm_opt_150fca79959f0434ec99af23839efdb8,polybench_xilinx,fine_grained,gemm,xczu9eg-ffvb1156-2-i,10.0,2023.1.1,,7.016000000000001e-09,28958.0,0.00020316932800000002,28958.0,0.00020316932800000002,28958.0,0.00020316932800000002,16366.0,22844.0,128.0,256.0,0.0,241098.666096802,241136.351085807,37.68498900500708,22,False
gemm_opt_ac4d026df24a55625bdb482ee3c2debf,polybench_xilinx,fine_grained,gemm,xczu9eg-ffvb1156-2-i,10.0,2023.1.1,,7.016000000000001e-09,28958.0,0.00020316932800000002,28958.0,0.00020316932800000002,28958.0,0.00020316932800000002,16366.0,22844.0,128.0,256.0,0.0,241099.746244251,241134.270035986,34.523791735002305,3,False
gemm_opt_9e4db76ce30803d5554fe31d7bc363ae,polybench_xilinx,fine_grained,gemm,xczu9eg-ffvb1156-2-i,10.0,2023.1.1,,7.016000000000001e-09,28958.0,0.00020316932800000002,28958.0,0.00020316932800000002,28958.0,0.00020316932800000002,16366.0,22844.0,128.0,256.0,0.0,241100.831988172,241150.790569762,49.95858159000636,9,False
gemm_opt_ac139bcfefc71f7366683503e6faa76f,polybench_xilinx,fine_grained,gemm,xczu9eg-ffvb1156-2-i,10.0,2023.1.1,,7.016000000000001e-09,28958.0,0.00020316932800000002,28958.0,0.00020316932800000002,28958.0,0.00020316932800000002,16366.0,22844.0,128.0,256.0,0.0,241101.945050782,241137.390243202,35.44519242001115,17,False
gesummv_opt_a04c012f9ebef589dbd9c78fc16cdddb,polybench_xilinx,fine_grained,gesummv,xczu9eg-ffvb1156-2-i,10.0,2023.1.1,,7.114e-09,35918.0,0.000255520652,35918.0,0.000255520652,35918.0,0.000255520652,2952.0,2388.0,5.0,16.0,0.0,241103.738770584,241125.334073315,21.595302731002448,28,False
gesummv_opt_ef2b96ca155ff5b21533356b7a1006b1,polybench_xilinx,fine_grained,gesummv,xczu9eg-ffvb1156-2-i,10.0,2023.1.1,,7.016000000000001e-09,35023.0,0.000245721368,35023.0,0.000245721368,35023.0,0.000245721368,1756.0,1446.0,5.0,21.0,0.0,241113.999720101,241135.556629667,21.556909565988462,20,False
gesummv_opt_526515fffb892c79dd0143b3183ccc75,polybench_xilinx,fine_grained,gesummv,xczu9eg-ffvb1156-2-i,10.0,2023.1.1,,7.2720000000000005e-09,35534.0,0.000258403248,35534.0,0.000258403248,35534.0,0.000258403248,4609.0,3653.0,5.0,16.0,0.0,241114.968613918,241140.283512055,25.314898137003183,23,False
gesummv_opt_779340b31087b7d01e6d6921a89230a6,polybench_xilinx,fine_grained,gesummv,xczu9eg-ffvb1156-2-i,10.0,2023.1.1,,7.114e-09,14635.0,0.00010411339,14635.0,0.00010411339,14635.0,0.00010411339,139324.0,178728.0,2048.0,488.0,0.0,241122.044516788,241211.948692869,89.90417608097778,1,False
gesummv_opt_183602602d5d3239e0eee67d4cbf11a2,polybench_xilinx,fine_grained,gesummv,xczu9eg-ffvb1156-2-i,10.0,2023.1.1,,7.114e-09,31950.0,0.0002272923,31950.0,0.0002272923,31950.0,0.0002272923,2922.0,2165.0,5.0,16.0,0.0,241122.591461234,241144.134343425,21.542882190988166,6,False
gesummv_opt_833972467702263da32443872feee72b,polybench_xilinx,fine_grained,gesummv,xczu9eg-ffvb1156-2-i,10.0,2023.1.1,,7.114e-09,1322.0,9.404708e-06,1322.0,9.404708e-06,1322.0,9.404708e-06,273970.0,352449.0,4096.0,960.0,0.0,241125.334676021,241304.207611074,178.87293505299021,28,False
gesummv_opt_9e47a71ad5293c826b2bb218795e4461,polybench_xilinx,fine_grained,,,,,,,,,,,,,,,,,,241129.699346508,241429.740318169,300.04097166101565,25,True
gesummv_opt_0f82fc51275e9992dcb61a85d28b0255,polybench_xilinx,fine_grained,gesummv,xczu9eg-ffvb1156-2-i,10.0,2023.1.1,,7.016000000000001e-09,19504.0,0.000136840064,19504.0,0.000136840064,19504.0,0.000136840064,61823.0,93851.0,616.0,260.0,0.0,241131.128574274,241235.588283025,104.45970875100465,27,False
k2mm_opt_4fce37b0a8e5f8d78704fbc835966996,polybench_xilinx,fine_grained,k2mm,xczu9eg-ffvb1156-2-i,10.0,2023.1.1,,7.764000000000001e-09,2179094.0,0.016918485816,2179094.0,0.016918485816,2179094.0,0.016918485816,7521.0,3310.0,13.0,64.0,0.0,241131.836077028,241188.4193628,56.58328577197972,7,False
k2mm_opt_1e4d3024979f6688e034bfe07c5bc4ff,polybench_xilinx,fine_grained,k2mm,xczu9eg-ffvb1156-2-i,10.0,2023.1.1,,7.016000000000001e-09,878875.0,0.006166187000000001,878875.0,0.006166187000000001,878875.0,0.006166187000000001,14994.0,19426.0,80.0,280.0,0.0,241132.513073123,241174.005492185,41.492419062007684,4,False
k2mm_opt_26c507bafef1683016b090c2e1370146,polybench_xilinx,fine_grained,k2mm,xczu9eg-ffvb1156-2-i,10.0,2023.1.1,,7.675000000000001e-09,2180630.0,0.01673633525,2180630.0,0.01673633525,2180630.0,0.01673633525,12102.0,5585.0,40.0,88.0,0.0,241134.270746287,241205.142397001,70.87165071401978,3,False
k2mm_opt_9dba5a4512f14ecca4ab1731e86d120e,polybench_xilinx,fine_grained,k2mm,xczu9eg-ffvb1156-2-i,10.0,2023.1.1,,7.675000000000001e-09,1926294.0,0.014784306450000001,1926294.0,0.014784306450000001,1926294.0,0.014784306450000001,30717.0,31585.0,160.0,152.0,0.0,241135.557263363,241269.535583734,133.97832037098124,20,False
k2mm_opt_7d215b8c1e1543f974fbf24b8ff940d4,polybench_xilinx,fine_grained,k2mm,xczu9eg-ffvb1156-2-i,10.0,2023.1.1,,7.764000000000001e-09,1925142.0,0.014946802488000002,1925142.0,0.014946802488000002,1925142.0,0.014946802488000002,7285.0,3081.0,13.0,64.0,0.0,241136.351687382,241186.401697669,50.05001028699917,22,False
k2mm_opt_17b5dd70d0b34ae099a743aa7de3a718,polybench_xilinx,fine_grained,,,,,,,,,,,,,,,,,,241137.390808049,241437.422820302,300.0320122529811,17,True
k2mm_opt_2bd4cd72bf0fd3f8c0dcbfe3931fbd97,polybench_xilinx,fine_grained,,,,,,,,,,,,,,,,,,241140.057988515,241440.119970157,300.0619816419785,29,True
k2mm_opt_86f1f01a41e6dcc0b4218e28c4480719,polybench_xilinx,fine_grained,k2mm,xczu9eg-ffvb1156-2-i,10.0,2023.1.1,,7.764000000000001e-09,1083939.0,0.008415702396,1083939.0,0.008415702396,1083939.0,0.008415702396,77489.0,96882.0,736.0,416.0,0.0,241140.284131599,241290.289932124,150.00580052498844,23,False
k3mm_opt_9a7fd202aaf559d3bdb179ce1535b10a,polybench_xilinx,fine_grained,k3mm,xczu9eg-ffvb1156-2-i,10.0,2023.1.1,,7.764000000000001e-09,2162962.0,0.016793236968000003,2162962.0,0.016793236968000003,2162962.0,0.016793236968000003,79903.0,75903.0,640.0,168.0,0.0,241140.858792346,241223.334493428,82.47570108200307,21,False
k3mm_opt_3c83707c589dee2216a3242f0abd8345,polybench_xilinx,fine_grained,k3mm,xczu9eg-ffvb1156-2-i,10.0,2023.1.1,,7.016000000000001e-09,877076.0,0.006153565216000001,877076.0,0.006153565216000001,877076.0,0.006153565216000001,25819.0,37484.0,80.0,440.0,0.0,241143.786667362,241206.379961992,62.593294630001765,0,False
k3mm_opt_d0e92e50a908a61a21ef9d1f8384e426,polybench_xilinx,fine_grained,k3mm,xczu9eg-ffvb1156-2-i,10.0,2023.1.1,,7.675000000000001e-09,2164498.0,0.016612522150000003,2164498.0,0.016612522150000003,2164498.0,0.016612522150000003,250863.0,286538.0,2560.0,192.0,0.0,241144.134990791,241332.39109793,188.25610713899368,6,False
k3mm_opt_84441d39d8b70e07b58436c7ddf63274,polybench_xilinx,fine_grained,,,,,,,,,,,,,,,,,,241144.492312775,241444.524032663,300.0317198880075,13,True
k3mm_opt_f5fa63631c43db9d71242ae28f63db6e,polybench_xilinx,fine_grained,k3mm,xczu9eg-ffvb1156-2-i,10.0,2023.1.1,,7.764000000000001e-09,2977805.0,0.023119678020000003,2977805.0,0.023119678020000003,2977805.0,0.023119678020000003,15222.0,10956.0,53.0,124.0,0.0,241150.791185428,241218.193964797,67.40277936900384,9,False
k3mm_opt_9d2976174966ccf174d6f36e5e9ce46b,polybench_xilinx,fine_grained,,,,,,,,,,,,,,,,,,241155.759627485,241455.816497503,300.0568700179865,14,True
k3mm_opt_1184947c1617ed5fbffb7bb9fde69e7c,polybench_xilinx,fine_grained,,,,,,,,,,,,,,,,,,241159.565121624,241459.625995805,300.0608741809847,26,True
k3mm_opt_37e06e7f75c75d006877d34974f9ce61,polybench_xilinx,fine_grained,k3mm,xczu9eg-ffvb1156-2-i,10.0,2023.1.1,,7.793e-09,2150413.0,0.016758168509000002,2150413.0,0.016758168509000002,2150413.0,0.016758168509000002,75803.0,91461.0,648.0,416.0,0.0,241160.408634984,241261.215557994,100.80692301000818,16,False
mvt_opt_bf5b0988d877f9bf20b76a495c04e8cc,polybench_xilinx,fine_grained,mvt,xczu9eg-ffvb1156-2-i,10.0,2023.1.1,,7.016000000000001e-09,35462.0,0.000248801392,35462.0,0.000248801392,35462.0,0.000248801392,2431.0,2027.0,5.0,8.0,0.0,241172.251628749,241192.147736747,19.896107997978106,24,False
mvt_opt_3cbc64464227f3737198bc267e1e18d3,polybench_xilinx,fine_grained,mvt,xczu9eg-ffvb1156-2-i,10.0,2023.1.1,,7.016000000000001e-09,34502.0,0.00024206603200000002,34502.0,0.00024206603200000002,34502.0,0.00024206603200000002,1496.0,1114.0,5.0,13.0,0.0,241174.006070164,241192.997571709,18.99150154500967,4,False
mvt_opt_1749843673e74854395aeb9d59813c93,polybench_xilinx,fine_grained,mvt,xczu9eg-ffvb1156-2-i,10.0,2023.1.1,,7.016000000000001e-09,35078.0,0.000246107248,35078.0,0.000246107248,35078.0,0.000246107248,5542.0,3188.0,5.0,64.0,0.0,241186.402317385,241209.698835707,23.296518322022166,22,False
mvt_opt_c00c6a74b57ca9e1595a877645a13474,polybench_xilinx,fine_grained,mvt,xczu9eg-ffvb1156-2-i,10.0,2023.1.1,,7.114e-09,14304.0,0.000101758656,14304.0,0.000101758656,14304.0,0.000101758656,130078.0,137439.0,1280.0,0.0,0.0,241188.425071926,241262.809510567,74.384438640991,7,False
mvt_opt_8514549d8ee84209f2a8191fbabe2bb9,polybench_xilinx,fine_grained,mvt,xczu9eg-ffvb1156-2-i,10.0,2023.1.1,,7.016000000000001e-09,31430.0,0.00022051288000000003,31430.0,0.00022051288000000003,31430.0,0.00022051288000000003,2333.0,1699.0,5.0,8.0,0.0,241192.148323941,241211.475742401,19.327418460015906,24,False
mvt_opt_f99e4ebdff4ce9032725a5e39be9deb5,polybench_xilinx,fine_grained,,,,,,,,,,,,,,,,,,241192.998215336,241493.059158348,300.0609430120094,4,True
mvt_opt_5882f16cc8370daf7c481ca66d854f98,polybench_xilinx,fine_grained,,,,,,,,,,,,,,,,,,241205.143301897,241505.20538981,300.0620879129856,3,True
mvt_opt_1fff85c3ac3d3ab8b68fc6112532c897,polybench_xilinx,fine_grained,mvt,xczu9eg-ffvb1156-2-i,10.0,2023.1.1,,7.016000000000001e-09,19552.0,0.000137176832,19552.0,0.000137176832,19552.0,0.000137176832,47999.0,72564.0,320.0,134.0,0.0,241206.380557676,241273.526844979,67.14628730301047,0,False
syr2k_opt_472b18d624332d45f858e125ca9eba9e,polybench_xilinx,fine_grained,syr2k,xczu9eg-ffvb1156-2-i,10.0,2023.1.1,,7.331000000000001e-09,2191383.0,0.016065028773000003,2191383.0,0.016065028773000003,2191383.0,0.016065028773000003,7248.0,3800.0,20.0,56.0,0.0,241209.699440338,241260.92162444,51.22218410199275,22,False
syr2k_opt_7e9f0d52c6274d0319c596af04510c6f,polybench_xilinx,fine_grained,syr2k,xczu9eg-ffvb1156-2-i,10.0,2023.1.1,,7.016000000000001e-09,878879.0,0.006166215064000001,878879.0,0.006166215064000001,878879.0,0.006166215064000001,17721.0,23513.0,128.0,280.0,0.0,241211.47634085,241258.265432982,46.78909213200677,24,False
syr2k_opt_e6231e15be6d3db7ffcfacd4c72d43bf,polybench_xilinx,fine_grained,syr2k,xczu9eg-ffvb1156-2-i,10.0,2023.1.1,,7.852000000000001e-09,2192919.0,0.017218799988000005,2192919.0,0.017218799988000005,2192919.0,0.017218799988000005,12178.0,8182.0,56.0,56.0,0.0,241211.949303242,241281.560466321,69.61116307901102,1,False
syr2k_opt_e548207634c38c2d4dc670b4b76d05c9,polybench_xilinx,fine_grained,syr2k,xczu9eg-ffvb1156-2-i,10.0,2023.1.1,,7.852000000000001e-09,1938583.0,0.015221753716000003,1938583.0,0.015221753716000003,1938583.0,0.015221753716000003,42747.0,50496.0,224.0,152.0,0.0,241218.194652735,241422.883614816,204.6889620810107,9,False
syr2k_opt_d479f4b3206e55fe43e8285264aad7cb,polybench_xilinx,fine_grained,syr2k,xczu9eg-ffvb1156-2-i,10.0,2023.1.1,,7.331000000000001e-09,1937431.0,0.014203306661000002,1937431.0,0.014203306661000002,1937431.0,0.014203306661000002,7250.0,3635.0,20.0,56.0,0.0,241223.335114781,241275.556845243,52.22173046201351,21,False
syr2k_opt_e9bfacc3f0f2e68a4bd04fdb46c4e24a,polybench_xilinx,fine_grained,syr2k,xczu9eg-ffvb1156-2-i,10.0,2023.1.1,,7.852000000000001e-09,1087906.0,0.008542237912000001,1087906.0,0.008542237912000001,1087906.0,0.008542237912000001,147301.0,193803.0,1472.0,728.0,0.0,241226.992475125,241518.560502686,291.5680275610066,18,False
syr2k_opt_44541f1c5f49ca06afbc6f71cdfc3931,polybench_xilinx,fine_grained,,,,,,,,,,,,,,,,,,241228.019740845,241528.049941374,300.03020052899956,19,True
syr2k_opt_8faf274a92a19431283836ffe58af781,polybench_xilinx,fine_grained,syr2k,xczu9eg-ffvb1156-2-i,10.0,2023.1.1,,7.449e-09,1098278.0,0.008181072822,1098278.0,0.008181072822,1098278.0,0.008181072822,49314.0,74757.0,368.0,216.0,0.0,241235.588936589,241377.091531903,141.50259531399934,27,False
syrk_opt_706fe8fd11b9f4d989bb535d52aa0bd3,polybench_xilinx,fine_grained,syrk,xczu9eg-ffvb1156-2-i,10.0,2023.1.1,,7.016000000000001e-09,1105939.0,0.0077592680240000005,1105939.0,0.0077592680240000005,1105939.0,0.0077592680240000005,3055.0,2126.0,10.0,32.0,0.0,241238.425389688,241260.810277069,22.38488738099113,31,False
syrk_opt_7eb1a21e13a210fae2d84241a5063d3a,polybench_xilinx,fine_grained,syrk,xczu9eg-ffvb1156-2-i,10.0,2023.1.1,,7.016000000000001e-09,864276.0,0.006063760416000001,864276.0,0.006063760416000001,864276.0,0.006063760416000001,1969.0,1406.0,5.0,32.0,0.0,241245.507997608,241266.877351039,21.369353431015043,10,False
syrk_opt_7bee2a5e85cf865bc460763215146206,polybench_xilinx,fine_grained,syrk,xczu9eg-ffvb1156-2-i,10.0,2023.1.1,,7.016000000000001e-09,1103379.0,0.007741307064000001,1103379.0,0.007741307064000001,1103379.0,0.007741307064000001,6332.0,5122.0,40.0,40.0,0.0,241258.266149963,241280.539601829,22.27345186599996,24,False
syrk_opt_dc41088253e977352d94ef7b6424a347,polybench_xilinx,fine_grained,syrk,xczu9eg-ffvb1156-2-i,10.0,2023.1.1,,7.2720000000000005e-09,849191.0,0.006175316952000001,849191.0,0.006175316952000001,849191.0,0.006175316952000001,18509.0,29924.0,80.0,80.0,0.0,241260.811094631,241334.848608855,74.03751422400819,31,False
syrk_opt_f11a1e1bb0a1c630e240b824710c1cd1,polybench_xilinx,fine_grained,syrk,xczu9eg-ffvb1156-2-i,10.0,2023.1.1,,7.016000000000001e-09,864270.0,0.0060637183200000005,864270.0,0.0060637183200000005,864270.0,0.0060637183200000005,2607.0,1172.0,5.0,32.0,0.0,241260.922239441,241281.359752142,20.437512700998923,22,False
syrk_opt_a447ac10b0839f4bedba29b8ca393ce5,polybench_xilinx,fine_grained,syrk,xczu9eg-ffvb1156-2-i,10.0,2023.1.1,,7.2720000000000005e-09,2610.0,1.8979920000000002e-05,2610.0,1.8979920000000002e-05,2610.0,1.8979920000000002e-05,132365.0,186190.0,1472.0,656.0,0.0,241261.216249008,241392.006021958,130.7897729499964,16,False
syrk_opt_e3e6a9889f7735609fd486fbea89e844,polybench_xilinx,fine_grained,,,,,,,,,,,,,,,,,,241262.810118771,241562.875976671,300.06585789998644,7,True
syrk_opt_0f12cb68a1ffb2a3ddad0f31bd4fd16a,polybench_xilinx,fine_grained,syrk,xczu9eg-ffvb1156-2-i,10.0,2023.1.1,,7.016000000000001e-09,37404.0,0.000262426464,37404.0,0.000262426464,37404.0,0.000262426464,45498.0,73837.0,368.0,192.0,0.0,241266.877953212,241332.678210503,65.80025729100453,10,False
gsm_opt_21690a955914018aa275971f2f423857,chstone_xilinx,fine_grained,Gsm_LPC_Analysis,xczu9eg-ffvb1156-2-i,10.0,2023.1.1,,7.26e-09,108.0,7.8408e-07,440.0,3.1944000000000003e-06,990.0,7.1874e-06,51977.0,17138.0,87.0,4.0,0.0,241269.536237729,241328.190729687,58.654491958004655,20,False
gsm_opt_27c4dc8848daaa91366fd06e8511c808,chstone_xilinx,fine_grained,Gsm_LPC_Analysis,xczu9eg-ffvb1156-2-i,10.0,2023.1.1,,7.1670000000000006e-09,376.0,2.6947920000000002e-06,758.0,5.432586e-06,1279.0,9.166593e-06,36826.0,15428.0,45.0,4.0,0.0,241273.527517293,241340.918789718,67.39127242501127,0,False
gsm_opt_27863689f8abfb23e9d96304bae8f117,chstone_xilinx,fine_grained,Gsm_LPC_Analysis,xczu9eg-ffvb1156-2-i,10.0,2023.1.1,,7.26e-09,103.0,7.4778e-07,428.0,3.10728e-06,970.0,7.0422e-06,100594.0,21675.0,222.0,4.0,0.0,241275.557446815,241340.46969621,64.91224939501262,21,False
gsm_opt_fc0fcb3053f2eeb9e1c660093414c4db,chstone_xilinx,fine_grained,Gsm_LPC_Analysis,xczu9eg-ffvb1156-2-i,10.0,2023.1.1,,7.2960000000000004e-09,108.0,7.879680000000001e-07,422.0,3.078912e-06,900.0,6.5664e-06,73442.0,19636.0,139.0,4.0,0.0,241277.352299642,241344.518357362,67.16605771999457,2,False
gsm_opt_0825d38964e1f45ee6f4b4e5a77df443,chstone_xilinx,fine_grained,Gsm_LPC_Analysis,xczu9eg-ffvb1156-2-i,10.0,2023.1.1,,7.26e-09,108.0,7.8408e-07,420.0,3.0492e-06,871.0,6.32346e-06,51464.0,17157.0,87.0,4.0,0.0,241280.540185357,241340.472530924,59.932345566980075,24,False
gsm_opt_d7f2c78f25dad857db9d4aad849fc992,chstone_xilinx,fine_grained,Gsm_LPC_Analysis,xczu9eg-ffvb1156-2-i,10.0,2023.1.1,,7.26e-09,108.0,7.8408e-07,435.0,3.1581e-06,980.0,7.1148e-06,71402.0,19447.0,139.0,4.0,0.0,241281.042463993,241345.52401993,64.48155593697447,11,False
gsm_opt_ea12b54bf509c1a86145135d646cfeba,chstone_xilinx,fine_grained,Gsm_LPC_Analysis,xczu9eg-ffvb1156-2-i,10.0,2023.1.1,,7.26e-09,103.0,7.4778e-07,408.0,2.9620800000000003e-06,851.0,6.17826e-06,101941.0,21820.0,222.0,4.0,0.0,241281.360422552,241351.365492295,70.00506974299788,22,False
gsm_opt_5a12f066ea792355b337b19a500fb595,chstone_xilinx,fine_grained,Gsm_LPC_Analysis,xczu9eg-ffvb1156-2-i,10.0,2023.1.1,,7.2960000000000004e-09,376.0,2.7432960000000004e-06,765.0,5.581440000000001e-06,1318.0,9.616128000000001e-06,34871.0,15224.0,45.0,4.0,0.0,241281.561073976,241347.182309609,65.62123563300702,1,False
sha_opt_c082be4b9f0887806c9015da0f86d818,chstone_xilinx,fine_grained,sha_stream,xczu9eg-ffvb1156-2-i,10.0,2023.1.1,,7.273e-09,28764.0,0.000209200572,,,28875.0,0.000210007875,38244.0,16312.0,0.0,14.0,0.0,241290.290593845,241320.577934179,30.287340333976317,23,False
sha_opt_16efd9a6cca583f8b989d4536f288234,chstone_xilinx,fine_grained,sha_stream,xczu9eg-ffvb1156-2-i,10.0,2023.1.1,,7.13e-09,38016.0,0.00027105408,,,38163.0,0.00027210219,15912.0,5252.0,0.0,22.0,0.0,241304.208223831,241329.375136062,25.166912231012248,28,False
sha_opt_416a4acdfdac0caa20610ddb0b3b2e25,chstone_xilinx,fine_grained,sha_stream,xczu9eg-ffvb1156-2-i,10.0,2023.1.1,,7.2560000000000006e-09,27993.0,0.000203117208,,,28101.0,0.00020390085600000002,37146.0,9238.0,0.0,14.0,0.0,241320.578590984,241351.871218935,31.292627951013856,23,False
sha_opt_5fba582532a14b65a28656182042c0e3,chstone_xilinx,fine_grained,sha_stream,xczu9eg-ffvb1156-2-i,10.0,2023.1.1,,7.099e-09,31334.0,0.00022244006600000003,,,31455.0,0.000223299045,30570.0,8982.0,0.0,14.0,0.0,241324.900074936,241350.696301818,25.796226881997427,15,False
sha_opt_94fbb3aae6ccd3df9a48ceadcabd32d0,chstone_xilinx,fine_grained,sha_stream,xczu9eg-ffvb1156-2-i,10.0,2023.1.1,,7.085e-09,40335.0,0.000285773475,40335.0,0.000285773475,40335.0,0.000285773475,13194.0,3071.0,0.0,18.0,0.0,241326.355783163,241351.008260464,24.652477301016916,30,False
sha_opt_4b2cd584b5552263e55054d7aa5a61aa,chstone_xilinx,fine_grained,sha_stream,xczu9eg-ffvb1156-2-i,10.0,2023.1.1,,7.281e-09,21825.0,0.000158907825,,,21909.0,0.000159519429,43838.0,11356.0,0.0,14.0,0.0,241328.191350989,241359.222117647,31.030766658019274,20,False
sha_opt_2a9c535c14a0c99448cd9231ce9e0bbf,chstone_xilinx,fine_grained,sha_stream,xczu9eg-ffvb1156-2-i,10.0,2023.1.1,,7.273e-09,22082.0,0.000160602386,,,22167.0,0.000161220591,31864.0,9260.0,0.0,14.0,0.0,241329.375744819,241357.792555223,28.416810403985437,28,False
sha_opt_5530271808271dc4542eaf5e86ecdc1a,chstone_xilinx,fine_grained,sha_stream,xczu9eg-ffvb1156-2-i,10.0,2023.1.1,,7.273e-09,24138.0,0.000175555674,,,24231.0,0.000176232063,30404.0,8444.0,0.0,14.0,0.0,241332.391732874,241360.350756258,27.95902338399901,6,False
